Date,Time,Temp_C,Dew Point Temp_C,Rel Hum_%,Wind Speed_km/h,Visibility_km,Press_kPa,Weather
2/1/2012,2:00,-6.8,-9.3,82,19,4.8,100.61,Freezing Drizzle
2/1/2012,3:00,-6.5,-9.0,82,15,4.8,100.56,Freezing Rain
2/1/2012,4:00,-5.8,-8.2,83,17,8.0,100.48,Freezing Rain
3/2/2012,11:00,-5.5,-7.5,86,15,2.8,101.21,Snow
3/2/2012,13:00,-4.6,-6.5,87,13,4.8,101.09,Snow
3/3/2012,1:00,1.2,-2.8,75,19,25.0,99.96,Snow
3/3/2012,2:00,-0.6,-2.9,84,19,2.4,99.75,Snow
3/3/2012,3:00,-0.3,-2.4,86,22,2.8,99.55,Snow
3/3/2012,21:00,2.9,-3.6,62,46,25.0,98.98,Snow
3/3/2012,22:00,2.8,-3.4,64,57,25.0,99.07,Snow
3/3/2012,23:00,2.3,-3.1,67,33,25.0,99.18,Snow
3/8/2012,23:00,0.8,-1.4,85,35,2.4,100.25,Snow
3/9/2012,0:00,-0.1,-2.0,87,28,2.8,100.33,Snow
3/28/2012,0:00,1.0,-10.8,41,6,16.1,101.58,Snow
3/28/2012,1:00,-1.1,-4.5,78,11,16.1,101.39,Snow
3/28/2012,2:00,-1.0,-4.8,75,13,9.7,101.28,Snow
3/28/2012,3:00,-1.6,-4.1,83,20,25.0,101.08,Snow
3/28/2012,4:00,-1.5,-3.8,84,20,25.0,100.88,Snow
3/28/2012,6:00,-0.3,-3.5,79,20,24.1,100.51,Snow
3/28/2012,7:00,0.5,-2.7,79,22,24.1,100.4,Snow
3/29/2012,5:00,0.6,-2.1,82,9,25.0,100.35,Snow
3/29/2012,6:00,0.7,-1.9,83,6,24.1,100.44,Snow
3/29/2012,7:00,0.8,-1.6,84,7,24.1,100.52,Snow
3/29/2012,8:00,1.5,-1.1,83,6,16.1,100.59,Snow
3/29/2012,9:00,2.5,-1.2,77,9,24.1,100.64,Snow
4/27/2012,7:00,1.8,-2.9,71,32,12.9,100.25,Snow
4/27/2012,8:00,2.3,-2.7,69,26,24.1,100.33,Snow
4/27/2012,9:00,2.7,-3.2,65,32,24.1,100.4,Snow
4/27/2012,10:00,3.7,-3.1,61,30,24.1,100.48,Snow
4/27/2012,12:00,2.7,-4.1,61,35,24.1,100.65,Snow
8/5/2012,18:00,25.0,22.0,83,22,19.3,100.28,"Thunderstorms,Rain Showers"
8/11/2012,17:00,20.2,19.5,96,32,12.9,100.58,"Thunderstorms,Rain Showers"
9/1/2012,5:00,16.0,12.9,82,13,25.0,101.31,Mainly Clear
9/1/2012,6:00,16.2,12.5,79,13,48.3,101.41,Mainly Clear
9/1/2012,7:00,17.8,10.6,63,24,48.3,101.48,Mainly Clear
9/1/2012,8:00,18.6,9.5,55,20,48.3,101.54,Mainly Clear
9/1/2012,11:00,22.7,6.2,34,15,48.3,101.6,Mainly Clear
9/1/2012,21:00,18.5,7.6,49,7,25.0,101.47,Clear
9/1/2012,22:00,17.5,9.2,58,6,25.0,101.46,Clear
9/1/2012,23:00,17.0,9.1,60,7,25.0,101.45,Mainly Clear
9/2/2012,0:00,16.1,9.0,63,4,25.0,101.47,Clear
9/2/2012,1:00,14.0,9.3,73,4,25.0,101.47,Clear
9/2/2012,2:00,13.5,9.5,77,4,25.0,101.47,Clear
9/2/2012,3:00,13.0,9.5,79,0,25.0,101.43,Mainly Clear
9/2/2012,4:00,13.3,9.7,79,0,25.0,101.41,Mainly Clear
9/2/2012,5:00,14.2,10.2,77,6,25.0,101.43,Mainly Clear
9/2/2012,6:00,13.0,10.8,86,7,24.1,101.48,Mainly Clear
9/2/2012,7:00,15.5,11.6,78,4,48.3,101.49,Mainly Clear
9/2/2012,12:00,24.4,8.8,37,4,48.3,101.49,Mainly Clear
9/2/2012,13:00,25.5,7.0,31,9,48.3,101.47,Mainly Clear
9/2/2012,14:00,25.3,7.4,32,9,48.3,101.45,Mainly Clear
9/2/2012,15:00,25.6,6.5,29,7,48.3,101.41,Mainly Clear
9/2/2012,16:00,25.4,6.0,29,11,48.3,101.43,Mainly Clear
9/2/2012,17:00,23.6,6.9,34,9,48.3,101.44,Mainly Clear
9/2/2012,18:00,24.0,6.8,33,11,48.3,101.47,Mainly Clear
9/2/2012,19:00,20.9,8.4,45,13,48.3,101.51,Mainly Clear
9/2/2012,20:00,21.2,8.5,44,9,25.0,101.52,Clear
9/2/2012,21:00,19.7,9.4,51,7,25.0,101.53,Mainly Clear
9/2/2012,22:00,19.2,10.0,55,4,25.0,101.57,Mainly Clear
9/2/2012,23:00,18.7,9.8,56,4,25.0,101.57,Clear
9/3/2012,0:00,17.5,10.2,62,7,25.0,101.6,Clear
9/3/2012,1:00,15.6,9.3,66,0,25.0,101.61,Mainly Clear
9/3/2012,2:00,13.7,8.9,73,6,25.0,101.59,Mainly Clear
9/3/2012,3:00,14.0,10.4,79,4,25.0,101.61,Mainly Clear
9/3/2012,4:00,13.4,11.0,85,6,25.0,101.63,Clear
9/3/2012,5:00,14.5,10.3,76,6,25.0,101.68,Mainly Clear
9/3/2012,6:00,13.4,10.7,84,6,48.3,101.68,Mainly Clear
9/3/2012,7:00,16.3,12.2,77,7,48.3,101.69,Mainly Clear
9/3/2012,8:00,18.5,13.0,70,11,48.3,101.67,Mainly Clear
9/3/2012,9:00,21.1,11.8,55,9,48.3,101.65,Mainly Clear
9/3/2012,10:00,23.5,11.7,47,9,48.3,101.63,Mainly Clear
9/3/2012,11:00,24.3,10.9,43,9,48.3,101.59,Mainly Clear
9/3/2012,12:00,26.0,11.1,39,13,48.3,101.54,Mainly Clear
9/3/2012,13:00,26.2,10.0,36,4,48.3,101.5,Mainly Clear
9/3/2012,14:00,28.0,10.4,33,0,48.3,101.41,Mainly Clear
9/3/2012,15:00,27.8,10.5,34,13,48.3,101.33,Mainly Clear
9/3/2012,21:00,24.2,12.8,49,15,25.0,101.19,Mainly Clear
9/3/2012,22:00,22.7,14.7,61,13,25.0,101.19,Mainly Clear
9/3/2012,23:00,21.1,15.8,72,11,25.0,101.18,Mainly Clear
9/4/2012,0:00,20.6,15.9,74,9,25.0,101.21,Mainly Clear
9/5/2012,7:00,19.5,18.3,93,11,24.1,100.55,Mainly Clear
9/5/2012,8:00,21.3,18.6,85,13,48.3,100.51,Mainly Clear
9/5/2012,12:00,25.5,19.2,68,11,24.1,100.54,Mainly Clear
9/5/2012,13:00,25.9,18.3,63,11,24.1,100.52,Mainly Clear
9/5/2012,14:00,26.4,18.1,60,13,24.1,100.49,Mainly Clear
9/5/2012,15:00,26.2,17.6,59,11,24.1,100.47,Mainly Clear
9/5/2012,16:00,27.0,17.7,57,9,24.1,100.45,Mainly Clear
9/5/2012,17:00,26.1,17.2,58,13,24.1,100.44,Mainly Clear
9/5/2012,18:00,25.8,17.1,59,9,24.1,100.5,Mainly Clear
9/5/2012,23:00,22.1,18.1,78,6,25.0,100.53,Mainly Clear
9/6/2012,0:00,21.3,18.1,82,7,25.0,100.53,Mainly Clear
9/6/2012,2:00,21.3,18.5,84,7,25.0,100.55,Mainly Clear
9/6/2012,4:00,21.1,18.8,87,7,25.0,100.54,Mainly Clear
9/6/2012,9:00,23.1,18.3,74,6,24.1,100.59,Mainly Clear
9/6/2012,10:00,24.7,17.8,65,6,24.1,100.55,Mainly Clear
9/6/2012,11:00,26.1,18.1,61,13,24.1,100.5,Mainly Clear
9/6/2012,12:00,26.8,17.3,56,15,24.1,100.45,Mainly Clear
9/6/2012,13:00,27.9,17.5,53,11,24.1,100.41,Mainly Clear
9/6/2012,15:00,28.2,18.4,55,13,24.1,100.3,Mainly Clear
9/6/2012,16:00,27.6,17.9,56,19,24.1,100.31,Mainly Clear
9/6/2012,17:00,26.9,17.6,57,17,24.1,100.36,Mainly Clear
9/6/2012,18:00,24.8,16.5,60,9,24.1,100.38,Mainly Clear
9/6/2012,19:00,22.6,16.5,68,6,25.0,100.42,Mainly Clear
9/6/2012,20:00,22.5,16.8,70,11,25.0,100.47,Clear
9/6/2012,21:00,21.4,15.1,67,7,25.0,100.52,Mainly Clear
9/6/2012,22:00,19.6,15.0,75,9,25.0,100.55,Mainly Clear
9/6/2012,23:00,20.2,14.6,70,0,25.0,100.59,Mainly Clear
9/7/2012,0:00,18.1,14.8,81,4,24.1,100.62,Clear
9/7/2012,1:00,18.7,14.5,77,4,25.0,100.62,Clear
9/7/2012,2:00,17.6,15.6,88,9,25.0,100.62,Mainly Clear
9/7/2012,3:00,18.5,14.5,78,6,25.0,100.68,Clear
9/7/2012,4:00,18.3,14.2,77,6,25.0,100.68,Clear
9/7/2012,5:00,15.8,14.3,91,7,25.0,100.72,Mainly Clear
9/7/2012,6:00,17.5,14.6,83,11,48.3,100.77,Mainly Clear
9/8/2012,20:00,19.2,13.2,68,43,25.0,99.51,Mainly Clear
9/8/2012,22:00,14.2,10.8,80,30,25.0,99.87,Mostly Cloudy
9/9/2012,2:00,13.7,9.6,76,24,25.0,100.3,Mostly Cloudy
9/9/2012,3:00,12.6,9.4,81,17,25.0,100.28,Mainly Clear
9/9/2012,4:00,12.2,9.5,84,20,25.0,100.39,Mainly Clear
9/9/2012,5:00,11.5,9.5,88,11,25.0,100.44,Clear
9/9/2012,6:00,11.0,9.6,91,6,24.1,100.5,Mainly Clear
9/9/2012,7:00,12.1,9.8,86,7,24.1,100.57,Mainly Clear
9/9/2012,8:00,13.7,9.9,78,17,24.1,100.6,Mainly Clear
9/9/2012,9:00,14.8,8.8,67,17,48.3,100.65,Mainly Clear
9/9/2012,10:00,15.7,9.0,64,17,48.3,100.69,Mostly Cloudy
9/9/2012,11:00,16.8,9.0,60,19,48.3,100.66,Mainly Clear
9/9/2012,12:00,17.3,8.9,58,22,48.3,100.65,Mainly Clear
9/9/2012,13:00,17.3,8.6,57,11,48.3,100.68,Mainly Clear
9/9/2012,14:00,18.1,8.4,53,19,48.3,100.67,Mostly Cloudy
9/9/2012,15:00,17.6,8.9,57,17,48.3,100.67,Mostly Cloudy
9/9/2012,16:00,17.9,8.4,54,22,48.3,100.71,Mainly Clear
9/9/2012,17:00,15.6,8.4,62,15,48.3,100.76,Mainly Clear
9/9/2012,18:00,15.5,8.6,63,11,48.3,100.8,Mostly Cloudy
9/9/2012,19:00,15.2,8.6,65,11,25.0,100.83,Mostly Cloudy
9/9/2012,20:00,14.1,8.6,69,9,25.0,100.87,Mostly Cloudy
9/9/2012,21:00,13.7,9.0,73,9,25.0,100.89,Mostly Cloudy
9/9/2012,22:00,14.2,9.0,71,9,25.0,100.9,Mostly Cloudy
9/10/2012,0:00,13.4,10.2,81,9,25.0,100.94,Mostly Cloudy
9/10/2012,1:00,13.0,10.3,84,9,25.0,100.95,Mostly Cloudy
9/10/2012,2:00,12.7,9.9,83,11,25.0,100.96,Mostly Cloudy
9/10/2012,3:00,12.4,9.5,82,11,25.0,100.98,Mostly Cloudy
9/10/2012,4:00,11.3,8.7,84,13,25.0,101.0,Mainly Clear
9/10/2012,5:00,10.4,8.5,88,17,25.0,101.05,Mainly Clear
9/10/2012,6:00,10.1,8.1,87,17,24.1,101.15,Mainly Clear
9/10/2012,7:00,11.5,7.6,77,15,24.1,101.23,Mainly Clear
9/10/2012,8:00,12.8,7.1,68,19,24.1,101.29,Mostly Cloudy
9/10/2012,9:00,13.3,7.3,67,15,24.1,101.33,Mainly Clear
9/10/2012,10:00,14.4,6.5,59,15,24.1,101.32,Mostly Cloudy
9/10/2012,11:00,14.9,6.3,56,19,48.3,101.31,Mostly Cloudy
9/10/2012,12:00,16.0,6.1,52,20,48.3,101.31,Mostly Cloudy
9/10/2012,13:00,16.6,6.0,50,13,48.3,101.32,Mostly Cloudy
9/10/2012,14:00,17.5,6.1,47,20,48.3,101.3,Mostly Cloudy
9/10/2012,15:00,17.8,5.9,46,24,24.1,101.27,Mostly Cloudy
9/10/2012,16:00,16.7,5.1,46,20,48.3,101.31,Mostly Cloudy
9/10/2012,17:00,16.1,4.9,47,20,48.3,101.39,Mostly Cloudy
9/10/2012,18:00,14.5,4.9,52,17,24.1,101.43,Mostly Cloudy
9/10/2012,19:00,13.5,4.9,56,9,25.0,101.47,Mainly Clear
9/10/2012,20:00,10.9,5.7,70,7,25.0,101.54,Clear
9/10/2012,21:00,9.8,6.0,77,6,25.0,101.55,Clear
9/10/2012,22:00,9.7,5.9,77,7,25.0,101.56,Clear
9/10/2012,23:00,9.3,6.4,82,7,25.0,101.56,Clear
9/11/2012,0:00,8.4,6.2,86,9,25.0,101.57,Clear
9/11/2012,1:00,8.4,6.3,87,9,25.0,101.58,Clear
9/11/2012,2:00,8.4,6.9,90,9,25.0,101.6,Clear
9/11/2012,3:00,9.1,7.3,88,7,25.0,101.64,Clear
9/11/2012,4:00,9.2,6.8,85,4,25.0,101.7,Clear
9/11/2012,5:00,6.9,5.6,91,0,25.0,101.75,Clear
9/11/2012,6:00,7.6,6.3,91,6,24.1,101.83,Mainly Clear
9/11/2012,7:00,11.0,8.4,84,9,48.3,101.89,Mostly Cloudy
9/11/2012,8:00,13.2,8.9,75,9,48.3,101.92,Mostly Cloudy
9/11/2012,9:00,15.1,8.6,65,13,48.3,101.95,Mostly Cloudy
9/11/2012,10:00,16.8,8.9,60,17,48.3,101.93,Mostly Cloudy
9/11/2012,11:00,18.4,8.4,52,19,48.3,101.89,Mainly Clear
9/11/2012,12:00,18.9,9.1,53,19,48.3,101.87,Mainly Clear
9/11/2012,13:00,20.6,9.7,50,20,48.3,101.81,Mainly Clear
9/11/2012,14:00,21.0,8.9,46,20,48.3,101.75,Mainly Clear
9/11/2012,15:00,21.3,8.4,44,19,48.3,101.69,Mainly Clear
9/11/2012,16:00,21.5,8.9,44,20,48.3,101.67,Mainly Clear
9/11/2012,17:00,21.4,9.4,46,20,48.3,101.67,Mainly Clear
9/11/2012,18:00,20.7,10.3,51,17,48.3,101.66,Mainly Clear
9/11/2012,19:00,19.8,11.1,57,9,25.0,101.68,Mainly Clear
9/11/2012,20:00,19.8,11.6,59,15,25.0,101.73,Mainly Clear
9/11/2012,21:00,19.1,12.9,67,15,25.0,101.76,Clear
9/11/2012,22:00,18.4,12.0,66,17,25.0,101.78,Clear
9/11/2012,23:00,17.8,11.9,68,15,25.0,101.8,Clear
9/12/2012,0:00,17.5,10.6,64,17,25.0,101.82,Clear
9/12/2012,1:00,17.2,9.9,62,11,25.0,101.85,Clear
9/12/2012,2:00,14.5,9.6,72,6,25.0,101.86,Clear
9/12/2012,3:00,13.2,9.9,80,4,25.0,101.9,Clear
9/12/2012,4:00,13.7,10.0,78,0,25.0,101.91,Clear
9/12/2012,5:00,13.1,10.7,85,6,25.0,101.96,Clear
9/12/2012,6:00,13.5,11.2,86,0,48.3,102.02,Clear
9/12/2012,7:00,15.8,11.8,77,9,48.3,102.02,Clear
9/12/2012,8:00,17.4,11.1,66,7,48.3,102.04,Clear
9/12/2012,9:00,19.6,11.9,61,7,48.3,102.05,Clear
9/12/2012,10:00,21.9,13.2,58,11,48.3,102.02,Mainly Clear
9/12/2012,11:00,23.9,13.3,51,20,48.3,101.98,Clear
9/12/2012,12:00,25.3,13.4,48,19,48.3,101.95,Mainly Clear
9/12/2012,13:00,26.1,14.0,47,13,48.3,101.87,Mainly Clear
9/12/2012,14:00,26.9,13.5,44,17,48.3,101.84,Mainly Clear
9/12/2012,15:00,27.3,13.4,42,17,48.3,101.8,Mainly Clear
9/12/2012,16:00,27.3,12.2,39,19,48.3,101.77,Mainly Clear
9/12/2012,17:00,26.8,11.6,39,17,48.3,101.77,Mainly Clear
9/12/2012,18:00,25.0,12.9,47,11,48.3,101.78,Mainly Clear
9/12/2012,19:00,22.2,15.0,64,11,25.0,101.83,Mainly Clear
9/12/2012,20:00,22.4,14.0,59,11,25.0,101.88,Mainly Clear
9/12/2012,21:00,22.2,13.2,57,11,25.0,101.91,Clear
9/12/2012,22:00,21.0,14.4,66,13,25.0,101.95,Mainly Clear
9/12/2012,23:00,20.2,14.6,70,11,25.0,101.96,Mainly Clear
9/13/2012,0:00,19.8,13.6,67,9,25.0,101.96,Mainly Clear
9/13/2012,1:00,19.5,13.4,68,7,25.0,101.97,Mainly Clear
9/13/2012,2:00,16.3,12.9,80,11,25.0,101.98,Mainly Clear
9/13/2012,3:00,15.7,13.1,85,9,25.0,101.96,Clear
9/13/2012,4:00,15.5,12.8,84,11,25.0,101.96,Clear
9/13/2012,5:00,14.9,11.8,82,4,25.0,102.0,Clear
9/13/2012,6:00,15.7,12.4,81,6,48.3,102.02,Mainly Clear
9/13/2012,7:00,18.1,13.8,76,6,48.3,102.03,Mainly Clear
9/13/2012,8:00,19.8,12.8,64,9,48.3,102.04,Mainly Clear
9/13/2012,9:00,21.5,13.7,61,13,48.3,102.05,Mainly Clear
9/13/2012,10:00,22.6,14.2,59,17,48.3,102.05,Mainly Clear
9/13/2012,11:00,24.6,14.8,54,15,48.3,102.02,Mainly Clear
9/13/2012,12:00,26.2,14.9,50,17,48.3,101.97,Mainly Clear
9/13/2012,13:00,27.3,14.2,45,19,48.3,101.89,Mainly Clear
9/13/2012,14:00,27.9,13.7,42,24,48.3,101.82,Mainly Clear
9/13/2012,15:00,28.2,13.9,42,22,48.3,101.77,Mainly Clear
9/13/2012,16:00,28.4,14.0,41,19,48.3,101.73,Mainly Clear
9/13/2012,17:00,27.8,13.1,40,20,48.3,101.73,Mainly Clear
9/13/2012,18:00,26.0,14.7,50,9,48.3,101.71,Mainly Clear
9/13/2012,19:00,24.2,15.8,59,11,25.0,101.72,Mainly Clear
9/13/2012,20:00,23.2,15.7,63,11,25.0,101.74,Clear
9/13/2012,21:00,22.3,16.0,68,13,25.0,101.71,Mainly Clear
9/13/2012,22:00,21.8,15.2,66,15,25.0,101.7,Mainly Clear
9/13/2012,23:00,20.7,15.3,71,13,25.0,101.72,Clear
9/14/2012,0:00,19.5,15.5,78,9,25.0,101.72,Clear
9/14/2012,1:00,16.6,14.9,90,0,25.0,101.71,Clear
9/14/2012,2:00,18.2,14.8,81,4,25.0,101.69,Clear
9/14/2012,3:00,16.4,14.2,87,6,25.0,101.67,Clear
9/14/2012,4:00,15.9,13.7,87,9,25.0,101.66,Clear
9/14/2012,5:00,16.4,14.1,86,4,25.0,101.65,Mostly Cloudy
9/14/2012,8:00,19.5,15.1,76,9,24.1,101.63,Mostly Cloudy
9/14/2012,10:00,22.6,15.4,64,13,24.1,101.56,Mostly Cloudy
9/14/2012,14:00,27.3,16.4,51,9,48.3,101.27,Mostly Cloudy
9/14/2012,22:00,15.5,14.2,92,0,19.3,101.21,Rain Showers
9/14/2012,23:00,15.9,15.4,97,13,16.1,101.13,Rain Showers
9/15/2012,4:00,14.2,12.2,88,30,25.0,101.12,Mostly Cloudy
9/15/2012,6:00,13.4,11.1,86,22,24.1,101.25,Mostly Cloudy
9/15/2012,7:00,13.8,10.5,80,20,24.1,101.36,Mostly Cloudy
9/15/2012,8:00,14.6,10.5,76,19,24.1,101.44,Mainly Clear
9/15/2012,9:00,14.9,9.7,71,19,24.1,101.5,Mostly Cloudy
9/15/2012,10:00,16.0,9.6,66,22,24.1,101.51,Mostly Cloudy
9/15/2012,11:00,16.1,7.8,58,22,48.3,101.49,Mostly Cloudy
9/15/2012,12:00,16.6,7.3,54,17,48.3,101.49,Mostly Cloudy
9/15/2012,13:00,16.6,7.9,56,20,48.3,101.44,Mostly Cloudy
9/15/2012,14:00,16.2,7.5,56,22,24.1,101.39,Rain Showers
9/15/2012,15:00,14.2,11.4,83,13,24.1,101.41,Mostly Cloudy
9/15/2012,16:00,16.6,9.2,62,17,24.1,101.36,Mainly Clear
9/15/2012,17:00,14.2,8.7,69,22,24.1,101.39,Rain Showers
9/15/2012,18:00,13.3,8.6,73,7,24.1,101.4,Mostly Cloudy
9/15/2012,19:00,12.7,7.1,69,13,25.0,101.42,Mainly Clear
9/15/2012,20:00,11.6,6.3,70,11,25.0,101.46,Mainly Clear
9/15/2012,21:00,9.9,6.1,77,13,25.0,101.48,Mainly Clear
9/15/2012,22:00,8.5,5.7,83,7,25.0,101.51,Clear
9/15/2012,23:00,7.9,5.6,85,9,25.0,101.5,Clear
9/16/2012,0:00,6.6,5.0,90,7,25.0,101.52,Clear
9/16/2012,1:00,6.1,5.2,94,9,25.0,101.49,Clear
9/16/2012,2:00,6.5,5.6,94,6,25.0,101.46,Clear
9/16/2012,3:00,6.7,5.6,93,7,25.0,101.44,Clear
9/16/2012,4:00,7.3,6.2,93,9,25.0,101.43,Clear
9/16/2012,5:00,4.9,4.6,98,9,25.0,101.45,Clear
9/16/2012,6:00,5.8,4.9,94,9,48.3,101.53,Clear
9/16/2012,7:00,8.7,6.5,86,9,48.3,101.55,Clear
9/16/2012,8:00,11.7,4.5,61,9,48.3,101.58,Clear
9/16/2012,9:00,13.1,3.0,50,19,48.3,101.57,Mainly Clear
9/16/2012,10:00,14.0,4.3,52,20,48.3,101.53,Mainly Clear
9/16/2012,11:00,14.9,3.9,48,20,48.3,101.49,Mainly Clear
9/16/2012,12:00,15.3,3.2,44,19,48.3,101.44,Mainly Clear
9/16/2012,13:00,15.7,2.9,42,24,48.3,101.35,Mainly Clear
9/16/2012,14:00,16.6,3.8,42,24,48.3,101.3,Mainly Clear
9/16/2012,15:00,16.7,3.6,42,19,48.3,101.25,Clear
9/16/2012,16:00,16.6,3.0,40,15,48.3,101.2,Clear
9/16/2012,17:00,16.6,3.6,42,20,48.3,101.17,Clear
9/16/2012,18:00,15.5,3.2,44,11,48.3,101.16,Clear
9/16/2012,19:00,14.2,3.9,50,6,25.0,101.18,Mainly Clear
9/16/2012,20:00,12.5,4.6,59,6,25.0,101.18,Clear
9/16/2012,21:00,12.8,5.4,61,6,25.0,101.18,Clear
9/16/2012,22:00,13.1,5.4,60,6,25.0,101.2,Clear
9/16/2012,23:00,12.1,5.6,64,6,25.0,101.21,Clear
9/17/2012,0:00,11.5,8.6,82,4,25.0,101.2,Clear
9/17/2012,1:00,10.1,8.4,89,4,25.0,101.21,Clear
9/17/2012,2:00,10.1,7.8,86,6,25.0,101.18,Clear
9/17/2012,3:00,10.1,8.4,89,7,25.0,101.16,Mostly Cloudy
9/17/2012,9:00,16.8,13.1,79,13,24.1,101.13,Mainly Clear
9/17/2012,10:00,18.2,13.6,75,17,24.1,101.11,Mainly Clear
9/17/2012,11:00,19.9,14.9,73,15,24.1,101.09,Mainly Clear
9/17/2012,12:00,21.8,14.2,62,17,24.1,101.06,Mainly Clear
9/17/2012,13:00,23.5,14.1,56,17,24.1,101.01,Mainly Clear
9/17/2012,14:00,24.6,12.6,47,15,24.1,100.95,Clear
9/17/2012,15:00,25.2,10.8,40,15,24.1,100.9,Clear
9/17/2012,16:00,25.0,12.5,46,13,24.1,100.87,Mainly Clear
9/17/2012,17:00,24.4,12.2,46,13,24.1,100.87,Clear
9/17/2012,18:00,22.1,14.8,63,15,24.1,100.88,Mainly Clear
9/17/2012,19:00,20.6,15.1,71,15,25.0,100.9,Mainly Clear
9/17/2012,20:00,20.0,15.4,75,13,25.0,100.88,Mainly Clear
9/17/2012,21:00,19.3,15.3,78,0,25.0,100.88,Mainly Clear
9/17/2012,22:00,18.8,15.1,79,6,25.0,100.83,Mainly Clear
9/17/2012,23:00,17.0,15.0,88,7,25.0,100.84,Mainly Clear
9/18/2012,0:00,16.2,14.2,88,6,25.0,100.84,Mainly Clear
9/18/2012,1:00,16.9,12.5,75,0,25.0,100.81,Mainly Clear
9/18/2012,2:00,16.6,12.1,75,9,25.0,100.75,Clear
9/18/2012,3:00,16.1,13.0,82,19,25.0,100.67,Mostly Cloudy
9/18/2012,4:00,16.2,12.9,81,17,25.0,100.59,Mostly Cloudy
9/18/2012,5:00,16.1,12.8,81,24,25.0,100.52,Mostly Cloudy
9/18/2012,6:00,16.4,12.9,80,22,24.1,100.49,Mainly Clear
9/18/2012,7:00,16.9,13.1,78,20,24.1,100.44,Mostly Cloudy
9/18/2012,17:00,20.4,17.9,86,35,24.1,99.01,Rain
9/18/2012,18:00,20.0,18.9,93,28,6.4,99.19,Rain
9/18/2012,19:00,19.4,18.5,95,22,25.0,99.28,Rain
9/18/2012,20:00,19.2,17.9,92,24,25.0,99.33,Rain
9/18/2012,22:00,18.8,17.6,93,30,9.7,99.44,Rain
9/18/2012,23:00,17.7,16.1,90,33,12.9,99.52,Rain
9/19/2012,1:00,11.0,9.1,88,28,25.0,99.95,Mostly Cloudy
9/19/2012,5:00,8.2,4.8,79,30,25.0,100.63,Mostly Cloudy
9/19/2012,7:00,8.2,4.1,75,33,24.1,100.92,Mostly Cloudy
9/19/2012,8:00,8.6,4.1,73,26,24.1,101.04,Mostly Cloudy
9/19/2012,9:00,9.2,4.1,70,32,24.1,101.13,Mostly Cloudy
9/19/2012,10:00,11.0,3.6,60,32,48.3,101.19,Mostly Cloudy
9/19/2012,11:00,12.0,3.9,58,24,48.3,101.29,Mostly Cloudy
9/19/2012,12:00,13.2,4.0,54,22,48.3,101.37,Mostly Cloudy
9/19/2012,13:00,13.6,2.7,48,24,48.3,101.41,Mostly Cloudy
9/19/2012,14:00,14.5,3.0,46,24,48.3,101.45,Mainly Clear
9/19/2012,15:00,14.3,0.9,40,15,48.3,101.49,Mainly Clear
9/19/2012,16:00,14.2,2.2,44,19,48.3,101.6,Mainly Clear
9/19/2012,17:00,12.7,2.3,49,11,48.3,101.66,Mainly Clear
9/19/2012,18:00,10.6,2.1,56,11,48.3,101.68,Clear
9/19/2012,19:00,10.0,2.5,60,4,25.0,101.75,Clear
9/19/2012,20:00,8.8,3.2,68,4,25.0,101.81,Clear
9/19/2012,21:00,9.5,2.7,62,0,25.0,101.83,Clear
9/19/2012,22:00,8.5,2.7,67,0,25.0,101.85,Clear
9/19/2012,23:00,9.8,3.1,63,4,25.0,101.88,Clear
9/20/2012,0:00,7.2,4.5,83,7,25.0,101.88,Clear
9/20/2012,1:00,8.4,4.0,74,6,25.0,101.92,Clear
9/20/2012,2:00,9.0,4.0,71,7,25.0,101.89,Clear
9/20/2012,3:00,8.0,4.8,80,4,25.0,101.91,Clear
9/20/2012,4:00,8.3,5.7,84,9,25.0,101.91,Clear
9/20/2012,5:00,7.7,6.5,92,6,25.0,101.95,Clear
9/20/2012,6:00,7.7,6.5,92,6,48.3,101.97,Clear
9/20/2012,7:00,9.6,6.9,83,9,48.3,101.95,Clear
9/20/2012,8:00,11.7,7.6,76,7,48.3,101.94,Clear
9/20/2012,9:00,12.8,7.6,71,15,48.3,101.85,Clear
9/20/2012,10:00,15.2,7.4,60,20,48.3,101.76,Clear
9/20/2012,11:00,16.2,6.9,54,19,48.3,101.65,Clear
9/20/2012,12:00,17.6,7.3,51,15,48.3,101.56,Clear
9/20/2012,13:00,18.3,6.7,47,22,48.3,101.48,Mainly Clear
9/20/2012,14:00,19.3,6.9,44,15,48.3,101.43,Mainly Clear
9/20/2012,15:00,19.1,7.5,47,20,48.3,101.39,Clear
9/20/2012,16:00,18.7,7.7,49,24,48.3,101.31,Clear
9/20/2012,17:00,18.0,7.9,52,26,48.3,101.31,Clear
9/20/2012,18:00,16.6,7.9,56,19,48.3,101.26,Clear
9/20/2012,19:00,16.2,7.9,58,24,25.0,101.27,Clear
9/20/2012,20:00,15.6,7.9,60,20,25.0,101.24,Mainly Clear
9/20/2012,21:00,15.4,7.9,61,20,25.0,101.25,Clear
9/20/2012,22:00,13.4,8.5,72,15,25.0,101.25,Clear
9/20/2012,23:00,14.0,8.9,71,19,25.0,101.24,Mainly Clear
9/21/2012,0:00,13.7,9.6,76,19,25.0,101.23,Mainly Clear
9/21/2012,1:00,13.1,9.9,81,20,25.0,101.23,Mainly Clear
9/21/2012,2:00,13.5,10.5,82,19,25.0,101.18,Mostly Cloudy
9/21/2012,3:00,13.9,11.0,83,15,25.0,101.14,Mostly Cloudy
9/21/2012,5:00,14.4,11.2,81,19,25.0,101.17,Mostly Cloudy
9/21/2012,6:00,14.4,11.4,82,19,48.3,101.19,Mostly Cloudy
9/21/2012,15:00,19.3,13.9,71,13,24.1,100.93,Mostly Cloudy
9/21/2012,19:00,15.2,15.1,99,7,25.0,101.01,Rain
9/22/2012,3:00,15.8,14.4,91,24,19.3,100.68,Rain Showers
9/22/2012,4:00,15.4,14.1,92,20,19.3,100.5,Rain Showers
9/22/2012,6:00,15.6,12.8,83,26,24.1,100.43,Mostly Cloudy
9/22/2012,7:00,16.2,12.8,80,33,24.1,100.36,Mostly Cloudy
9/22/2012,8:00,16.4,13.1,81,32,48.3,100.25,Mostly Cloudy
9/22/2012,10:00,18.5,13.8,74,33,24.1,100.14,Mostly Cloudy
9/22/2012,12:00,16.9,15.6,92,22,16.1,100.23,Rain Showers
9/22/2012,13:00,16.6,15.6,94,15,19.3,100.22,Rain Showers
9/22/2012,15:00,16.1,15.0,93,9,24.1,100.32,Rain
9/22/2012,16:00,16.8,15.2,90,15,24.1,100.28,Mostly Cloudy
9/22/2012,17:00,16.4,14.9,91,13,24.1,100.32,Mostly Cloudy
9/22/2012,18:00,16.1,15.6,97,13,25.0,100.33,Rain Showers
9/22/2012,19:00,16.0,15.3,96,9,25.0,100.36,Rain Showers
9/23/2012,0:00,14.2,10.4,78,26,25.0,100.41,Mostly Cloudy
9/23/2012,1:00,12.8,9.6,81,17,25.0,100.46,Mostly Cloudy
9/23/2012,2:00,12.2,8.3,77,26,25.0,100.56,Mostly Cloudy
9/23/2012,4:00,11.0,7.4,78,24,25.0,100.63,Mostly Cloudy
9/23/2012,5:00,10.2,7.3,82,20,25.0,100.7,Mainly Clear
9/23/2012,6:00,9.9,7.4,84,19,24.1,100.77,Mainly Clear
9/23/2012,7:00,10.6,7.8,83,20,24.1,100.82,Mainly Clear
9/23/2012,8:00,11.3,7.6,78,28,48.3,100.89,Mainly Clear
9/23/2012,9:00,12.0,6.8,70,24,48.3,100.9,Mainly Clear
9/23/2012,10:00,13.2,5.6,60,33,48.3,100.97,Mainly Clear
9/23/2012,11:00,13.5,4.0,53,28,48.3,101.0,Mainly Clear
9/23/2012,12:00,15.6,4.5,48,26,48.3,101.0,Mainly Clear
9/23/2012,13:00,14.6,4.2,50,30,48.3,101.01,Mainly Clear
9/23/2012,14:00,16.0,4.1,45,28,48.3,101.02,Mainly Clear
9/23/2012,15:00,15.1,4.6,49,24,48.3,101.04,Mainly Clear
9/23/2012,16:00,15.1,5.7,53,15,48.3,101.07,Mainly Clear
9/23/2012,17:00,14.3,3.4,48,20,48.3,101.11,Mainly Clear
9/23/2012,18:00,10.9,4.3,64,9,25.0,101.17,Mainly Clear
9/23/2012,19:00,9.8,5.3,74,4,25.0,101.23,Mainly Clear
9/23/2012,20:00,11.4,4.7,63,9,25.0,101.31,Mainly Clear
9/23/2012,21:00,8.7,5.2,79,7,25.0,101.38,Mainly Clear
9/23/2012,22:00,7.2,4.9,85,7,25.0,101.41,Mainly Clear
9/23/2012,23:00,9.2,5.2,76,7,25.0,101.43,Mostly Cloudy
9/24/2012,0:00,7.7,5.1,84,0,25.0,101.42,Mainly Clear
9/24/2012,1:00,5.7,4.3,91,6,25.0,101.41,Mainly Clear
9/24/2012,2:00,6.9,5.1,88,0,25.0,101.37,Clear
9/24/2012,3:00,5.7,4.7,93,0,25.0,101.38,Clear
9/24/2012,4:00,7.2,5.0,86,4,25.0,101.42,Mainly Clear
9/24/2012,5:00,8.0,7.8,99,0,25.0,101.44,Mostly Cloudy
9/24/2012,6:00,6.9,6.8,99,9,48.3,101.47,Mostly Cloudy
9/24/2012,7:00,7.9,7.5,97,6,48.3,101.48,Mostly Cloudy
9/24/2012,8:00,9.9,7.5,85,13,48.3,101.51,Mainly Clear
9/24/2012,9:00,11.0,7.9,81,13,48.3,101.49,Mainly Clear
9/24/2012,10:00,12.8,7.5,70,22,48.3,101.46,Mainly Clear
9/24/2012,11:00,14.2,5.5,56,28,48.3,101.44,Mainly Clear
9/24/2012,12:00,15.0,5.7,54,20,48.3,101.37,Mainly Clear
9/24/2012,13:00,15.8,3.2,43,28,48.3,101.28,Mainly Clear
9/24/2012,14:00,16.6,3.7,42,32,48.3,101.23,Mainly Clear
9/24/2012,15:00,16.3,3.6,43,24,48.3,101.13,Mainly Clear
9/24/2012,16:00,16.4,4.5,45,26,48.3,101.09,Mainly Clear
9/24/2012,17:00,15.3,5.2,51,28,48.3,101.06,Mainly Clear
9/24/2012,18:00,14.4,5.8,56,22,25.0,101.03,Mainly Clear
9/24/2012,19:00,13.8,5.6,58,33,25.0,101.05,Mainly Clear
9/24/2012,20:00,12.1,6.3,68,15,25.0,101.06,Mainly Clear
9/24/2012,21:00,11.7,6.2,69,17,25.0,101.06,Mostly Cloudy
9/24/2012,22:00,12.6,5.6,62,17,25.0,101.08,Mostly Cloudy
9/24/2012,23:00,12.1,5.6,64,20,25.0,101.04,Mainly Clear
9/25/2012,0:00,11.9,6.0,67,17,25.0,101.02,Mostly Cloudy
9/25/2012,1:00,12.1,6.4,68,19,25.0,100.92,Mostly Cloudy
9/25/2012,2:00,11.7,5.3,65,20,25.0,100.88,Mostly Cloudy
9/25/2012,3:00,11.2,5.5,68,20,25.0,100.85,Mostly Cloudy
9/25/2012,4:00,11.6,5.3,65,24,25.0,100.85,Mostly Cloudy
9/25/2012,6:00,12.4,6.1,65,19,48.3,100.89,Mostly Cloudy
9/25/2012,7:00,13.0,6.9,66,28,48.3,100.89,Mainly Clear
9/25/2012,8:00,14.1,7.2,63,24,48.3,100.92,Mainly Clear
9/25/2012,9:00,16.3,8.6,60,32,48.3,100.93,Mainly Clear
9/25/2012,10:00,17.4,9.0,58,35,48.3,100.92,Mainly Clear
9/25/2012,11:00,18.0,9.2,56,28,48.3,100.94,Mainly Clear
9/25/2012,12:00,18.1,9.6,58,30,48.3,100.99,Mostly Cloudy
9/25/2012,13:00,18.9,9.9,56,33,48.3,100.99,Mostly Cloudy
9/25/2012,14:00,19.0,10.4,57,32,48.3,100.97,Mostly Cloudy
9/25/2012,15:00,19.0,10.2,57,28,48.3,100.98,Mostly Cloudy
9/25/2012,16:00,19.2,9.5,53,19,48.3,100.98,Mostly Cloudy
9/25/2012,17:00,18.8,10.5,59,9,48.3,100.98,Mainly Clear
9/25/2012,18:00,17.8,10.9,64,13,24.1,100.99,Mainly Clear
9/25/2012,19:00,16.6,10.5,67,11,25.0,101.02,Clear
9/25/2012,20:00,15.7,10.6,72,7,25.0,101.03,Mainly Clear
9/25/2012,21:00,14.3,10.5,78,13,25.0,101.06,Mostly Cloudy
9/25/2012,22:00,13.1,9.5,79,7,25.0,101.05,Mainly Clear
9/26/2012,0:00,14.2,9.9,75,15,25.0,101.02,Mostly Cloudy
9/26/2012,1:00,14.0,9.7,75,17,25.0,100.96,Mostly Cloudy
9/26/2012,2:00,14.1,9.3,73,17,25.0,100.89,Mostly Cloudy
9/26/2012,3:00,14.7,8.7,67,17,25.0,100.87,Mostly Cloudy
9/26/2012,4:00,14.6,9.0,69,17,25.0,100.88,Mostly Cloudy
9/26/2012,5:00,15.1,9.2,68,17,25.0,100.84,Mostly Cloudy
9/26/2012,15:00,17.6,15.6,88,11,24.1,100.75,Mostly Cloudy
9/26/2012,16:00,18.8,15.2,80,7,24.1,100.74,Rain Showers
9/26/2012,17:00,16.1,12.6,80,19,24.1,100.86,Mostly Cloudy
9/26/2012,18:00,14.6,10.2,75,17,24.1,101.0,Mostly Cloudy
9/26/2012,19:00,13.6,9.5,76,7,25.0,101.09,Mostly Cloudy
9/26/2012,21:00,13.6,7.0,64,6,25.0,101.33,Cloudy
9/26/2012,22:00,12.6,7.5,71,7,25.0,101.39,Mostly Cloudy
9/26/2012,23:00,11.9,6.2,68,7,25.0,101.46,Mostly Cloudy
9/27/2012,0:00,10.1,6.0,76,7,25.0,101.51,Mainly Clear
9/27/2012,1:00,8.3,6.3,87,9,25.0,101.54,Mainly Clear
9/27/2012,2:00,7.4,5.9,90,9,25.0,101.56,Mainly Clear
9/27/2012,3:00,6.3,4.9,91,9,25.0,101.63,Clear
9/27/2012,4:00,5.1,4.1,93,11,25.0,101.69,Clear
9/27/2012,5:00,6.0,4.6,91,7,25.0,101.76,Clear
9/27/2012,6:00,6.4,4.3,86,0,48.3,101.86,Clear
9/27/2012,7:00,7.5,5.3,86,0,48.3,101.91,Clear
9/27/2012,8:00,9.0,5.6,79,11,48.3,101.99,Clear
9/27/2012,9:00,10.9,5.1,67,9,48.3,102.03,Mainly Clear
9/27/2012,10:00,12.8,4.4,57,4,48.3,102.06,Mainly Clear
9/27/2012,11:00,12.8,3.5,53,6,48.3,102.04,Mainly Clear
9/27/2012,12:00,12.9,3.8,54,4,48.3,102.04,Mainly Clear
9/27/2012,13:00,13.6,4.5,54,11,48.3,101.99,Mostly Cloudy
9/27/2012,14:00,14.9,4.4,49,4,48.3,101.95,Mainly Clear
9/27/2012,15:00,15.1,4.7,50,9,48.3,101.93,Mainly Clear
9/27/2012,16:00,15.1,3.7,46,11,48.3,101.93,Mainly Clear
9/27/2012,17:00,14.6,3.6,48,7,48.3,101.94,Mainly Clear
9/27/2012,18:00,13.1,3.8,53,7,48.3,101.97,Mainly Clear
9/27/2012,19:00,10.6,4.4,65,0,25.0,102.0,Clear
9/27/2012,20:00,11.5,4.9,64,4,25.0,102.01,Mainly Clear
9/27/2012,21:00,9.4,5.5,77,7,25.0,102.01,Clear
9/27/2012,22:00,9.3,4.8,73,4,25.0,101.99,Clear
9/27/2012,23:00,9.2,4.6,73,4,25.0,101.98,Clear
9/28/2012,0:00,9.2,4.0,70,6,25.0,101.96,Clear
9/28/2012,1:00,8.0,4.7,80,7,25.0,101.98,Mainly Clear
9/28/2012,2:00,8.9,5.2,78,6,25.0,101.94,Mainly Clear
9/28/2012,3:00,7.2,4.9,85,9,25.0,101.92,Clear
9/28/2012,4:00,6.0,5.3,95,9,25.0,101.91,Clear
9/28/2012,5:00,5.1,4.6,97,7,25.0,101.87,Mainly Clear
9/28/2012,6:00,5.3,4.1,92,9,48.3,101.83,Mainly Clear
9/28/2012,7:00,7.6,4.7,82,11,48.3,101.8,Mainly Clear
9/28/2012,8:00,9.3,5.8,79,9,48.3,101.81,Mainly Clear
9/28/2012,9:00,10.7,5.3,69,13,48.3,101.76,Mostly Cloudy
9/28/2012,10:00,13.3,6.0,61,13,48.3,101.67,Mostly Cloudy
9/28/2012,11:00,14.6,5.2,53,13,48.3,101.62,Mostly Cloudy
9/28/2012,12:00,15.8,7.1,56,7,48.3,101.55,Mostly Cloudy
9/28/2012,13:00,16.6,6.9,53,9,48.3,101.42,Mainly Clear
9/28/2012,14:00,16.7,8.7,59,17,24.1,101.37,Mostly Cloudy
9/28/2012,15:00,15.6,9.6,67,19,24.1,101.35,Mostly Cloudy
9/28/2012,16:00,14.2,10.0,76,17,24.1,101.33,Mostly Cloudy
9/28/2012,17:00,13.3,10.1,81,17,24.1,101.34,Mostly Cloudy
9/28/2012,18:00,12.9,10.0,83,15,24.1,101.33,Mostly Cloudy
9/28/2012,19:00,13.0,10.0,82,15,25.0,101.35,Mostly Cloudy
9/28/2012,20:00,13.1,10.1,82,4,25.0,101.34,Mostly Cloudy
9/28/2012,21:00,13.1,9.8,80,7,25.0,101.32,Mostly Cloudy
9/28/2012,22:00,13.1,9.8,80,9,25.0,101.3,Mostly Cloudy
9/28/2012,23:00,13.1,9.2,77,11,19.3,101.29,Cloudy
9/29/2012,0:00,13.0,9.3,78,7,19.3,101.27,Cloudy
9/29/2012,1:00,13.1,9.3,78,9,25.0,101.24,Cloudy
9/29/2012,2:00,13.0,9.3,78,11,25.0,101.2,Cloudy
9/29/2012,3:00,11.7,9.9,89,11,25.0,101.19,Cloudy
9/29/2012,4:00,11.3,9.6,89,15,25.0,101.19,Cloudy
9/29/2012,5:00,10.3,8.9,91,19,25.0,101.23,Cloudy
9/29/2012,6:00,10.2,8.8,91,11,25.0,101.27,Cloudy
9/29/2012,7:00,9.8,8.6,92,17,25.0,101.29,Cloudy
9/29/2012,8:00,10.9,9.0,88,19,24.1,101.28,Cloudy
9/29/2012,9:00,12.4,9.6,83,22,24.1,101.27,Mostly Cloudy
9/29/2012,10:00,13.0,10.0,82,20,24.1,101.23,Cloudy
9/29/2012,11:00,12.6,9.8,83,24,24.1,101.19,Cloudy
9/29/2012,14:00,12.6,9.8,83,19,24.1,101.12,Cloudy
9/29/2012,16:00,11.7,9.8,88,26,24.1,101.11,Cloudy
9/30/2012,4:00,10.8,9.5,92,17,12.9,100.96,Cloudy
9/30/2012,5:00,10.9,9.6,92,15,16.1,100.92,Cloudy
9/30/2012,6:00,11.0,9.6,91,13,19.3,100.9,Cloudy
9/30/2012,7:00,11.2,9.9,92,15,19.3,100.88,Cloudy
9/30/2012,8:00,11.4,9.9,90,19,19.3,100.9,Cloudy
9/30/2012,9:00,11.7,9.9,89,20,19.3,100.84,Cloudy
9/30/2012,10:00,11.9,10.1,89,17,19.3,100.79,Cloudy
9/30/2012,11:00,12.2,10.2,88,19,12.9,100.72,Cloudy
9/30/2012,12:00,11.8,11.1,95,17,9.7,100.65,"Drizzle,Fog"
9/30/2012,13:00,11.4,11.0,97,13,6.4,100.54,"Drizzle,Fog"
9/30/2012,22:00,11.6,11.2,97,13,16.1,99.79,Rain
10/1/2012,0:00,11.5,11.1,97,15,19.3,99.62,Rain
10/1/2012,6:00,11.7,11.0,95,15,19.3,99.51,Cloudy
10/1/2012,7:00,12.1,11.2,94,17,19.3,99.6,Rain
10/1/2012,8:00,12.6,11.8,95,17,24.1,99.7,Cloudy
10/1/2012,9:00,14.0,12.3,89,19,24.1,99.8,Mostly Cloudy
10/1/2012,10:00,14.9,12.0,83,20,24.1,99.88,Cloudy
10/1/2012,11:00,14.8,11.9,83,26,24.1,99.96,Cloudy
10/1/2012,12:00,14.8,11.3,80,17,24.1,100.06,Cloudy
10/1/2012,13:00,14.9,11.5,80,19,24.1,100.14,Cloudy
10/1/2012,14:00,15.3,11.4,78,24,24.1,100.2,Cloudy
10/1/2012,15:00,15.2,11.5,79,26,24.1,100.27,Cloudy
10/1/2012,16:00,15.0,11.5,80,19,24.1,100.35,Cloudy
10/1/2012,17:00,14.9,11.4,80,17,48.3,100.45,Mostly Cloudy
10/1/2012,18:00,14.6,11.6,82,6,25.0,100.51,Cloudy
10/1/2012,19:00,14.6,11.7,83,9,25.0,100.57,Mostly Cloudy
10/1/2012,20:00,13.8,11.7,87,9,25.0,100.61,Mostly Cloudy
10/1/2012,21:00,13.8,12.0,89,6,25.0,100.65,Mostly Cloudy
10/1/2012,22:00,13.1,12.7,97,6,25.0,100.66,Mostly Cloudy
10/1/2012,23:00,14.2,12.9,92,22,25.0,100.75,Mostly Cloudy
10/2/2012,0:00,13.5,12.7,95,9,25.0,100.74,Mostly Cloudy
10/2/2012,1:00,12.8,12.6,99,9,25.0,100.76,Mostly Cloudy
10/2/2012,2:00,12.4,12.3,99,7,19.3,100.77,Mostly Cloudy
10/2/2012,3:00,12.1,11.8,98,7,19.3,100.82,Mainly Clear
10/2/2012,4:00,12.0,11.9,99,6,19.3,100.85,Clear
10/2/2012,5:00,11.1,11.0,99,6,16.1,100.92,Mainly Clear
10/2/2012,6:00,11.2,11.2,100,0,48.3,100.96,Mostly Cloudy
10/2/2012,7:00,11.9,11.8,99,4,24.1,101.04,Mostly Cloudy
10/2/2012,8:00,13.0,12.4,96,9,24.1,101.08,Mostly Cloudy
10/2/2012,9:00,14.3,13.1,92,6,24.1,101.08,Cloudy
10/2/2012,10:00,15.2,13.3,88,9,24.1,101.09,Cloudy
10/2/2012,11:00,16.6,13.9,84,7,24.1,101.08,Mostly Cloudy
10/2/2012,12:00,18.2,13.6,75,13,24.1,101.1,Mostly Cloudy
10/2/2012,13:00,18.2,12.9,71,9,24.1,101.03,Cloudy
10/2/2012,14:00,18.7,12.4,67,11,24.1,101.03,Mostly Cloudy
10/2/2012,15:00,18.8,11.5,63,9,24.1,101.08,Mostly Cloudy
10/2/2012,16:00,18.7,12.6,68,6,24.1,101.06,Mostly Cloudy
10/2/2012,17:00,17.9,13.9,77,9,24.1,101.1,Mostly Cloudy
10/2/2012,18:00,16.6,13.3,81,9,24.1,101.16,Mainly Clear
10/2/2012,19:00,15.0,13.3,90,11,25.0,101.18,Mainly Clear
10/2/2012,20:00,14.6,13.0,90,9,25.0,101.22,Mainly Clear
10/2/2012,21:00,14.0,12.8,92,6,25.0,101.27,Mainly Clear
10/2/2012,22:00,14.2,12.9,92,4,25.0,101.28,Clear
10/2/2012,23:00,11.4,10.9,97,4,25.0,101.31,Clear
10/3/2012,0:00,11.9,11.7,99,4,25.0,101.3,Clear
10/3/2012,1:00,11.3,11.0,98,4,25.0,101.33,Clear
10/3/2012,2:00,11.3,11.2,99,7,25.0,101.32,Clear
10/3/2012,3:00,11.6,11.4,99,7,25.0,101.33,Clear
10/3/2012,4:00,11.5,11.2,98,7,25.0,101.37,Clear
10/3/2012,11:00,15.8,13.7,87,19,12.9,101.48,Cloudy
10/3/2012,12:00,16.9,13.2,79,19,24.1,101.42,Mostly Cloudy
10/3/2012,13:00,17.5,13.5,77,13,19.3,101.4,Mostly Cloudy
10/3/2012,14:00,18.7,13.6,72,13,19.3,101.4,Cloudy
10/3/2012,15:00,19.3,13.9,71,13,24.1,101.4,Cloudy
10/3/2012,16:00,19.2,14.2,73,11,24.1,101.42,Cloudy
10/3/2012,17:00,19.2,13.9,71,11,24.1,101.45,Cloudy
10/3/2012,18:00,18.9,13.9,73,11,25.0,101.47,Cloudy
10/3/2012,19:00,19.0,13.9,72,7,25.0,101.51,Cloudy
10/3/2012,20:00,18.6,14.3,76,9,25.0,101.51,Cloudy
10/3/2012,21:00,18.6,14.4,77,11,25.0,101.53,Cloudy
10/3/2012,22:00,18.3,14.7,80,7,25.0,101.56,Cloudy
10/3/2012,23:00,18.0,14.9,82,7,25.0,101.57,Cloudy
10/4/2012,0:00,17.0,15.1,89,11,16.1,101.55,Cloudy
10/4/2012,1:00,16.1,14.7,91,11,16.1,101.55,Cloudy
10/4/2012,3:00,12.6,11.8,95,13,9.7,101.55,"Drizzle,Fog"
10/4/2012,4:00,11.7,11.5,99,15,19.3,101.55,Cloudy
10/4/2012,5:00,11.5,11.0,97,9,16.1,101.59,Cloudy
10/4/2012,7:00,11.4,11.1,98,13,4.0,101.58,"Drizzle,Fog"
10/4/2012,9:00,12.1,12.0,99,11,2.8,101.54,"Drizzle,Fog"
10/4/2012,10:00,12.6,12.5,99,9,4.8,101.47,"Drizzle,Fog"
10/4/2012,12:00,13.6,13.0,96,0,6.4,101.42,"Drizzle,Fog"
10/4/2012,13:00,14.4,13.2,92,0,6.4,101.38,"Drizzle,Fog"
10/4/2012,22:00,15.3,13.8,91,13,12.9,101.01,Mainly Clear
10/5/2012,0:00,15.8,12.7,82,11,12.9,100.94,Mainly Clear
10/5/2012,1:00,15.3,12.6,84,15,12.9,100.94,Mainly Clear
10/5/2012,2:00,15.7,12.7,82,17,16.1,100.92,Clear
10/5/2012,3:00,14.7,12.6,87,17,19.3,100.94,Clear
10/5/2012,4:00,14.4,12.6,89,13,19.3,100.96,Clear
10/5/2012,5:00,13.8,12.6,92,17,19.3,100.96,Clear
10/5/2012,6:00,13.7,12.9,95,4,16.1,100.93,Mainly Clear
10/5/2012,7:00,15.3,14.0,92,6,24.1,100.92,Mainly Clear
10/5/2012,8:00,16.8,14.3,85,9,24.1,100.92,Mostly Cloudy
10/5/2012,9:00,17.3,13.6,79,13,24.1,100.84,Mostly Cloudy
10/5/2012,10:00,18.9,14.4,75,11,24.1,100.87,Rain Showers
10/5/2012,11:00,17.5,14.3,81,22,24.1,100.85,Cloudy
10/5/2012,12:00,18.5,15.3,82,19,24.1,100.74,Cloudy
10/5/2012,13:00,19.2,14.9,76,20,24.1,100.69,Cloudy
10/5/2012,14:00,20.2,15.6,75,19,24.1,100.6,Mostly Cloudy
10/5/2012,15:00,20.7,15.4,72,26,24.1,100.57,Cloudy
10/5/2012,16:00,20.3,15.4,73,28,24.1,100.55,Cloudy
10/5/2012,17:00,19.7,14.8,73,26,24.1,100.55,Cloudy
10/5/2012,18:00,19.0,14.8,77,24,25.0,100.53,Cloudy
10/5/2012,19:00,18.7,14.2,75,32,25.0,100.53,Cloudy
10/5/2012,20:00,18.1,14.0,77,24,25.0,100.55,Cloudy
10/5/2012,21:00,17.8,13.8,77,22,25.0,100.56,Cloudy
10/5/2012,22:00,17.4,12.1,71,19,25.0,100.54,Cloudy
10/5/2012,23:00,17.0,10.9,67,17,25.0,100.53,Cloudy
10/6/2012,0:00,16.8,11.2,70,13,25.0,100.51,Cloudy
10/6/2012,1:00,16.1,10.9,71,17,25.0,100.5,Cloudy
10/6/2012,2:00,15.4,9.6,68,11,25.0,100.44,Rain Showers
10/6/2012,3:00,14.6,10.1,74,11,25.0,100.39,Rain Showers
10/6/2012,4:00,11.0,9.7,92,13,16.1,100.35,Rain
10/6/2012,5:00,9.4,8.8,96,15,16.1,100.32,Rain
10/6/2012,6:00,9.1,8.7,97,6,16.1,100.35,Rain
10/6/2012,8:00,8.8,8.4,97,7,19.3,100.36,Rain
10/6/2012,9:00,9.5,8.6,94,7,24.1,100.33,Rain
10/6/2012,10:00,9.7,8.7,93,13,24.1,100.32,Rain
10/6/2012,11:00,9.6,8.4,92,13,24.1,100.35,Rain
10/6/2012,12:00,10.9,9.3,90,17,24.1,100.32,Mostly Cloudy
10/6/2012,13:00,11.8,9.0,83,20,24.1,100.3,Cloudy
10/6/2012,14:00,13.8,8.9,72,17,24.1,100.28,Mostly Cloudy
10/6/2012,15:00,14.4,8.8,69,28,48.3,100.25,Mainly Clear
10/6/2012,16:00,14.6,7.7,63,28,48.3,100.26,Mainly Clear
10/6/2012,17:00,12.0,7.9,76,9,48.3,100.32,Mostly Cloudy
10/6/2012,18:00,9.7,7.2,84,19,25.0,100.43,Mostly Cloudy
10/6/2012,19:00,10.2,5.9,75,26,25.0,100.52,Mostly Cloudy
10/6/2012,20:00,9.8,5.5,75,17,25.0,100.58,Mainly Clear
10/6/2012,21:00,9.7,5.2,74,19,25.0,100.66,Mainly Clear
10/6/2012,22:00,9.2,4.4,72,26,25.0,100.75,Mainly Clear
10/6/2012,23:00,8.7,4.0,72,22,25.0,100.79,Mainly Clear
10/7/2012,0:00,8.8,4.2,73,28,25.0,100.82,Mostly Cloudy
10/7/2012,1:00,8.4,4.4,76,17,25.0,100.9,Mainly Clear
10/7/2012,2:00,7.0,4.2,82,15,25.0,100.93,Mainly Clear
10/7/2012,3:00,6.5,3.9,83,11,25.0,101.01,Mainly Clear
10/7/2012,4:00,5.3,3.7,89,13,25.0,101.09,Clear
10/7/2012,5:00,5.7,3.8,88,7,25.0,101.19,Mostly Cloudy
10/7/2012,6:00,5.9,3.7,86,11,24.1,101.25,Mostly Cloudy
10/7/2012,7:00,6.0,3.7,85,13,24.1,101.31,Mostly Cloudy
10/7/2012,8:00,5.9,3.3,83,9,24.1,101.29,Mainly Clear
10/7/2012,9:00,6.9,2.5,74,9,48.3,101.3,Mostly Cloudy
10/7/2012,10:00,8.5,3.1,69,22,48.3,101.3,Mostly Cloudy
10/7/2012,11:00,9.0,1.5,59,15,48.3,101.33,Mainly Clear
10/7/2012,12:00,9.2,0.6,55,22,48.3,101.36,Mostly Cloudy
10/7/2012,13:00,9.3,-0.5,50,20,48.3,101.32,Mostly Cloudy
10/7/2012,14:00,10.2,-0.6,47,17,48.3,101.25,Mainly Clear
10/7/2012,15:00,10.5,0.3,49,11,48.3,101.24,Mainly Clear
10/7/2012,16:00,9.2,-0.2,52,11,48.3,101.23,Cloudy
10/7/2012,17:00,8.6,-1.2,50,13,48.3,101.26,Cloudy
10/7/2012,18:00,7.3,-0.1,59,9,25.0,101.27,Cloudy
10/7/2012,19:00,7.3,0.9,64,6,25.0,101.3,Cloudy
10/7/2012,20:00,7.4,0.4,61,6,25.0,101.33,Cloudy
10/7/2012,21:00,7.3,0.6,62,7,25.0,101.34,Cloudy
10/7/2012,22:00,7.5,0.4,61,0,25.0,101.38,Cloudy
10/7/2012,23:00,6.5,1.4,70,15,25.0,101.44,Rain Showers
10/8/2012,0:00,6.4,2.9,78,9,25.0,101.49,Rain Showers
10/8/2012,1:00,6.2,2.9,79,7,25.0,101.52,Rain Showers
10/8/2012,2:00,5.4,3.0,84,6,25.0,101.5,Mostly Cloudy
10/8/2012,3:00,5.1,2.9,86,0,25.0,101.52,Clear
10/8/2012,4:00,3.6,2.4,92,6,25.0,101.58,Clear
10/8/2012,5:00,2.8,2.6,99,0,25.0,101.62,Clear
10/8/2012,6:00,2.4,1.9,96,9,24.1,101.73,Mainly Clear
10/8/2012,7:00,2.5,1.3,92,6,48.3,101.83,Mainly Clear
10/8/2012,8:00,5.4,1.1,74,7,48.3,101.92,Mainly Clear
10/8/2012,9:00,6.6,0.5,65,4,48.3,101.94,Clear
10/8/2012,10:00,8.6,-1.7,48,7,48.3,101.97,Mainly Clear
10/8/2012,11:00,10.0,-1.0,46,9,48.3,101.95,Mainly Clear
10/8/2012,12:00,10.7,-2.0,41,13,48.3,101.95,Mainly Clear
10/8/2012,13:00,11.1,-1.3,42,13,48.3,101.93,Mainly Clear
10/8/2012,14:00,11.6,-1.5,40,19,48.3,101.91,Mainly Clear
10/8/2012,15:00,11.9,0.3,45,9,48.3,101.89,Mostly Cloudy
10/8/2012,16:00,12.0,-0.1,43,13,48.3,101.9,Mostly Cloudy
10/8/2012,17:00,11.5,-1.0,42,9,48.3,101.94,Cloudy
10/8/2012,18:00,10.6,-0.7,45,7,25.0,101.98,Mostly Cloudy
10/8/2012,19:00,9.7,1.5,57,15,25.0,102.03,Mainly Clear
10/8/2012,20:00,8.1,2.2,66,7,25.0,102.05,Mainly Clear
10/8/2012,21:00,7.3,2.7,73,9,25.0,102.08,Mainly Clear
10/8/2012,22:00,8.0,2.0,66,4,25.0,102.08,Clear
10/8/2012,23:00,7.4,1.9,68,7,25.0,102.06,Clear
10/9/2012,0:00,5.8,2.6,80,6,25.0,102.06,Clear
10/9/2012,1:00,5.8,3.3,84,4,25.0,102.08,Clear
10/9/2012,2:00,5.9,3.4,84,6,25.0,102.06,Clear
10/9/2012,3:00,5.9,3.2,83,4,25.0,102.02,Clear
10/9/2012,4:00,4.3,2.7,89,7,25.0,102.04,Clear
10/9/2012,5:00,5.1,3.2,88,4,25.0,102.08,Mainly Clear
10/9/2012,6:00,5.4,3.7,89,7,48.3,102.09,Mainly Clear
10/9/2012,7:00,6.7,5.3,91,9,48.3,102.09,Mainly Clear
10/9/2012,8:00,8.4,6.0,85,15,48.3,102.08,Clear
10/9/2012,9:00,10.3,6.4,77,15,48.3,102.06,Clear
10/9/2012,10:00,12.5,6.0,65,17,48.3,102.0,Clear
10/9/2012,11:00,13.5,4.7,55,6,48.3,101.93,Mainly Clear
10/9/2012,12:00,14.4,4.4,51,7,48.3,101.84,Mainly Clear
10/9/2012,13:00,15.0,4.4,49,7,48.3,101.71,Mostly Cloudy
10/9/2012,14:00,14.9,3.2,45,11,48.3,101.66,Mostly Cloudy
10/9/2012,15:00,15.0,4.6,50,13,48.3,101.59,Mostly Cloudy
10/9/2012,16:00,14.5,4.0,49,13,48.3,101.57,Mostly Cloudy
10/9/2012,17:00,13.6,4.8,55,22,48.3,101.5,Mostly Cloudy
10/9/2012,18:00,13.2,4.8,57,20,25.0,101.44,Mostly Cloudy
10/9/2012,19:00,12.8,4.5,57,19,25.0,101.45,Mostly Cloudy
10/9/2012,20:00,11.9,4.6,61,19,25.0,101.4,Mainly Clear
10/9/2012,21:00,11.4,4.5,62,19,25.0,101.36,Mainly Clear
10/9/2012,22:00,10.6,7.4,81,17,25.0,101.32,Mainly Clear
10/9/2012,23:00,10.4,7.4,82,19,25.0,101.26,Mainly Clear
10/10/2012,0:00,10.0,7.4,84,15,25.0,101.22,Mainly Clear
10/10/2012,1:00,10.3,7.8,84,11,25.0,101.18,Mostly Cloudy
10/10/2012,2:00,11.0,7.8,81,15,25.0,101.09,Mostly Cloudy
10/10/2012,3:00,11.3,7.9,80,13,25.0,101.01,Mostly Cloudy
10/10/2012,4:00,11.3,8.1,81,30,25.0,100.94,Mostly Cloudy
10/10/2012,5:00,11.2,8.3,82,20,25.0,100.9,Mostly Cloudy
10/10/2012,6:00,11.5,8.4,81,37,24.1,100.85,Mostly Cloudy
10/10/2012,7:00,11.6,8.8,83,39,24.1,100.8,Cloudy
10/10/2012,8:00,12.0,8.8,81,32,24.1,100.73,Cloudy
10/10/2012,9:00,12.5,8.9,79,32,24.1,100.64,Cloudy
10/10/2012,10:00,13.5,9.0,74,33,24.1,100.53,Cloudy
10/10/2012,11:00,12.2,10.6,90,13,12.9,100.43,Rain
10/10/2012,12:00,13.3,9.9,80,20,19.3,100.33,Cloudy
10/10/2012,13:00,12.5,10.8,89,19,4.0,100.24,Rain
10/10/2012,14:00,12.8,11.8,94,19,48.3,100.07,Cloudy
10/10/2012,15:00,13.2,11.2,88,15,48.3,100.01,Cloudy
10/10/2012,16:00,13.7,10.4,80,26,16.1,100.02,Rain
10/10/2012,17:00,11.5,7.7,77,33,24.1,100.13,Rain
10/10/2012,18:00,8.9,7.1,88,19,25.0,100.25,Mostly Cloudy
10/10/2012,19:00,7.8,6.1,89,17,25.0,100.31,Mostly Cloudy
10/10/2012,20:00,7.4,5.9,90,15,25.0,100.34,Mostly Cloudy
10/10/2012,21:00,7.9,5.9,87,19,25.0,100.37,Mostly Cloudy
10/10/2012,22:00,7.7,5.7,87,11,25.0,100.4,Mostly Cloudy
10/10/2012,23:00,6.7,4.9,88,9,25.0,100.37,Mainly Clear
10/11/2012,0:00,7.2,4.4,82,17,25.0,100.4,Mostly Cloudy
10/11/2012,1:00,6.7,3.8,82,20,25.0,100.42,Mostly Cloudy
10/11/2012,2:00,6.6,3.8,82,32,25.0,100.45,Mostly Cloudy
10/11/2012,3:00,6.6,3.9,83,24,25.0,100.51,Mostly Cloudy
10/11/2012,4:00,6.0,3.2,82,26,25.0,100.68,Mostly Cloudy
10/11/2012,5:00,5.5,2.5,81,28,25.0,100.84,Mainly Clear
10/11/2012,6:00,5.0,2.4,83,22,24.1,100.95,Mainly Clear
10/11/2012,7:00,4.9,2.3,83,26,24.1,101.05,Mainly Clear
10/11/2012,8:00,6.0,2.3,77,20,24.1,101.14,Mainly Clear
10/11/2012,9:00,6.8,1.2,67,24,24.1,101.2,Mainly Clear
10/11/2012,10:00,7.7,0.2,59,32,48.3,101.19,Mostly Cloudy
10/11/2012,11:00,8.7,1.2,59,24,48.3,101.2,Mostly Cloudy
10/11/2012,12:00,8.0,-0.6,55,30,48.3,101.22,Mostly Cloudy
10/11/2012,13:00,9.2,-1.8,46,30,48.3,101.22,Mostly Cloudy
10/11/2012,14:00,9.7,-1.7,45,26,48.3,101.2,Mostly Cloudy
10/11/2012,15:00,9.8,-2.9,41,30,48.3,101.21,Mostly Cloudy
10/11/2012,16:00,9.8,-2.7,41,28,48.3,101.18,Mostly Cloudy
10/11/2012,17:00,9.1,-2.2,45,19,24.1,101.15,Cloudy
10/11/2012,18:00,9.1,0.9,56,30,25.0,101.19,Rain
10/11/2012,19:00,8.4,2.2,65,37,25.0,101.13,Rain
10/11/2012,20:00,7.0,3.6,79,32,25.0,101.07,Rain
10/11/2012,21:00,6.6,4.2,85,22,25.0,100.93,Rain
10/11/2012,22:00,6.9,3.9,81,22,25.0,100.77,Rain
10/11/2012,23:00,8.2,4.2,76,19,25.0,100.69,Rain
10/12/2012,0:00,7.7,5.3,85,22,25.0,100.74,Rain
10/12/2012,1:00,8.1,5.4,83,24,25.0,100.75,Rain
10/12/2012,2:00,7.9,4.4,79,30,25.0,100.76,Cloudy
10/12/2012,3:00,7.2,1.1,65,33,25.0,100.83,Cloudy
10/12/2012,4:00,5.5,0.6,71,26,25.0,101.0,Cloudy
10/12/2012,5:00,4.4,-0.1,73,24,25.0,101.14,Mostly Cloudy
10/12/2012,6:00,3.6,-0.4,75,24,24.1,101.3,Mainly Clear
10/12/2012,7:00,3.7,-0.4,75,17,24.1,101.45,Mainly Clear
10/12/2012,8:00,4.8,-0.7,68,17,24.1,101.57,Mainly Clear
10/12/2012,9:00,5.4,-1.7,60,19,24.1,101.68,Mostly Cloudy
10/12/2012,10:00,5.4,-2.4,57,20,24.1,101.74,Mostly Cloudy
10/12/2012,11:00,6.2,-3.4,50,22,24.1,101.76,Mostly Cloudy
10/12/2012,12:00,5.6,-5.1,46,30,24.1,101.83,Mostly Cloudy
10/12/2012,13:00,6.2,-5.5,43,26,24.1,101.87,Mostly Cloudy
10/12/2012,14:00,6.2,-5.1,44,22,24.1,101.93,Mostly Cloudy
10/12/2012,15:00,6.4,-5.4,43,20,24.1,101.98,Mostly Cloudy
10/12/2012,16:00,5.2,-5.3,47,19,24.1,102.07,Mostly Cloudy
10/12/2012,17:00,4.7,-5.1,49,22,24.1,102.13,Mainly Clear
10/12/2012,18:00,4.0,-4.5,54,15,25.0,102.21,Clear
10/12/2012,19:00,2.5,-3.9,63,13,25.0,102.28,Clear
10/12/2012,20:00,1.2,-3.6,70,9,25.0,102.35,Clear
10/12/2012,21:00,0.7,-4.0,71,7,25.0,102.41,Clear
10/12/2012,22:00,0.0,-4.7,71,9,25.0,102.47,Clear
10/12/2012,23:00,-0.2,-4.9,71,9,25.0,102.48,Mainly Clear
10/13/2012,0:00,1.9,-3.8,66,9,25.0,102.49,Mostly Cloudy
10/13/2012,1:00,-0.9,-3.8,81,7,25.0,102.51,Mostly Cloudy
10/13/2012,2:00,0.1,-3.6,76,4,25.0,102.47,Mostly Cloudy
10/13/2012,3:00,-1.6,-3.6,86,4,25.0,102.49,Mostly Cloudy
10/13/2012,4:00,-1.9,-3.8,87,4,25.0,102.52,Mainly Clear
10/13/2012,5:00,-1.9,-3.9,86,0,25.0,102.53,Clear
10/13/2012,6:00,-1.0,-3.3,84,0,48.3,102.54,Mostly Cloudy
10/13/2012,7:00,1.0,-2.2,79,6,48.3,102.56,Mostly Cloudy
10/13/2012,8:00,3.4,-1.3,71,11,48.3,102.57,Mainly Clear
10/13/2012,9:00,4.5,1.2,79,17,48.3,102.55,Mainly Clear
10/13/2012,10:00,6.1,-1.1,60,19,48.3,102.52,Mainly Clear
10/13/2012,11:00,7.7,-3.7,44,28,48.3,102.46,Mostly Cloudy
10/13/2012,12:00,9.7,-1.9,44,22,48.3,102.37,Mostly Cloudy
10/13/2012,13:00,8.6,-2.8,45,20,48.3,102.24,Mainly Clear
10/13/2012,14:00,9.8,-3.1,40,19,48.3,102.2,Mostly Cloudy
10/13/2012,15:00,9.4,-2.1,44,19,48.3,102.18,Mostly Cloudy
10/13/2012,16:00,9.5,-2.7,42,17,48.3,102.14,Mostly Cloudy
10/13/2012,17:00,9.1,-2.7,43,13,25.0,102.08,Mostly Cloudy
10/13/2012,18:00,8.8,-2.4,45,7,25.0,102.01,Cloudy
10/13/2012,19:00,8.2,-1.1,52,15,25.0,101.92,Cloudy
10/13/2012,20:00,7.9,-1.4,52,15,25.0,101.85,Cloudy
10/13/2012,21:00,8.3,-1.9,49,9,25.0,101.73,Cloudy
10/13/2012,22:00,8.2,-0.9,53,24,25.0,101.75,Rain Showers
10/14/2012,2:00,4.4,3.2,92,17,11.3,101.35,Rain
10/14/2012,6:00,5.5,4.5,93,11,12.9,101.11,Rain
10/14/2012,8:00,6.2,5.4,95,7,4.8,101.13,Fog
10/14/2012,9:00,6.8,5.4,91,7,16.1,101.13,Cloudy
10/14/2012,11:00,6.7,6.4,98,11,3.2,101.11,"Drizzle,Fog"
10/14/2012,12:00,6.7,6.3,97,13,2.4,101.0,"Drizzle,Fog"
10/14/2012,13:00,6.6,6.3,98,13,1.6,100.94,"Drizzle,Fog"
10/14/2012,19:00,9.6,9.1,97,15,9.7,100.48,"Drizzle,Fog"
10/14/2012,20:00,10.0,9.3,95,15,9.7,100.31,Fog
10/14/2012,21:00,9.8,9.3,97,11,9.7,100.27,Fog
10/14/2012,22:00,9.4,9.1,98,7,9.7,100.17,Fog
10/15/2012,1:00,8.5,8.2,98,9,9.7,100.02,"Rain,Fog"
10/15/2012,2:00,8.7,8.4,98,11,9.7,99.88,"Rain,Fog"
10/15/2012,3:00,8.8,8.4,97,9,9.7,99.78,"Rain,Fog"
10/15/2012,4:00,11.9,10.7,92,4,12.9,99.66,Mostly Cloudy
10/15/2012,5:00,13.5,11.6,88,11,16.1,99.62,Mostly Cloudy
10/15/2012,6:00,13.6,11.5,87,19,24.1,99.56,Cloudy
10/15/2012,7:00,13.8,11.1,84,19,24.1,99.53,Mostly Cloudy
10/15/2012,8:00,14.4,11.3,82,20,24.1,99.53,Cloudy
10/15/2012,9:00,16.4,12.1,76,24,24.1,99.51,Mostly Cloudy
10/15/2012,10:00,16.6,12.7,78,20,24.1,99.5,Cloudy
10/15/2012,11:00,16.6,12.4,76,17,24.1,99.61,Rain Showers
10/15/2012,12:00,16.4,10.6,69,22,24.1,99.63,Mostly Cloudy
10/15/2012,13:00,16.3,10.7,69,28,24.1,99.64,Mostly Cloudy
10/15/2012,14:00,17.8,9.3,57,30,48.3,99.65,Mostly Cloudy
10/15/2012,15:00,16.2,9.0,62,28,24.1,99.7,Mostly Cloudy
10/15/2012,16:00,15.5,8.9,65,30,24.1,99.7,Mostly Cloudy
10/15/2012,17:00,14.7,8.2,65,33,24.1,99.69,Mostly Cloudy
10/15/2012,18:00,13.7,8.7,72,32,25.0,99.7,Mostly Cloudy
10/15/2012,19:00,12.9,8.3,74,30,25.0,99.72,Mostly Cloudy
10/15/2012,20:00,12.6,7.9,73,30,25.0,99.76,Mainly Clear
10/15/2012,21:00,12.1,6.8,70,26,25.0,99.74,Mainly Clear
10/15/2012,22:00,12.1,5.1,62,32,25.0,99.73,Mostly Cloudy
10/15/2012,23:00,11.6,3.5,57,28,25.0,99.75,Mostly Cloudy
10/16/2012,0:00,9.8,3.8,66,28,25.0,99.81,Mainly Clear
10/16/2012,1:00,9.2,3.9,69,24,25.0,99.89,Mostly Cloudy
10/16/2012,2:00,7.6,1.8,67,30,25.0,99.88,Mainly Clear
10/16/2012,3:00,6.7,2.6,75,19,25.0,99.88,Mostly Cloudy
10/16/2012,4:00,6.6,3.0,78,22,25.0,99.94,Cloudy
10/16/2012,5:00,5.9,2.9,81,19,25.0,99.99,Cloudy
10/16/2012,6:00,5.2,1.0,74,28,24.1,100.05,Mostly Cloudy
10/16/2012,7:00,4.8,0.8,75,15,24.1,100.18,Mostly Cloudy
10/16/2012,8:00,5.6,0.7,71,22,24.1,100.24,Mainly Clear
10/16/2012,9:00,6.0,1.3,72,19,24.1,100.27,Mostly Cloudy
10/16/2012,10:00,7.6,1.6,66,26,24.1,100.3,Mostly Cloudy
10/16/2012,11:00,7.7,1.4,64,22,24.1,100.34,Mostly Cloudy
10/16/2012,12:00,7.8,1.6,65,28,24.1,100.35,Cloudy
10/16/2012,13:00,8.2,1.2,61,24,24.1,100.38,Mostly Cloudy
10/16/2012,14:00,8.6,0.7,58,30,24.1,100.37,Mostly Cloudy
10/16/2012,15:00,8.4,0.7,58,32,24.1,100.39,Mostly Cloudy
10/16/2012,16:00,8.4,0.0,55,28,24.1,100.43,Mostly Cloudy
10/16/2012,17:00,7.3,-0.5,58,20,24.1,100.47,Mainly Clear
10/16/2012,18:00,6.5,-0.2,62,15,25.0,100.54,Mainly Clear
10/16/2012,19:00,4.9,-0.2,70,9,25.0,100.57,Mainly Clear
10/16/2012,20:00,3.7,-0.3,75,7,25.0,100.63,Clear
10/16/2012,21:00,3.0,-0.5,78,11,25.0,100.66,Clear
10/16/2012,22:00,4.1,-0.4,72,7,25.0,100.73,Clear
10/16/2012,23:00,1.6,-0.5,86,7,25.0,100.75,Clear
10/17/2012,0:00,3.8,0.5,79,11,25.0,100.8,Clear
10/17/2012,1:00,2.8,0.6,85,9,25.0,100.86,Clear
10/17/2012,2:00,1.1,-1.2,85,7,25.0,100.91,Clear
10/17/2012,3:00,1.8,-0.9,82,6,25.0,100.92,Mostly Cloudy
10/17/2012,4:00,2.2,-0.2,84,7,25.0,100.96,Mostly Cloudy
10/17/2012,5:00,2.6,0.2,84,0,25.0,100.95,Mostly Cloudy
10/17/2012,6:00,2.7,0.4,85,0,24.1,100.98,Mainly Clear
10/17/2012,7:00,3.3,0.7,83,0,24.1,101.02,Clear
10/17/2012,8:00,6.3,2.0,74,0,24.1,101.06,Mainly Clear
10/17/2012,9:00,7.1,4.1,81,6,24.1,101.08,Mainly Clear
10/17/2012,10:00,9.1,1.3,58,6,24.1,101.08,Mainly Clear
10/17/2012,11:00,10.1,2.1,58,6,48.3,101.02,Mainly Clear
10/17/2012,12:00,10.8,2.1,55,7,48.3,100.97,Mainly Clear
10/17/2012,13:00,11.4,1.9,52,6,48.3,100.9,Mostly Cloudy
10/17/2012,14:00,12.0,2.4,52,0,48.3,100.88,Mostly Cloudy
10/17/2012,15:00,12.5,2.9,52,4,48.3,100.86,Mostly Cloudy
10/17/2012,16:00,12.5,3.5,54,4,48.3,100.87,Mostly Cloudy
10/17/2012,17:00,11.7,4.0,59,11,24.1,100.87,Mostly Cloudy
10/17/2012,18:00,11.0,4.7,65,7,25.0,100.94,Mostly Cloudy
10/17/2012,19:00,11.7,3.6,58,7,25.0,100.93,Cloudy
10/17/2012,20:00,11.7,3.2,56,9,25.0,100.92,Mostly Cloudy
10/17/2012,21:00,11.6,3.6,58,11,25.0,100.92,Mostly Cloudy
10/17/2012,22:00,11.7,4.1,60,7,25.0,100.93,Mostly Cloudy
10/17/2012,23:00,11.1,4.9,66,11,25.0,100.9,Cloudy
10/18/2012,0:00,11.1,4.8,65,6,25.0,100.92,Cloudy
10/18/2012,1:00,10.9,5.2,68,4,25.0,100.92,Cloudy
10/18/2012,2:00,10.9,4.9,66,4,25.0,100.92,Mostly Cloudy
10/18/2012,3:00,8.9,5.3,78,9,25.0,100.91,Mostly Cloudy
10/18/2012,4:00,9.1,5.7,79,11,25.0,100.92,Mostly Cloudy
10/18/2012,5:00,9.4,5.8,78,11,25.0,100.94,Mostly Cloudy
10/18/2012,6:00,9.0,5.8,80,11,48.3,100.96,Mostly Cloudy
10/18/2012,7:00,10.7,5.1,68,9,48.3,100.98,Mainly Clear
10/18/2012,8:00,12.2,5.7,64,6,48.3,101.02,Mostly Cloudy
10/18/2012,9:00,14.4,6.4,59,15,48.3,100.99,Mainly Clear
10/18/2012,10:00,16.1,6.7,54,15,48.3,100.97,Mainly Clear
10/18/2012,11:00,17.9,6.3,47,15,48.3,100.94,Mainly Clear
10/18/2012,12:00,18.3,6.3,45,17,48.3,100.9,Mainly Clear
10/18/2012,13:00,18.3,6.2,45,22,48.3,100.85,Mainly Clear
10/18/2012,14:00,19.3,5.8,41,28,48.3,100.78,Mainly Clear
10/18/2012,15:00,18.6,3.6,37,26,48.3,100.78,Mostly Cloudy
10/18/2012,16:00,18.3,3.8,38,28,48.3,100.69,Mostly Cloudy
10/18/2012,17:00,16.6,4.7,45,15,48.3,100.74,Mostly Cloudy
10/18/2012,18:00,16.0,5.1,48,17,25.0,100.8,Mostly Cloudy
10/18/2012,19:00,15.6,5.2,50,15,25.0,100.86,Mainly Clear
10/18/2012,20:00,14.9,5.7,54,17,25.0,100.9,Mostly Cloudy
10/18/2012,21:00,13.8,6.0,59,17,25.0,100.95,Mostly Cloudy
10/18/2012,22:00,14.4,5.9,57,19,25.0,100.99,Mostly Cloudy
10/18/2012,23:00,12.7,5.7,62,15,25.0,100.96,Mostly Cloudy
10/19/2012,0:00,12.3,6.1,66,17,25.0,100.94,Mainly Clear
10/19/2012,1:00,11.7,5.8,67,17,25.0,100.92,Mainly Clear
10/19/2012,2:00,11.7,6.0,68,15,25.0,100.92,Mainly Clear
10/19/2012,3:00,12.0,6.0,67,19,25.0,100.94,Cloudy
10/19/2012,4:00,11.9,6.7,70,13,25.0,100.96,Rain Showers
10/19/2012,5:00,11.7,8.7,82,17,19.3,100.96,Rain Showers
10/19/2012,6:00,11.2,9.8,91,15,9.7,100.91,"Rain,Fog"
10/19/2012,7:00,11.3,9.9,91,17,9.7,101.0,"Rain,Fog"
10/19/2012,8:00,11.7,10.2,91,13,16.1,100.92,Rain
10/19/2012,9:00,12.8,10.6,86,24,24.1,100.77,Cloudy
10/19/2012,10:00,13.1,11.0,87,24,25.0,100.79,Rain Showers
10/19/2012,11:00,12.8,11.5,92,9,19.3,100.79,Rain
10/19/2012,12:00,13.0,11.5,91,11,16.1,100.77,Rain
10/19/2012,13:00,13.1,11.9,92,17,12.9,100.64,Rain
10/19/2012,14:00,13.0,12.1,94,15,8.0,100.55,"Rain,Fog"
10/19/2012,15:00,13.3,12.1,92,13,9.7,100.45,"Rain,Fog"
10/19/2012,16:00,12.9,12.3,96,7,3.2,100.45,"Rain,Fog"
10/19/2012,17:00,13.1,12.1,94,17,6.4,100.38,"Rain,Fog"
10/19/2012,18:00,13.1,12.1,94,22,12.9,100.29,Rain
10/19/2012,19:00,13.5,12.4,93,7,9.7,100.29,Rain
10/19/2012,20:00,13.8,12.9,94,19,12.9,100.13,Rain
10/19/2012,21:00,13.8,12.6,92,17,24.1,100.16,Mostly Cloudy
10/19/2012,22:00,13.4,12.3,93,7,16.1,100.15,Cloudy
10/19/2012,23:00,13.5,12.3,92,11,16.1,100.1,Cloudy
10/20/2012,0:00,13.2,12.3,94,13,16.1,100.02,Cloudy
10/20/2012,1:00,12.9,12.2,96,15,6.4,99.97,Fog
10/20/2012,2:00,12.8,12.2,96,19,4.8,99.84,Fog
10/20/2012,4:00,12.4,11.9,97,7,11.3,99.83,Cloudy
10/20/2012,5:00,12.5,12.0,97,4,8.0,99.84,Fog
10/20/2012,6:00,10.6,10.6,100,4,0.4,99.87,Fog
10/20/2012,7:00,11.8,11.6,99,4,2.4,99.88,Fog
10/20/2012,8:00,12.7,12.5,99,4,1.0,99.89,Fog
10/20/2012,9:00,13.8,13.2,96,4,9.7,99.89,Fog
10/20/2012,11:00,16.4,12.2,76,19,24.1,99.93,Mostly Cloudy
10/20/2012,12:00,18.1,11.9,67,20,48.3,99.89,Mostly Cloudy
10/20/2012,14:00,17.2,10.4,64,22,48.3,99.79,Mostly Cloudy
10/20/2012,15:00,16.4,8.8,61,22,24.1,99.75,Mostly Cloudy
10/20/2012,16:00,14.0,9.2,73,15,24.1,99.9,Rain Showers
10/20/2012,17:00,13.4,9.2,76,11,24.1,99.95,Rain Showers
10/20/2012,19:00,11.6,5.9,68,20,25.0,100.04,Clear
10/21/2012,1:00,9.9,6.8,81,19,25.0,100.14,Mostly Cloudy
10/21/2012,2:00,10.3,7.2,81,19,25.0,100.15,Cloudy
10/21/2012,3:00,10.6,7.2,79,26,25.0,100.15,Cloudy
10/21/2012,4:00,10.2,7.1,81,22,25.0,100.15,Mostly Cloudy
10/21/2012,5:00,10.5,7.3,81,24,25.0,100.15,Rain Showers
10/21/2012,6:00,10.1,7.6,84,30,25.0,100.21,Cloudy
10/21/2012,7:00,9.8,7.1,83,28,24.1,100.26,Mostly Cloudy
10/21/2012,8:00,10.2,6.4,77,35,24.1,100.29,Mostly Cloudy
10/21/2012,9:00,10.4,6.0,74,26,24.1,100.27,Mostly Cloudy
10/21/2012,10:00,10.9,5.8,71,32,24.1,100.31,Mostly Cloudy
10/21/2012,11:00,11.2,5.9,70,33,24.1,100.33,Mostly Cloudy
10/21/2012,12:00,12.6,6.4,66,32,24.1,100.3,Mostly Cloudy
10/21/2012,13:00,12.6,5.6,62,32,24.1,100.3,Cloudy
10/21/2012,14:00,12.7,5.8,63,28,24.1,100.33,Mostly Cloudy
10/21/2012,15:00,12.2,5.7,64,32,24.1,100.39,Cloudy
10/21/2012,16:00,12.0,5.5,64,30,24.1,100.44,Cloudy
10/21/2012,17:00,11.8,5.7,66,28,25.0,100.51,Cloudy
10/21/2012,18:00,11.5,5.8,68,22,25.0,100.56,Mostly Cloudy
10/21/2012,19:00,11.3,5.6,68,22,25.0,100.6,Mostly Cloudy
10/21/2012,20:00,11.4,5.5,67,20,25.0,100.63,Mostly Cloudy
10/21/2012,21:00,10.7,5.9,72,22,25.0,100.66,Cloudy
10/21/2012,22:00,10.1,5.3,72,15,25.0,100.72,Mostly Cloudy
10/21/2012,23:00,9.3,4.9,74,17,25.0,100.75,Mostly Cloudy
10/22/2012,5:00,7.4,4.2,80,24,25.0,100.9,Clear
10/22/2012,6:00,7.2,4.1,81,15,25.0,100.95,Clear
10/22/2012,8:00,10.0,5.1,72,22,24.1,101.04,Mostly Cloudy
10/22/2012,9:00,9.8,5.3,74,24,24.1,101.08,Mostly Cloudy
10/22/2012,19:00,11.1,5.7,69,13,25.0,101.21,Clear
10/22/2012,21:00,8.4,5.2,80,9,25.0,101.29,Clear
10/22/2012,23:00,6.4,4.4,87,0,25.0,101.34,Clear
10/23/2012,0:00,6.2,4.1,86,6,25.0,101.36,Clear
10/23/2012,1:00,5.8,3.8,87,4,25.0,101.38,Clear
10/23/2012,2:00,4.9,3.3,89,9,25.0,101.4,Clear
10/23/2012,3:00,5.1,3.5,89,7,25.0,101.42,Clear
10/23/2012,4:00,5.1,3.5,89,4,25.0,101.47,Clear
10/23/2012,5:00,5.4,3.6,88,6,25.0,101.54,Clear
10/23/2012,8:00,6.9,4.5,85,11,24.1,101.71,Mostly Cloudy
10/23/2012,9:00,9.4,5.0,74,9,24.1,101.75,Mostly Cloudy
10/23/2012,10:00,9.6,4.9,72,4,24.1,101.73,Mostly Cloudy
10/23/2012,11:00,10.9,4.6,65,0,24.1,101.69,Mostly Cloudy
10/23/2012,13:00,12.2,3.8,56,4,24.1,101.59,Mostly Cloudy
10/23/2012,14:00,13.1,3.8,53,6,24.1,101.58,Mostly Cloudy
10/23/2012,15:00,12.3,4.3,58,11,24.1,101.57,Mostly Cloudy
10/23/2012,16:00,11.9,4.0,58,11,24.1,101.57,Mostly Cloudy
10/23/2012,23:00,7.7,0.2,59,13,25.0,101.79,Clear
10/24/2012,0:00,7.3,-1.4,54,13,25.0,101.81,Clear
10/24/2012,1:00,5.1,-1.0,65,13,25.0,101.83,Clear
10/24/2012,2:00,4.0,-1.2,69,7,25.0,101.9,Clear
10/24/2012,3:00,4.9,-0.9,66,7,25.0,101.9,Clear
10/24/2012,4:00,2.0,-1.5,78,9,25.0,101.91,Clear
10/24/2012,5:00,2.6,-1.5,74,9,25.0,101.93,Clear
10/24/2012,6:00,1.9,-1.4,79,7,48.3,101.94,Clear
10/24/2012,7:00,2.6,-0.8,78,11,48.3,101.99,Clear
10/24/2012,8:00,5.8,-0.7,63,11,48.3,102.03,Clear
10/24/2012,10:00,7.2,-1.9,52,17,48.3,102.0,Mostly Cloudy
10/24/2012,11:00,8.1,-0.9,53,11,48.3,101.93,Mostly Cloudy
10/24/2012,12:00,9.1,-0.3,52,11,48.3,101.86,Mostly Cloudy
10/24/2012,14:00,11.7,-1.7,39,6,48.3,101.75,Mostly Cloudy
10/24/2012,15:00,12.2,-2.1,37,11,48.3,101.73,Mostly Cloudy
10/24/2012,16:00,11.3,-2.1,39,11,48.3,101.75,Mostly Cloudy
10/24/2012,17:00,10.9,-2.2,40,17,48.3,101.78,Mostly Cloudy
10/24/2012,18:00,10.6,-0.3,47,13,25.0,101.83,Cloudy
10/24/2012,19:00,10.3,0.1,49,7,25.0,101.82,Mostly Cloudy
10/24/2012,20:00,10.1,-1.2,45,11,25.0,101.85,Mostly Cloudy
10/24/2012,21:00,10.0,-2.3,42,6,25.0,101.88,Mostly Cloudy
10/24/2012,22:00,9.4,-2.1,44,9,25.0,101.87,Mostly Cloudy
10/24/2012,23:00,9.6,-2.5,43,15,25.0,101.9,Mostly Cloudy
10/25/2012,0:00,9.5,-2.6,43,17,25.0,101.9,Cloudy
10/25/2012,1:00,9.2,-1.8,46,15,25.0,101.92,Mostly Cloudy
10/25/2012,2:00,8.4,-0.9,52,15,25.0,101.89,Mostly Cloudy
10/25/2012,5:00,5.7,0.2,68,17,25.0,101.89,Mostly Cloudy
10/25/2012,7:00,4.6,1.5,80,19,24.1,101.93,Mostly Cloudy
10/25/2012,8:00,5.2,1.5,77,22,48.3,101.94,Mostly Cloudy
10/25/2012,9:00,6.4,-0.3,62,17,48.3,101.97,Mostly Cloudy
10/25/2012,10:00,8.0,0.3,58,9,48.3,101.89,Cloudy
10/25/2012,11:00,9.1,0.9,56,11,24.1,101.89,Cloudy
10/25/2012,12:00,11.3,1.4,50,13,24.1,101.77,Cloudy
10/25/2012,13:00,12.8,2.8,51,11,24.1,101.71,Cloudy
10/25/2012,14:00,12.8,2.9,51,17,24.1,101.66,Mostly Cloudy
10/25/2012,16:00,13.3,4.2,54,15,24.1,101.59,Mostly Cloudy
10/25/2012,17:00,12.6,4.1,56,19,24.1,101.55,Mostly Cloudy
10/25/2012,18:00,11.8,4.9,63,15,25.0,101.54,Mostly Cloudy
10/25/2012,19:00,11.4,5.5,67,15,25.0,101.53,Clear
10/25/2012,20:00,11.0,5.9,71,15,25.0,101.51,Clear
10/25/2012,21:00,10.0,5.7,75,13,25.0,101.51,Clear
10/25/2012,22:00,9.8,6.4,79,13,25.0,101.47,Clear
10/25/2012,23:00,9.3,6.6,83,9,25.0,101.45,Clear
10/26/2012,0:00,8.9,6.4,84,9,25.0,101.47,Clear
10/26/2012,3:00,7.7,6.4,91,7,25.0,101.49,Clear
10/26/2012,4:00,7.2,5.2,87,7,25.0,101.48,Clear
10/26/2012,5:00,7.0,5.0,87,9,16.1,101.52,Clear
10/26/2012,6:00,6.9,4.8,86,11,16.1,101.53,Clear
10/26/2012,7:00,6.7,4.5,86,11,19.3,101.57,Clear
10/26/2012,8:00,9.1,6.2,82,6,16.1,101.6,Clear
10/26/2012,9:00,11.7,7.9,77,7,16.1,101.6,Clear
10/26/2012,10:00,15.1,9.8,71,6,16.1,101.54,Clear
10/26/2012,11:00,18.1,12.7,71,4,16.1,101.51,Clear
10/26/2012,12:00,19.8,12.9,64,9,16.1,101.43,Clear
10/26/2012,13:00,20.9,13.3,62,11,19.3,101.36,Clear
10/27/2012,1:00,12.1,10.8,92,4,16.1,101.42,Cloudy
10/27/2012,2:00,11.8,10.8,94,6,19.3,101.41,Cloudy
10/27/2012,3:00,12.2,10.9,92,4,16.1,101.39,Cloudy
10/27/2012,4:00,12.1,10.9,92,0,12.9,101.38,Cloudy
10/27/2012,5:00,11.7,10.7,94,9,8.0,101.38,Fog
10/27/2012,6:00,11.9,10.6,92,9,9.7,101.41,Fog
10/27/2012,7:00,12.3,10.8,91,6,4.0,101.42,Fog
10/27/2012,8:00,12.7,10.8,88,11,6.4,101.46,Fog
10/27/2012,9:00,12.5,10.9,90,17,2.4,101.42,Fog
10/27/2012,10:00,12.4,10.9,91,15,2.8,101.4,Fog
10/27/2012,11:00,13.4,11.1,86,11,6.4,101.35,Fog
10/27/2012,13:00,14.2,10.6,79,15,12.9,101.2,Cloudy
10/27/2012,14:00,14.4,9.9,74,15,24.1,101.14,Cloudy
10/27/2012,15:00,14.6,9.5,71,17,24.1,101.1,Cloudy
10/27/2012,18:00,13.5,9.3,76,9,25.0,101.15,Cloudy
10/27/2012,19:00,13.7,8.8,72,11,25.0,101.13,Cloudy
10/27/2012,20:00,13.5,7.5,67,11,25.0,101.15,Cloudy
10/28/2012,2:00,9.9,6.8,81,11,25.0,101.22,Cloudy
10/28/2012,3:00,9.8,6.6,80,9,25.0,101.25,Cloudy
10/28/2012,5:00,9.6,6.7,82,7,25.0,101.28,Cloudy
10/28/2012,6:00,9.7,6.7,82,7,25.0,101.29,Cloudy
10/28/2012,7:00,9.5,6.9,84,7,24.1,101.36,Cloudy
10/28/2012,8:00,9.9,7.4,84,7,24.1,101.38,Cloudy
10/28/2012,9:00,10.8,7.9,82,11,24.1,101.34,Cloudy
10/28/2012,10:00,11.4,8.3,81,9,24.1,101.32,Cloudy
10/28/2012,11:00,12.0,8.1,77,11,24.1,101.31,Cloudy
10/28/2012,12:00,12.9,8.4,74,20,24.1,101.2,Cloudy
10/28/2012,13:00,12.9,7.8,71,15,24.1,101.19,Cloudy
10/28/2012,14:00,13.0,6.8,66,20,24.1,101.13,Cloudy
10/28/2012,15:00,13.1,6.0,62,20,24.1,101.06,Cloudy
10/28/2012,16:00,12.9,5.9,62,22,24.1,101.06,Cloudy
10/28/2012,17:00,12.7,6.3,65,26,25.0,101.01,Cloudy
10/28/2012,18:00,12.9,6.9,67,24,25.0,101.0,Cloudy
10/28/2012,19:00,12.7,7.4,70,28,25.0,100.99,Cloudy
10/28/2012,20:00,12.3,7.4,72,24,25.0,101.02,Cloudy
10/28/2012,21:00,11.6,7.4,75,24,25.0,101.03,Cloudy
10/28/2012,23:00,10.3,7.1,81,26,25.0,100.98,Cloudy
10/29/2012,3:00,9.6,7.0,84,24,25.0,100.79,Cloudy
10/29/2012,5:00,9.6,7.4,86,20,25.0,100.76,Cloudy
10/29/2012,6:00,10.2,7.4,83,33,25.0,100.72,Cloudy
10/29/2012,7:00,10.1,7.5,84,26,24.1,100.7,Cloudy
10/29/2012,8:00,10.7,7.8,82,24,24.1,100.67,Cloudy
10/29/2012,9:00,11.9,8.5,80,26,24.1,100.61,Cloudy
10/29/2012,10:00,12.9,8.7,76,28,24.1,100.57,Cloudy
10/29/2012,11:00,14.3,9.4,72,32,24.1,100.48,Cloudy
10/29/2012,12:00,15.4,9.8,69,26,24.1,100.35,Cloudy
10/29/2012,13:00,16.5,9.7,64,33,24.1,100.24,Cloudy
10/29/2012,14:00,16.6,9.9,65,44,24.1,100.13,Cloudy
10/29/2012,15:00,16.6,9.6,63,33,24.1,100.09,Cloudy
10/29/2012,16:00,15.2,9.8,70,48,24.1,100.04,Cloudy
10/29/2012,17:00,14.2,9.4,73,48,24.1,99.94,Cloudy
10/29/2012,20:00,14.3,9.7,74,52,25.0,99.55,Cloudy
10/29/2012,22:00,14.2,9.8,75,50,25.0,99.37,Cloudy
10/29/2012,23:00,14.1,10.0,76,54,25.0,99.33,Cloudy
10/30/2012,0:00,14.6,10.2,75,41,25.0,99.28,Cloudy
10/30/2012,3:00,13.9,10.6,80,41,25.0,99.21,Rain Showers
10/30/2012,6:00,13.6,10.5,82,37,25.0,99.31,Rain Showers
10/30/2012,7:00,15.0,11.1,77,30,19.3,99.45,Rain Showers
10/30/2012,11:00,15.1,13.8,92,22,4.0,99.6,Rain
10/30/2012,21:00,16.8,13.5,81,26,19.3,99.6,Rain
10/30/2012,22:00,15.0,13.9,93,17,25.0,99.49,Cloudy
10/31/2012,9:00,14.6,12.7,88,15,19.3,99.16,Cloudy
10/31/2012,10:00,14.6,12.9,90,19,16.1,99.14,Cloudy
10/31/2012,12:00,10.8,9.4,91,24,24.1,99.2,Cloudy
10/31/2012,16:00,10.2,8.6,90,4,24.1,99.26,Cloudy
10/31/2012,17:00,9.7,8.1,90,15,24.1,99.31,Cloudy
10/31/2012,18:00,8.8,7.4,91,13,25.0,99.37,Cloudy
10/31/2012,23:00,8.1,6.4,89,4,25.0,99.38,Cloudy
11/1/2012,1:00,7.6,6.8,95,6,25.0,99.37,Cloudy
11/1/2012,5:00,7.7,5.0,83,4,25.0,99.32,Rain
11/1/2012,6:00,7.4,5.4,87,4,25.0,99.31,Cloudy
11/1/2012,7:00,7.3,4.7,84,7,24.1,99.32,Rain
11/1/2012,8:00,7.2,4.5,83,9,24.1,99.33,Rain
11/1/2012,9:00,7.6,5.6,87,9,24.1,99.34,Rain
11/1/2012,10:00,7.7,5.1,84,9,24.1,99.31,Cloudy
11/1/2012,11:00,8.1,4.7,79,11,24.1,99.29,Cloudy
11/1/2012,12:00,8.4,4.9,79,13,24.1,99.25,Cloudy
11/1/2012,18:00,7.5,4.4,81,28,25.0,99.3,Cloudy
11/2/2012,0:00,5.3,2.8,84,19,25.0,99.4,Cloudy
11/2/2012,1:00,5.1,2.6,84,20,25.0,99.42,Cloudy
11/2/2012,2:00,5.0,2.6,84,22,25.0,99.45,Cloudy
11/2/2012,3:00,4.8,2.8,87,24,25.0,99.45,Cloudy
11/2/2012,4:00,4.7,2.5,86,20,25.0,99.46,Cloudy
11/2/2012,14:00,4.6,3.3,91,20,24.1,99.7,Cloudy
11/2/2012,15:00,4.8,3.4,91,19,24.1,99.74,Cloudy
11/2/2012,16:00,4.9,3.6,91,22,19.3,99.78,Cloudy
11/2/2012,17:00,5.3,3.7,89,19,25.0,99.81,Cloudy
11/2/2012,18:00,5.7,4.0,89,15,25.0,99.87,Cloudy
11/2/2012,21:00,5.7,3.1,83,17,25.0,99.96,Cloudy
11/3/2012,3:00,4.5,1.2,79,17,25.0,100.14,Cloudy
11/3/2012,5:00,4.0,0.7,79,19,25.0,100.22,Cloudy
11/3/2012,7:00,3.5,0.3,80,20,24.1,100.33,Cloudy
11/3/2012,8:00,4.2,1.2,81,20,24.1,100.39,Cloudy
11/3/2012,9:00,4.8,1.0,76,22,25.0,100.42,Cloudy
11/3/2012,15:00,5.4,2.7,83,24,24.1,100.52,Drizzle
11/3/2012,16:00,5.0,2.7,85,20,24.1,100.57,Drizzle
11/3/2012,17:00,5.0,2.3,83,20,24.1,100.62,Drizzle
11/3/2012,18:00,4.7,2.4,85,13,25.0,100.66,Drizzle
11/3/2012,19:00,4.8,2.3,84,15,25.0,100.69,Drizzle
11/3/2012,20:00,5.0,1.6,79,17,25.0,100.73,Cloudy
11/3/2012,21:00,5.0,0.9,75,15,25.0,100.76,Cloudy
11/3/2012,22:00,4.7,0.5,74,17,25.0,100.79,Cloudy
11/3/2012,23:00,4.3,-0.1,73,17,25.0,100.82,Cloudy
11/4/2012,4:00,2.9,-0.9,76,19,25.0,100.9,Cloudy
11/4/2012,5:00,3.0,-1.0,75,15,25.0,100.96,Cloudy
11/4/2012,6:00,3.0,-1.6,72,17,25.0,100.99,Cloudy
11/4/2012,7:00,2.8,-1.9,71,15,25.0,101.05,Cloudy
11/4/2012,11:00,3.3,-2.3,67,13,24.1,101.08,Cloudy
11/4/2012,12:00,3.7,-2.4,64,13,24.1,101.07,Cloudy
11/4/2012,13:00,3.4,-2.6,65,11,24.1,101.09,Cloudy
11/4/2012,14:00,3.4,-3.3,61,15,24.1,101.08,Cloudy
11/4/2012,15:00,3.6,-3.9,58,17,24.1,101.08,Cloudy
11/4/2012,16:00,3.5,-4.5,56,13,24.1,101.12,Cloudy
11/4/2012,17:00,3.2,-4.1,59,13,24.1,101.17,Cloudy
11/4/2012,18:00,3.0,-4.5,58,11,25.0,101.21,Cloudy
11/4/2012,19:00,2.5,-4.3,61,9,25.0,101.25,Cloudy
11/4/2012,20:00,2.2,-5.2,58,13,25.0,101.28,Cloudy
11/4/2012,21:00,2.0,-5.1,59,13,25.0,101.3,Cloudy
11/4/2012,22:00,1.8,-5.1,60,9,25.0,101.3,Cloudy
11/4/2012,23:00,1.7,-5.0,61,11,25.0,101.27,Cloudy
11/5/2012,0:00,1.5,-4.9,62,9,25.0,101.28,Cloudy
11/5/2012,1:00,1.2,-4.8,64,11,25.0,101.27,Cloudy
11/5/2012,2:00,1.3,-6.0,58,17,25.0,101.29,Cloudy
11/5/2012,3:00,0.8,-7.7,53,17,25.0,101.29,Cloudy
11/5/2012,4:00,0.4,-7.0,58,13,25.0,101.32,Cloudy
11/5/2012,14:00,1.8,-8.3,47,15,48.3,101.42,Cloudy
11/6/2012,12:00,1.5,-6.4,56,17,48.3,101.89,Cloudy
11/8/2012,9:00,0.8,-4.4,68,19,24.1,101.45,Cloudy
11/9/2012,10:00,2.3,-3.3,66,19,48.3,101.36,Cloudy
11/9/2012,13:00,4.0,-3.2,59,20,24.1,101.26,Cloudy
11/9/2012,15:00,4.6,-2.0,62,24,24.1,101.29,Cloudy
11/9/2012,16:00,4.5,-1.9,63,26,24.1,101.32,Cloudy
11/9/2012,17:00,4.6,-1.2,66,22,25.0,101.36,Cloudy
11/9/2012,18:00,4.6,-0.5,69,15,25.0,101.42,Cloudy
11/9/2012,19:00,4.6,-0.3,70,15,25.0,101.45,Cloudy
11/9/2012,20:00,4.2,-0.3,72,11,25.0,101.47,Cloudy
11/9/2012,21:00,4.6,0.5,75,9,25.0,101.54,Cloudy
11/11/2012,2:00,3.0,-7.8,45,11,25.0,102.33,Cloudy
11/11/2012,3:00,3.1,-7.6,45,17,25.0,102.24,Cloudy
11/11/2012,4:00,0.9,-4.3,68,20,25.0,102.34,Cloudy
11/11/2012,7:00,0.6,-2.1,82,22,24.1,102.3,Cloudy
11/11/2012,8:00,0.6,-2.0,83,20,24.1,102.34,Cloudy
11/11/2012,9:00,1.1,-2.0,80,20,24.1,102.29,Cloudy
11/12/2012,14:00,16.3,8.2,59,22,24.1,101.43,Cloudy
11/12/2012,15:00,17.0,8.4,57,20,24.1,101.33,Cloudy
11/12/2012,16:00,16.7,8.0,56,22,24.1,101.21,Cloudy
11/12/2012,21:00,15.9,7.7,58,30,25.0,100.9,Cloudy
11/12/2012,22:00,16.0,8.2,60,26,25.0,100.87,Cloudy
11/12/2012,23:00,15.6,8.9,64,24,25.0,100.84,Cloudy
11/13/2012,6:00,5.7,3.3,85,30,25.0,101.76,Cloudy
11/13/2012,7:00,5.4,2.3,80,30,24.1,101.78,Cloudy
11/15/2012,8:00,-2.1,-5.1,80,11,24.1,102.99,Cloudy
11/15/2012,9:00,-1.0,-4.8,75,19,24.1,102.93,Cloudy
11/15/2012,10:00,0.3,-4.6,70,15,24.1,102.84,Cloudy
11/15/2012,11:00,1.3,-4.8,64,11,24.1,102.79,Cloudy
11/15/2012,12:00,1.8,-4.7,62,15,24.1,102.73,Cloudy
11/16/2012,17:00,4.4,-1.3,66,13,25.0,102.61,Cloudy
11/16/2012,18:00,4.2,-1.5,66,15,25.0,102.66,Cloudy
11/18/2012,8:00,-4.5,-6.4,87,7,24.1,103.65,Cloudy
11/18/2012,9:00,-2.4,-5.4,80,9,24.1,103.65,Cloudy
11/19/2012,23:00,-0.7,-2.2,90,6,9.7,102.16,Fog
11/20/2012,0:00,-3.3,-4.5,91,7,9.7,102.12,Fog
11/20/2012,1:00,-3.6,-4.3,95,7,9.7,102.08,Fog
11/20/2012,2:00,-1.8,-3.5,88,6,8.0,102.08,Fog
11/20/2012,8:00,-2.0,-4.4,84,9,9.7,102.03,Haze
11/20/2012,9:00,-0.7,-3.6,81,6,9.7,102.01,Haze
11/28/2012,17:00,0.4,-0.7,92,22,4.8,101.36,Snow
11/28/2012,18:00,0.8,-0.6,90,24,8.0,101.35,Snow
11/29/2012,8:00,-4.8,-8.3,76,13,19.3,101.77,Snow
11/29/2012,9:00,-4.6,-7.0,83,19,9.7,101.67,Snow
11/29/2012,10:00,-4.7,-6.8,85,20,4.8,101.56,Snow
11/29/2012,11:00,-3.5,-5.2,88,15,19.3,101.46,Snow
11/29/2012,12:00,-1.8,-4.2,84,15,6.4,101.35,Snow
11/29/2012,13:00,-1.4,-3.4,86,17,24.1,101.33,Snow
11/29/2012,14:00,-0.8,-3.3,83,22,24.1,101.33,Snow
11/29/2012,15:00,-1.2,-4.6,78,22,24.1,101.4,Snow
12/1/2012,17:00,-7.5,-12.0,70,20,19.3,102.73,Snow
12/1/2012,18:00,-6.9,-11.3,71,19,25.0,102.71,Snow
12/1/2012,22:00,-4.8,-8.4,76,13,19.3,102.36,Snow
12/2/2012,3:00,-3.5,-5.8,84,13,25.0,102.02,Snow
12/2/2012,14:00,6.0,4.5,90,19,9.7,100.82,"Rain,Fog"
12/2/2012,15:00,5.6,4.9,95,22,4.8,100.75,"Rain,Fog"
12/2/2012,16:00,5.5,4.9,96,20,6.4,100.68,"Rain,Fog"
12/2/2012,17:00,5.5,5.0,97,17,6.4,100.65,"Rain,Fog"
12/2/2012,18:00,5.8,5.6,99,15,4.8,100.65,"Rain,Fog"
12/5/2012,11:00,2.2,-2.5,71,30,24.1,101.17,Snow Showers
12/5/2012,12:00,1.1,-4.8,65,26,24.1,101.23,Snow Showers
12/5/2012,19:00,-1.0,-8.5,57,28,25.0,101.84,Snow
12/7/2012,23:00,1.5,-2.2,76,4,19.3,101.22,Snow
12/8/2012,0:00,1.8,-1.4,79,4,25.0,101.2,Snow
12/8/2012,8:00,2.7,1.6,92,7,6.4,101.06,"Rain,Fog"
12/8/2012,9:00,2.7,1.8,94,11,4.8,100.98,"Rain,Fog"
12/8/2012,10:00,3.2,2.1,92,11,8.0,100.95,"Rain,Fog"
12/9/2012,12:00,-1.9,-5.1,79,17,12.9,102.32,Snow Showers
12/10/2012,1:00,-5.0,-6.2,91,32,1.6,101.31,Snow
12/10/2012,2:00,-4.7,-6.2,89,33,4.0,101.1,Snow
12/12/2012,9:00,-6.1,-9.0,80,4,24.1,102.21,Snow Showers
12/12/2012,10:00,-4.7,-7.6,80,9,24.1,102.2,Snow Showers
12/12/2012,17:00,-3.2,-6.0,81,7,9.7,102.25,Snow Showers
12/12/2012,18:00,-3.6,-5.7,85,7,12.9,102.28,Snow Showers
12/12/2012,20:00,-4.4,-6.4,86,7,16.1,102.36,Snow Showers
12/12/2012,21:00,-3.9,-5.9,86,6,16.1,102.37,Snow Showers
12/16/2012,9:00,-9.4,-14.7,65,33,19.3,101.82,Snow
12/16/2012,11:00,-8.2,-13.9,63,35,24.1,101.71,Snow
12/16/2012,12:00,-8.5,-12.2,75,32,4.8,101.62,Snow
12/16/2012,13:00,-8.0,-11.2,78,26,12.9,101.54,Snow
12/16/2012,14:00,-7.7,-10.2,82,32,4.8,101.45,Snow
12/16/2012,19:00,-5.1,-6.6,89,22,16.1,101.2,Snow
12/16/2012,20:00,-4.7,-6.0,91,28,12.9,101.18,Snow
12/16/2012,21:00,-4.0,-5.4,90,24,16.1,101.17,Snow
12/16/2012,22:00,-3.6,-4.7,92,22,9.7,101.12,Snow
12/17/2012,16:00,1.3,0.4,94,15,12.9,100.62,Drizzle
12/18/2012,6:00,0.5,-0.4,94,24,3.6,100.07,Snow
12/18/2012,7:00,0.5,-0.2,95,24,3.2,100.0,Snow
12/18/2012,8:00,0.7,0.0,95,24,2.8,99.92,Snow
12/18/2012,18:00,1.4,0.5,94,22,8.0,99.49,"Rain,Snow"
12/19/2012,7:00,0.4,0.0,97,11,3.2,100.15,"Drizzle,Snow,Fog"
12/21/2012,2:00,1.0,-0.3,91,20,6.4,100.35,"Rain,Snow"
12/21/2012,23:00,1.1,0.0,92,30,9.7,97.79,"Drizzle,Snow,Fog"
12/27/2012,14:00,-5.2,-6.7,89,46,0.6,100.35,"Snow,Blowing Snow"
12/27/2012,15:00,-5.0,-6.2,91,37,0.6,100.37,"Snow,Blowing Snow"
12/27/2012,22:00,-3.8,-4.6,94,20,4.8,100.65,"Freezing Drizzle,Snow"
12/29/2012,20:00,-9.7,-11.6,86,24,9.7,100.25,"Snow,Fog"
12/29/2012,21:00,-9.8,-11.8,85,24,8.0,100.24,"Snow,Fog"
12/29/2012,22:00,-10.1,-11.6,89,15,2.4,100.2,"Snow,Fog"
12/29/2012,23:00,-10.0,-12.0,85,20,6.4,100.19,"Snow,Fog"
12/30/2012,0:00,-9.6,-11.3,87,13,3.2,100.23,"Snow,Fog"
