Date,Time,Temp_C,Dew Point Temp_C,Rel Hum_%,Wind Speed_km/h,Visibility_km,Press_kPa,Weather
9/1/2012,18:00,22.7,8.4,40,9,48.3,101.41,Clear
3/22/2012,9:00,17.3,10.4,64,22,24.1,101.53,Mainly Clear
10/29/2012,13:00,16.5,9.7,64,33,24.1,100.24,Cloudy
12/28/2012,20:00,-9.8,-12.6,80,20,25.0,101.35,Mainly Clear
3/26/2012,6:00,-3.8,-13.4,47,32,24.1,101.03,Clear
8/8/2012,13:00,27.4,14.1,44,4,48.3,101.0,Mainly Clear
5/10/2012,13:00,10.4,6.0,74,26,24.1,99.46,Cloudy
10/25/2012,19:00,11.4,5.5,67,15,25.0,101.53,Clear
10/8/2012,10:00,8.6,-1.7,48,7,48.3,101.97,Mainly Clear
8/10/2012,8:00,20.8,18.9,89,9,12.9,100.69,Cloudy
10/6/2012,14:00,13.8,8.9,72,17,24.1,100.28,Mostly Cloudy
4/1/2012,19:00,2.6,0.2,84,0,25.0,100.14,Rain
7/5/2012,9:00,21.1,15.3,69,6,48.3,100.74,Mostly Cloudy
3/9/2012,6:00,-4.3,-9.0,70,15,25.0,101.26,Mainly Clear
9/25/2012,20:00,15.7,10.6,72,7,25.0,101.03,Mainly Clear
3/12/2012,14:00,12.3,1.4,47,6,48.3,101.79,Mostly Cloudy
8/2/2012,17:00,29.9,16.1,43,20,24.1,100.41,Mostly Cloudy
11/14/2012,4:00,-4.0,-7.0,80,4,25.0,103.01,Clear
5/3/2012,14:00,16.2,10.8,70,11,24.1,101.37,Cloudy
1/23/2012,17:00,3.1,-0.4,78,28,16.1,100.61,Rain
9/2/2012,8:00,17.3,11.7,70,7,48.3,101.51,Mostly Cloudy
2/20/2012,22:00,-3.3,-8.8,66,0,25.0,102.2,Clear
4/20/2012,10:00,6.6,1.6,70,24,24.1,101.07,Rain
3/19/2012,7:00,9.9,8.5,91,0,12.9,101.59,Mostly Cloudy
12/1/2012,15:00,-8.3,-13.5,66,17,24.1,102.84,Cloudy
8/28/2012,13:00,25.4,12.1,44,30,48.3,100.61,Mainly Clear
2/9/2012,16:00,2.7,-6.5,51,22,48.3,101.01,Clear
6/30/2012,22:00,23.3,15.3,61,7,25.0,100.04,Mostly Cloudy
8/2/2012,7:00,22.5,20.1,86,13,48.3,100.6,Mainly Clear
3/25/2012,14:00,7.5,4.1,79,11,24.1,100.39,Cloudy
8/5/2012,10:00,24.8,22.6,88,22,19.3,100.71,Cloudy
10/18/2012,17:00,16.6,4.7,45,15,48.3,100.74,Mostly Cloudy
8/4/2012,8:00,23.1,15.6,63,13,48.3,101.75,Mainly Clear
10/10/2012,1:00,10.3,7.8,84,11,25.0,101.18,Mostly Cloudy
6/28/2012,0:00,17.2,14.0,81,6,25.0,100.17,Cloudy
8/7/2012,9:00,22.8,16.7,68,19,48.3,100.99,Mainly Clear
4/18/2012,0:00,2.9,-5.1,56,13,25.0,102.2,Clear
10/25/2012,8:00,5.2,1.5,77,22,48.3,101.94,Mostly Cloudy
12/10/2012,3:00,-4.3,-5.9,89,33,2.8,100.96,"Snow,Ice Pellets"
4/21/2012,11:00,5.6,3.5,86,11,12.9,100.59,Rain
12/11/2012,23:00,-8.3,-11.2,80,9,25.0,101.84,Clear
10/15/2012,17:00,14.7,8.2,65,33,24.1,99.69,Mostly Cloudy
9/25/2012,9:00,16.3,8.6,60,32,48.3,100.93,Mainly Clear
10/1/2012,23:00,14.2,12.9,92,22,25.0,100.75,Mostly Cloudy
4/14/2012,0:00,7.9,-1.6,51,22,25.0,101.35,Clear
5/27/2012,22:00,17.5,9.1,58,0,25.0,101.33,Cloudy
3/26/2012,8:00,-4.0,-12.6,51,26,48.3,101.27,Mostly Cloudy
3/3/2012,15:00,5.3,-5.6,45,57,24.1,98.67,Mostly Cloudy
11/17/2012,7:00,-3.2,-8.2,68,13,24.1,103.39,Mainly Clear
7/25/2012,7:00,17.5,12.2,71,13,24.1,100.81,Clear
10/18/2012,2:00,10.9,4.9,66,4,25.0,100.92,Mostly Cloudy
3/31/2012,1:00,1.3,-9.6,44,13,25.0,101.31,Mostly Cloudy
12/22/2012,13:00,-4.7,-6.9,85,37,4.0,98.96,Snow
9/24/2012,2:00,6.9,5.1,88,0,25.0,101.37,Clear
5/3/2012,3:00,11.2,8.5,83,15,25.0,101.21,Cloudy
1/14/2012,21:00,-20.0,-25.9,59,11,25.0,101.65,Mostly Cloudy
9/4/2012,14:00,24.7,18.0,66,15,24.1,100.83,Cloudy
4/30/2012,0:00,3.3,-10.3,36,9,25.0,102.06,Clear
4/6/2012,21:00,6.7,-10.3,28,9,25.0,101.24,Cloudy
1/3/2012,10:00,-15.3,-22.2,56,24,24.1,101.29,Cloudy
1/4/2012,7:00,-18.2,-24.1,60,11,25.0,101.75,Cloudy
9/3/2012,14:00,28.0,10.4,33,0,48.3,101.41,Mainly Clear
12/15/2012,20:00,-8.7,-15.1,60,20,25.0,102.5,Clear
8/11/2012,18:00,19.6,18.7,95,19,24.1,100.59,Rain Showers
9/22/2012,18:00,16.1,15.6,97,13,25.0,100.33,Rain Showers
12/3/2012,21:00,3.1,1.2,87,6,25.0,101.99,Cloudy
6/18/2012,10:00,22.6,14.2,59,19,48.3,101.15,Mostly Cloudy
8/27/2012,17:00,22.4,20.5,89,13,24.1,100.84,Rain Showers
9/24/2012,5:00,8.0,7.8,99,0,25.0,101.44,Mostly Cloudy
4/28/2012,6:00,-2.1,-10.7,52,22,48.3,101.74,Mainly Clear
5/9/2012,23:00,11.9,8.3,79,4,25.0,99.65,Mainly Clear
5/4/2012,20:00,15.4,13.5,88,9,25.0,100.89,Mostly Cloudy
1/2/2012,10:00,1.5,-4.1,66,43,24.1,99.18,Mostly Cloudy
6/27/2012,7:00,16.3,12.2,77,20,24.1,99.81,Rain
6/19/2012,13:00,25.8,17.9,62,15,24.1,100.99,Cloudy
5/24/2012,19:00,24.4,16.4,61,15,24.1,101.25,Mainly Clear
1/24/2012,21:00,1.1,-3.0,74,20,25.0,101.11,Mostly Cloudy
8/26/2012,5:00,21.2,16.9,76,6,24.1,102.02,Clear
12/2/2012,10:00,5.7,3.0,83,28,19.3,101.27,Cloudy
9/16/2012,3:00,6.7,5.6,93,7,25.0,101.44,Clear
11/25/2012,10:00,-3.0,-9.5,61,32,48.3,100.33,Mostly Cloudy
10/22/2012,2:00,7.6,3.9,77,24,25.0,100.81,Mainly Clear
8/31/2012,4:00,22.8,13.0,54,28,25.0,100.47,Mostly Cloudy
8/23/2012,14:00,25.0,15.4,55,13,24.1,101.37,Rain Showers
3/16/2012,19:00,3.8,3.2,96,0,3.2,101.77,"Drizzle,Fog"
7/5/2012,2:00,16.6,14.6,88,11,25.0,100.43,Mainly Clear
4/15/2012,9:00,14.1,8.9,71,26,24.1,100.79,Cloudy
8/17/2012,10:00,21.8,17.0,74,13,24.1,100.13,Cloudy
3/15/2012,13:00,3.4,0.0,78,22,24.1,102.12,Cloudy
10/3/2012,14:00,18.7,13.6,72,13,19.3,101.4,Cloudy
12/8/2012,10:00,3.2,2.1,92,11,8.0,100.95,"Rain,Fog"
12/26/2012,11:00,-11.3,-14.5,77,20,48.3,102.5,Mainly Clear
6/27/2012,19:00,19.4,13.8,70,17,24.1,100.09,Rain
3/1/2012,23:00,-4.3,-7.1,81,22,4.8,101.04,Snow
2/6/2012,13:00,2.6,-2.9,67,32,24.1,100.47,Cloudy
9/26/2012,8:00,14.9,11.0,77,19,24.1,100.89,Cloudy
1/5/2012,0:00,-8.8,-11.7,79,4,9.7,100.32,Snow
4/1/2012,17:00,2.8,0.5,85,22,24.1,100.12,Rain
3/24/2012,22:00,6.6,-7.8,35,11,25.0,101.22,Cloudy
2/25/2012,15:00,-3.3,-7.5,73,33,19.3,99.22,Snow
11/27/2012,18:00,-2.8,-7.0,73,4,25.0,102.15,Clear
5/4/2012,4:00,13.1,11.2,88,6,8.0,100.7,"Drizzle,Fog"
3/16/2012,2:00,1.1,0.2,94,17,12.9,101.56,Rain
4/7/2012,3:00,2.4,-10.0,39,11,25.0,101.32,Mainly Clear
7/30/2012,12:00,27.2,15.8,50,19,48.3,101.22,Mainly Clear
5/26/2012,6:00,17.1,10.0,63,9,48.3,101.37,Clear
11/28/2012,8:00,-3.1,-5.0,87,4,24.1,101.85,Cloudy
3/30/2012,9:00,-2.0,-10.1,54,13,48.3,101.63,Clear
9/12/2012,17:00,26.8,11.6,39,17,48.3,101.77,Mainly Clear
3/21/2012,14:00,24.7,12.1,45,13,24.1,101.77,Clear
8/22/2012,11:00,23.2,13.9,56,24,48.3,101.46,Mainly Clear
8/27/2012,7:00,23.1,16.9,68,13,24.1,101.36,Mostly Cloudy
1/22/2012,11:00,-13.0,-15.5,81,6,8.0,103.04,Fog
9/23/2012,20:00,11.4,4.7,63,9,25.0,101.31,Mainly Clear
6/5/2012,1:00,13.7,7.1,64,15,25.0,100.82,Cloudy
2/18/2012,4:00,-0.3,-4.9,71,22,25.0,100.74,Mostly Cloudy
3/19/2012,10:00,15.6,11.0,74,6,16.1,101.75,Mainly Clear
6/11/2012,10:00,24.8,16.3,59,4,24.1,101.58,Mostly Cloudy
9/17/2012,18:00,22.1,14.8,63,15,24.1,100.88,Mainly Clear
9/21/2012,14:00,19.2,13.9,71,17,48.3,100.95,Cloudy
1/21/2012,23:00,-17.4,-21.7,69,0,25.0,102.54,Mainly Clear
5/8/2012,4:00,14.2,10.4,78,17,25.0,100.6,Rain
2/21/2012,7:00,-6.2,-9.1,80,7,48.3,102.03,Mainly Clear
11/30/2012,15:00,-8.8,-15.8,57,11,48.3,103.14,Cloudy
2/25/2012,7:00,-1.4,-2.9,89,33,1.2,98.11,"Snow,Blowing Snow"
9/22/2012,1:00,15.9,15.4,97,7,11.3,100.85,Cloudy
10/7/2012,7:00,6.0,3.7,85,13,24.1,101.31,Mostly Cloudy
6/17/2012,9:00,23.4,15.3,60,9,48.3,101.47,Mainly Clear
12/21/2012,0:00,1.9,-2.1,75,26,25.0,100.6,"Rain,Snow Grains"
1/13/2012,20:00,-3.2,-5.1,87,32,2.0,98.89,Snow
11/2/2012,12:00,4.3,2.9,91,15,24.1,99.68,Drizzle
7/26/2012,5:00,20.0,14.8,72,7,24.1,99.98,Cloudy
10/29/2012,10:00,12.9,8.7,76,28,24.1,100.57,Cloudy
12/15/2012,9:00,-10.4,-15.9,64,19,48.3,102.74,Clear
10/18/2012,10:00,16.1,6.7,54,15,48.3,100.97,Mainly Clear
4/12/2012,17:00,11.4,-1.5,41,11,48.3,101.32,Mainly Clear
1/12/2012,22:00,-4.1,-6.8,81,26,25.0,99.47,Snow
9/20/2012,23:00,14.0,8.9,71,19,25.0,101.24,Mainly Clear
12/2/2012,22:00,7.1,6.9,99,15,8.0,100.71,"Drizzle,Fog"
4/29/2012,21:00,5.4,-11.0,29,19,25.0,102.01,Mainly Clear
6/24/2012,1:00,17.6,8.7,56,6,25.0,101.02,Clear
5/22/2012,4:00,18.6,16.2,86,7,12.9,100.89,Rain Showers
12/27/2012,6:00,-6.8,-8.1,90,39,1.2,100.83,Snow
5/24/2012,23:00,21.1,15.2,69,19,25.0,101.39,Clear
8/14/2012,15:00,25.7,18.4,64,15,24.1,100.71,Mostly Cloudy
7/9/2012,13:00,23.1,7.9,38,19,48.3,101.04,Mainly Clear
12/22/2012,10:00,-3.6,-5.0,90,37,1.6,98.7,Snow
6/6/2012,18:00,20.0,7.6,45,15,24.1,100.95,Mostly Cloudy
12/14/2012,10:00,2.8,-2.4,69,22,24.1,101.34,Cloudy
10/9/2012,6:00,5.4,3.7,89,7,48.3,102.09,Mainly Clear
11/18/2012,0:00,-1.6,-6.2,71,0,25.0,103.58,Clear
12/4/2012,7:00,5.1,3.4,89,13,25.0,101.35,Cloudy
4/8/2012,14:00,12.1,-3.5,33,20,48.3,99.97,Mostly Cloudy
12/15/2012,16:00,-8.5,-14.8,60,20,48.3,102.54,Mainly Clear
7/22/2012,10:00,25.7,18.5,64,22,48.3,101.2,Mainly Clear
8/20/2012,23:00,16.6,10.8,69,6,25.0,100.8,Mainly Clear
12/9/2012,12:00,-1.9,-5.1,79,17,12.9,102.32,Snow Showers
7/25/2012,0:00,16.6,12.4,76,11,25.0,100.55,Clear
10/21/2012,9:00,10.4,6.0,74,26,24.1,100.27,Mostly Cloudy
3/13/2012,12:00,3.9,2.2,89,9,4.8,100.64,Fog
7/5/2012,17:00,25.8,17.5,60,17,48.3,100.65,Mainly Clear
5/14/2012,0:00,11.8,6.8,71,6,25.0,101.53,Clear
9/27/2012,13:00,13.6,4.5,54,11,48.3,101.99,Mostly Cloudy
11/25/2012,12:00,-2.5,-9.9,57,33,48.3,100.21,Cloudy
3/21/2012,18:00,20.7,9.7,49,9,48.3,101.67,Clear
6/30/2012,15:00,28.8,13.2,38,28,24.1,99.66,Mostly Cloudy
9/28/2012,0:00,9.2,4.0,70,6,25.0,101.96,Clear
1/20/2012,9:00,-12.2,-18.1,61,32,24.1,101.59,Clear
2/21/2012,9:00,-3.1,-7.2,73,9,48.3,101.87,Mostly Cloudy
5/16/2012,17:00,17.6,10.7,64,22,24.1,100.32,Mostly Cloudy
12/1/2012,10:00,-10.9,-15.7,68,24,24.1,103.18,Cloudy
6/2/2012,20:00,12.9,10.5,85,4,19.3,100.4,Drizzle
7/21/2012,6:00,16.9,13.7,81,4,48.3,101.4,Clear
7/29/2012,12:00,26.6,17.5,57,6,48.3,101.21,Mainly Clear
5/27/2012,11:00,19.5,3.9,36,4,48.3,101.83,Cloudy
7/10/2012,22:00,20.2,6.6,41,7,25.0,101.37,Clear
8/15/2012,22:00,19.9,16.0,78,7,25.0,100.76,Mainly Clear
10/21/2012,10:00,10.9,5.8,71,32,24.1,100.31,Mostly Cloudy
7/4/2012,19:00,23.3,20.2,83,6,24.1,100.09,Mainly Clear
4/2/2012,3:00,-1.4,-2.8,90,0,8.0,100.33,Fog
6/30/2012,21:00,23.6,16.3,64,13,25.0,100.02,Mostly Cloudy
4/16/2012,2:00,14.9,13.3,90,4,9.7,100.66,Rain Showers
2/3/2012,14:00,-3.8,-7.4,76,7,16.1,102.27,Snow
2/7/2012,22:00,-10.8,-20.1,46,9,25.0,102.21,Clear
12/30/2012,10:00,-12.4,-16.0,74,24,24.1,100.82,Cloudy
11/23/2012,12:00,12.1,1.5,48,22,24.1,99.93,Mostly Cloudy
6/26/2012,11:00,17.6,10.8,64,11,24.1,100.12,Cloudy
12/15/2012,15:00,-7.8,-13.7,63,15,48.3,102.55,Mainly Clear
2/17/2012,12:00,2.6,-4.1,61,24,24.1,100.71,Cloudy
9/12/2012,4:00,13.7,10.0,78,0,25.0,101.91,Clear
5/18/2012,9:00,14.4,4.6,52,17,48.3,101.94,Mainly Clear
2/27/2012,19:00,-7.1,-9.6,82,22,2.0,101.14,Snow
11/26/2012,16:00,-1.8,-9.0,58,24,48.3,101.56,Clear
12/27/2012,17:00,-4.2,-5.9,88,32,3.2,100.47,"Snow,Blowing Snow"
12/19/2012,21:00,0.6,-0.1,95,13,11.3,101.38,Snow
11/27/2012,20:00,-4.5,-7.5,80,6,25.0,102.14,Clear
4/12/2012,19:00,9.9,-1.8,44,11,48.3,101.34,Mainly Clear
10/11/2012,20:00,7.0,3.6,79,32,25.0,101.07,Rain
7/4/2012,6:00,20.5,17.3,82,15,16.1,100.24,Cloudy
7/7/2012,13:00,27.8,16.4,50,20,48.3,100.37,Mainly Clear
10/25/2012,20:00,11.0,5.9,71,15,25.0,101.51,Clear
8/11/2012,21:00,20.0,18.5,91,9,25.0,100.68,Mostly Cloudy
7/20/2012,16:00,24.4,9.7,39,11,48.3,101.34,Mainly Clear
3/17/2012,20:00,9.3,5.2,76,0,25.0,101.92,Cloudy
10/27/2012,6:00,11.9,10.6,92,9,9.7,101.41,Fog
5/23/2012,13:00,20.1,12.2,60,13,24.1,101.15,Mostly Cloudy
10/19/2012,9:00,12.8,10.6,86,24,24.1,100.77,Cloudy
2/18/2012,7:00,-0.6,-5.2,71,24,25.0,100.84,Mostly Cloudy
5/26/2012,5:00,16.3,9.8,65,9,24.1,101.36,Mainly Clear
6/10/2012,7:00,18.0,8.8,55,4,48.3,101.42,Mainly Clear
11/10/2012,5:00,0.7,-4.0,71,6,25.0,101.98,Mainly Clear
10/15/2012,1:00,8.5,8.2,98,9,9.7,100.02,"Rain,Fog"
12/15/2012,8:00,-10.7,-15.6,67,13,48.3,102.69,Clear
5/30/2012,1:00,19.7,14.4,71,24,25.0,99.77,Mainly Clear
8/5/2012,8:00,26.5,21.0,72,24,24.1,100.8,Cloudy
7/2/2012,11:00,25.2,15.6,55,19,48.3,100.78,Mainly Clear
7/16/2012,6:00,21.8,19.8,88,6,19.3,100.55,Mainly Clear
3/25/2012,20:00,7.3,4.9,85,7,25.0,100.22,Mostly Cloudy
12/1/2012,7:00,-11.3,-14.2,79,24,24.1,103.19,Cloudy
5/14/2012,4:00,8.2,5.4,82,4,25.0,101.51,Mainly Clear
2/3/2012,20:00,-4.2,-7.7,77,11,25.0,102.16,Mostly Cloudy
6/28/2012,11:00,23.0,14.7,60,13,48.3,100.21,Mostly Cloudy
9/17/2012,11:00,19.9,14.9,73,15,24.1,101.09,Mainly Clear
6/26/2012,12:00,16.9,11.5,70,15,24.1,100.12,Rain
11/8/2012,9:00,0.8,-4.4,68,19,24.1,101.45,Cloudy
9/24/2012,7:00,7.9,7.5,97,6,48.3,101.48,Mostly Cloudy
1/4/2012,9:00,-16.8,-22.5,61,9,24.1,101.68,Mostly Cloudy
3/6/2012,11:00,-9.0,-17.8,49,15,48.3,103.12,Mainly Clear
3/4/2012,7:00,-5.7,-12.6,58,22,24.1,99.88,Mostly Cloudy
11/3/2012,15:00,5.4,2.7,83,24,24.1,100.52,Drizzle
1/23/2012,11:00,1.2,-3.2,72,11,48.3,101.49,Cloudy
4/23/2012,18:00,5.9,2.8,80,43,24.1,98.66,Cloudy
2/6/2012,14:00,3.0,-3.3,63,33,24.1,100.45,Mostly Cloudy
1/13/2012,0:00,-5.1,-7.5,83,28,2.4,99.3,Snow
9/27/2012,14:00,14.9,4.4,49,4,48.3,101.95,Mainly Clear
4/1/2012,5:00,-0.4,-4.5,74,4,25.0,100.65,Mostly Cloudy
4/5/2012,19:00,5.6,-7.7,38,26,25.0,100.82,Mostly Cloudy
3/6/2012,17:00,-4.8,-15.1,44,6,48.3,102.9,Mainly Clear
12/7/2012,6:00,-2.9,-5.5,82,7,25.0,101.27,Cloudy
1/11/2012,7:00,-14.4,-21.0,57,13,25.0,101.77,Mostly Cloudy
9/20/2012,12:00,17.6,7.3,51,15,48.3,101.56,Clear
9/4/2012,9:00,22.0,16.9,73,11,24.1,101.1,Mostly Cloudy
6/29/2012,11:00,26.5,19.2,64,26,24.1,99.51,Mainly Clear
3/18/2012,14:00,21.7,10.5,49,13,48.3,101.45,Mainly Clear
4/13/2012,21:00,11.7,-5.1,30,19,25.0,101.32,Mainly Clear
1/4/2012,23:00,-9.6,-12.6,79,6,9.7,100.42,Snow
9/25/2012,3:00,11.2,5.5,68,20,25.0,100.85,Mostly Cloudy
4/23/2012,16:00,5.6,2.4,80,39,24.1,98.81,Cloudy
4/17/2012,18:00,9.5,-2.8,42,24,48.3,101.79,Mostly Cloudy
3/8/2012,1:00,5.5,-1.4,61,11,25.0,100.92,Cloudy
10/14/2012,0:00,5.4,3.1,85,7,8.0,101.68,"Rain,Fog"
3/20/2012,13:00,20.0,10.8,55,13,24.1,101.93,Clear
6/2/2012,6:00,13.6,9.5,76,19,16.1,100.44,Rain
2/12/2012,9:00,-16.7,-24.6,50,17,24.1,100.72,Snow
6/11/2012,5:00,17.5,11.8,69,11,24.1,101.54,Mainly Clear
9/1/2012,13:00,23.6,7.0,34,6,48.3,101.54,Clear
6/15/2012,12:00,23.5,7.0,35,11,48.3,102.3,Mainly Clear
4/30/2012,12:00,10.1,-3.2,39,6,48.3,102.15,Mostly Cloudy
4/2/2012,5:00,-1.7,-2.5,94,6,25.0,100.47,Clear
11/13/2012,9:00,4.6,-1.2,66,32,24.1,101.95,Mostly Cloudy
7/7/2012,6:00,23.2,17.4,70,9,24.1,100.45,Cloudy
5/11/2012,11:00,14.6,-0.9,34,24,48.3,100.65,Mainly Clear
8/24/2012,8:00,20.7,13.0,61,7,24.1,101.8,Clear
1/4/2012,12:00,-13.7,-21.7,51,11,24.1,101.25,Snow
8/23/2012,15:00,25.8,16.2,55,19,48.3,101.35,Mostly Cloudy
8/15/2012,21:00,20.4,15.9,75,6,25.0,100.7,Clear
11/9/2012,1:00,-3.7,-5.9,85,7,25.0,101.18,Mainly Clear
2/25/2012,22:00,-6.6,-12.8,61,28,25.0,100.62,Cloudy
2/14/2012,9:00,-11.6,-18.0,59,4,24.1,101.12,Mainly Clear
12/24/2012,13:00,-7.6,-13.1,65,15,48.3,101.45,Mainly Clear
5/11/2012,22:00,7.7,-1.2,53,9,25.0,101.15,Clear
8/29/2012,2:00,13.4,8.6,73,11,25.0,101.08,Mostly Cloudy
4/20/2012,16:00,8.4,2.9,68,33,24.1,100.67,Cloudy
10/9/2012,17:00,13.6,4.8,55,22,48.3,101.5,Mostly Cloudy
12/13/2012,18:00,1.1,-2.0,80,19,25.0,102.01,Mostly Cloudy
6/17/2012,15:00,27.0,16.8,54,17,48.3,101.1,Cloudy
6/15/2012,17:00,24.8,5.3,28,11,48.3,102.06,Cloudy
1/18/2012,15:00,-10.4,-18.0,54,30,48.3,101.32,Mainly Clear
7/28/2012,15:00,26.7,11.2,38,22,48.3,101.12,Mostly Cloudy
8/13/2012,21:00,22.4,17.8,75,6,25.0,100.87,Mainly Clear
5/27/2012,19:00,18.1,9.5,57,0,48.3,101.42,Rain
2/18/2012,9:00,-0.6,-5.4,70,24,48.3,100.85,Mainly Clear
3/1/2012,2:00,-5.4,-8.3,80,28,4.8,100.8,Snow
9/13/2012,1:00,19.5,13.4,68,7,25.0,101.97,Mainly Clear
1/19/2012,17:00,-6.9,-14.7,54,17,24.1,100.7,Cloudy
10/12/2012,23:00,-0.2,-4.9,71,9,25.0,102.48,Mainly Clear
9/23/2012,22:00,7.2,4.9,85,7,25.0,101.41,Mainly Clear
3/1/2012,8:00,-5.0,-7.5,83,32,1.2,100.59,Snow
11/17/2012,16:00,2.0,-7.3,50,4,48.3,103.46,Mainly Clear
4/21/2012,12:00,5.5,3.3,86,15,9.7,100.61,"Rain,Fog"
12/6/2012,0:00,-2.1,-9.7,56,20,25.0,102.1,Mostly Cloudy
4/14/2012,14:00,14.7,-0.7,35,17,48.3,101.08,Cloudy
5/18/2012,22:00,14.4,5.0,53,6,25.0,101.63,Mainly Clear
7/21/2012,4:00,14.6,12.9,90,0,24.1,101.4,Clear
1/25/2012,18:00,-5.1,-11.4,61,11,25.0,102.07,Mainly Clear
11/5/2012,18:00,0.5,-8.6,50,20,25.0,101.57,Mostly Cloudy
1/31/2012,2:00,-6.5,-13.1,59,11,25.0,101.81,Snow
8/22/2012,10:00,22.0,14.1,61,17,48.3,101.5,Mainly Clear
6/14/2012,23:00,19.6,5.8,40,6,25.0,102.21,Clear
4/12/2012,3:00,4.3,-2.8,60,13,25.0,101.21,Mostly Cloudy
6/17/2012,8:00,22.2,15.1,64,9,48.3,101.5,Mainly Clear
7/23/2012,6:00,23.5,18.3,73,13,24.1,100.94,Cloudy
7/18/2012,18:00,22.6,10.9,48,17,48.3,100.88,Mainly Clear
7/9/2012,12:00,22.2,7.1,38,13,48.3,101.07,Clear
4/30/2012,14:00,12.4,-3.2,34,7,48.3,101.93,Mostly Cloudy
9/10/2012,10:00,14.4,6.5,59,15,24.1,101.32,Mostly Cloudy
6/30/2012,9:00,24.2,13.9,53,26,48.3,99.83,Mainly Clear
1/29/2012,23:00,-3.4,-7.6,73,15,25.0,100.85,Clear
10/12/2012,17:00,4.7,-5.1,49,22,24.1,102.13,Mainly Clear
5/29/2012,9:00,18.6,15.1,80,4,19.3,100.12,Mainly Clear
8/27/2012,11:00,26.2,18.0,61,17,24.1,101.19,Cloudy
12/18/2012,11:00,0.5,-0.2,95,22,1.2,99.76,Snow
5/8/2012,18:00,12.1,10.3,89,11,9.7,100.29,"Rain,Fog"
2/13/2012,10:00,-6.8,-19.1,37,26,48.3,100.59,Mostly Cloudy
4/15/2012,0:00,12.9,0.1,41,9,25.0,100.77,Mostly Cloudy
2/9/2012,13:00,0.7,-7.1,56,26,48.3,101.13,Clear
11/21/2012,21:00,2.2,-0.5,82,6,25.0,101.88,Mainly Clear
2/18/2012,15:00,1.5,-5.8,58,19,48.3,100.71,Mostly Cloudy
5/1/2012,1:00,10.8,-1.0,44,19,25.0,101.22,Rain Showers
1/20/2012,21:00,-18.5,-25.6,54,9,25.0,102.37,Mainly Clear
5/23/2012,23:00,18.9,10.3,57,4,25.0,101.25,Clear
4/14/2012,1:00,7.5,-1.8,52,11,25.0,101.35,Clear
9/16/2012,9:00,13.1,3.0,50,19,48.3,101.57,Mainly Clear
8/11/2012,22:00,20.0,18.6,92,9,25.0,100.72,Cloudy
1/10/2012,0:00,2.5,-5.2,57,30,25.0,100.38,Cloudy
3/5/2012,17:00,-9.5,-18.8,47,24,48.3,101.82,Mainly Clear
6/13/2012,9:00,17.0,11.7,71,24,24.1,101.09,Mostly Cloudy
8/10/2012,16:00,20.7,19.0,90,20,8.0,100.65,"Rain,Fog"
6/29/2012,21:00,26.5,15.3,50,22,25.0,99.58,Mainly Clear
8/16/2012,22:00,22.0,17.5,76,4,25.0,100.48,Mainly Clear
12/3/2012,12:00,3.9,1.3,83,9,24.1,101.96,Cloudy
9/1/2012,5:00,16.0,12.9,82,13,25.0,101.31,Mainly Clear
5/12/2012,16:00,23.6,7.7,36,22,48.3,101.19,Mostly Cloudy
3/29/2012,12:00,3.9,-2.2,64,6,24.1,100.71,Cloudy
11/9/2012,2:00,-4.3,-6.3,86,7,25.0,101.19,Clear
7/20/2012,13:00,23.2,10.4,44,9,48.3,101.45,Mainly Clear
11/14/2012,14:00,5.2,-6.2,44,6,48.3,103.15,Clear
9/6/2012,0:00,21.3,18.1,82,7,25.0,100.53,Mainly Clear
10/9/2012,9:00,10.3,6.4,77,15,48.3,102.06,Clear
7/28/2012,9:00,20.7,12.3,59,19,48.3,101.25,Mostly Cloudy
2/2/2012,10:00,-8.2,-13.7,65,17,24.1,101.87,Mostly Cloudy
3/25/2012,21:00,8.2,5.7,84,13,25.0,100.21,Mainly Clear
5/6/2012,7:00,8.2,-2.3,47,22,48.3,101.78,Cloudy
10/23/2012,16:00,11.9,4.0,58,11,24.1,101.57,Mostly Cloudy
12/23/2012,4:00,-8.3,-12.7,71,28,25.0,100.43,Cloudy
8/28/2012,21:00,14.9,7.1,60,7,25.0,101.01,Mainly Clear
4/23/2012,5:00,1.9,-0.2,86,46,8.0,99.74,Rain
9/8/2012,20:00,19.2,13.2,68,43,25.0,99.51,Mainly Clear
11/5/2012,16:00,1.1,-6.0,59,19,24.1,101.44,Snow Showers
10/19/2012,12:00,13.0,11.5,91,11,16.1,100.77,Rain
3/1/2012,6:00,-5.2,-7.8,82,33,4.0,100.57,Snow
10/6/2012,15:00,14.4,8.8,69,28,48.3,100.25,Mainly Clear
11/30/2012,18:00,-9.5,-15.5,62,13,25.0,103.24,Cloudy
3/6/2012,6:00,-15.3,-21.3,60,11,24.1,102.9,Clear
1/14/2012,20:00,-19.6,-25.8,58,13,25.0,101.62,Mainly Clear
1/30/2012,16:00,-7.3,-15.8,51,17,48.3,101.86,Mostly Cloudy
9/19/2012,10:00,11.0,3.6,60,32,48.3,101.19,Mostly Cloudy
1/18/2012,18:00,-12.0,-18.2,60,22,25.0,101.67,Clear
6/30/2012,20:00,22.9,16.2,66,6,25.0,99.92,Mostly Cloudy
1/23/2012,19:00,3.2,1.4,88,22,8.0,100.43,"Rain,Fog"
6/15/2012,1:00,17.1,6.1,48,6,25.0,102.17,Clear
2/10/2012,22:00,-0.7,-3.0,84,11,16.1,100.78,Snow
11/19/2012,20:00,-1.4,-3.6,85,6,25.0,102.29,Clear
5/9/2012,6:00,13.7,12.2,91,13,2.4,100.08,"Drizzle,Fog"
11/13/2012,18:00,2.5,-5.5,56,11,25.0,102.54,Clear
4/3/2012,1:00,-1.1,-11.4,45,9,25.0,100.86,Clear
9/8/2012,17:00,20.6,16.2,76,33,48.3,99.17,Cloudy
7/23/2012,21:00,18.1,17.7,98,11,6.4,100.27,"Thunderstorms,Rain Showers"
3/8/2012,19:00,6.1,3.2,82,30,16.1,99.78,Rain
5/10/2012,6:00,10.2,7.3,82,22,24.1,99.5,Cloudy
6/1/2012,15:00,19.8,4.9,38,17,48.3,101.16,Cloudy
9/18/2012,16:00,19.4,17.4,88,33,24.1,99.14,Rain
4/24/2012,5:00,7.1,3.1,76,19,24.1,98.47,Cloudy
5/31/2012,3:00,15.5,9.5,67,9,25.0,100.3,Mostly Cloudy
4/22/2012,16:00,6.4,0.0,64,22,48.3,101.2,Cloudy
8/29/2012,21:00,19.7,7.3,45,15,25.0,100.93,Clear
9/24/2012,11:00,14.2,5.5,56,28,48.3,101.44,Mainly Clear
3/11/2012,4:00,-1.7,-6.9,68,13,25.0,102.02,Cloudy
7/28/2012,14:00,26.4,11.1,38,13,48.3,101.13,Mostly Cloudy
1/25/2012,21:00,-5.4,-11.1,64,7,25.0,102.01,Mostly Cloudy
3/24/2012,15:00,5.8,-9.8,32,4,48.3,101.61,Cloudy
7/7/2012,14:00,28.8,16.5,47,17,48.3,100.32,Mainly Clear
4/27/2012,6:00,2.5,-1.7,74,28,24.1,100.16,Mostly Cloudy
11/14/2012,22:00,1.4,-5.7,59,13,25.0,103.15,Clear
9/24/2012,14:00,16.6,3.7,42,32,48.3,101.23,Mainly Clear
5/1/2012,5:00,7.8,5.1,83,24,11.3,101.13,Rain
3/7/2012,23:00,4.8,-1.7,63,15,25.0,101.05,Cloudy
2/1/2012,13:00,-5.0,-7.7,81,11,2.0,100.28,"Freezing Drizzle,Haze"
7/24/2012,12:00,23.5,16.9,66,22,24.1,99.98,Mostly Cloudy
4/3/2012,3:00,-3.0,-12.0,50,9,25.0,100.87,Clear
1/21/2012,19:00,-13.4,-19.9,58,4,25.0,102.27,Clear
6/2/2012,1:00,15.9,9.5,66,19,16.1,100.67,Rain
11/26/2012,10:00,-3.4,-11.3,54,19,48.3,101.25,Clear
12/22/2012,0:00,1.1,-0.1,92,32,9.7,97.81,"Drizzle,Snow,Fog"
9/10/2012,16:00,16.7,5.1,46,20,48.3,101.31,Mostly Cloudy
9/22/2012,2:00,15.9,14.7,93,11,19.3,100.76,Cloudy
6/19/2012,8:00,20.7,14.8,69,6,24.1,101.12,Cloudy
2/28/2012,22:00,-8.3,-14.0,63,0,25.0,102.52,Clear
12/12/2012,18:00,-3.6,-5.7,85,7,12.9,102.28,Snow Showers
6/18/2012,23:00,21.5,14.7,65,13,25.0,101.13,Mostly Cloudy
2/27/2012,16:00,-4.9,-7.9,79,19,19.3,101.13,Snow
3/25/2012,16:00,8.4,4.8,78,9,24.1,100.27,Cloudy
10/24/2012,23:00,9.6,-2.5,43,15,25.0,101.9,Mostly Cloudy
9/20/2012,22:00,13.4,8.5,72,15,25.0,101.25,Clear
6/27/2012,10:00,18.7,13.0,69,20,24.1,99.89,Rain
1/26/2012,13:00,-4.0,-12.0,54,15,24.1,101.71,Mostly Cloudy
8/23/2012,5:00,18.5,14.3,77,15,25.0,101.33,Mainly Clear
1/3/2012,22:00,-17.1,-24.6,52,20,25.0,101.86,Mostly Cloudy
10/3/2012,6:00,11.5,11.5,100,11,0.6,101.42,Fog
5/22/2012,1:00,19.2,16.0,82,15,12.9,101.02,Rain Showers
1/1/2012,14:00,0.8,-1.1,87,20,4.8,100.31,Fog
11/23/2012,16:00,9.2,6.4,83,30,12.9,99.83,Rain
5/24/2012,21:00,22.4,15.9,67,19,25.0,101.31,Clear
11/16/2012,7:00,-5.2,-6.5,91,4,16.1,102.49,Mostly Cloudy
7/7/2012,4:00,23.9,16.0,61,13,25.0,100.47,Cloudy
9/13/2012,14:00,27.9,13.7,42,24,48.3,101.82,Mainly Clear
9/28/2012,17:00,13.3,10.1,81,17,24.1,101.34,Mostly Cloudy
11/27/2012,16:00,-0.5,-6.9,62,7,24.1,102.08,Clear
1/13/2012,15:00,-4.3,-6.5,85,13,8.0,98.1,Snow
3/19/2012,2:00,10.6,8.6,87,4,25.0,101.42,Clear
3/7/2012,11:00,3.0,-4.7,57,6,24.1,101.67,Mainly Clear
1/3/2012,21:00,-17.0,-24.6,52,15,25.0,101.86,Mostly Cloudy
10/31/2012,23:00,8.1,6.4,89,4,25.0,99.38,Cloudy
6/6/2012,23:00,17.1,9.1,59,11,25.0,101.05,Rain Showers
5/21/2012,9:00,24.8,11.2,42,24,48.3,101.63,Mainly Clear
1/29/2012,16:00,0.7,-8.3,51,20,24.1,100.67,Mostly Cloudy
1/27/2012,11:00,0.7,-1.0,88,20,2.4,99.08,"Drizzle,Fog"
7/11/2012,6:00,15.4,9.9,70,6,48.3,101.71,Clear
2/20/2012,0:00,-6.7,-12.4,64,4,25.0,101.55,Clear
7/14/2012,14:00,32.7,15.3,35,28,48.3,101.35,Mainly Clear
2/14/2012,0:00,-11.8,-15.6,73,15,25.0,100.83,Mostly Cloudy
5/28/2012,1:00,17.4,8.8,57,13,25.0,101.23,Mostly Cloudy
1/21/2012,1:00,-16.1,-23.6,52,0,25.0,102.26,Cloudy
4/10/2012,19:00,5.8,2.3,78,19,25.0,100.01,Mostly Cloudy
7/29/2012,16:00,27.5,17.5,54,0,48.3,101.06,Mainly Clear
9/29/2012,7:00,9.8,8.6,92,17,25.0,101.29,Cloudy
11/5/2012,19:00,-0.6,-10.4,47,13,25.0,101.62,Mostly Cloudy
4/28/2012,20:00,4.1,-10.2,34,11,25.0,101.51,Mainly Clear
2/20/2012,13:00,-4.7,-11.7,58,20,48.3,102.08,Mostly Cloudy
3/26/2012,1:00,4.6,-1.9,63,33,25.0,100.29,Rain Showers
9/20/2012,7:00,9.6,6.9,83,9,48.3,101.95,Clear
10/6/2012,8:00,8.8,8.4,97,7,19.3,100.36,Rain
6/15/2012,6:00,15.6,8.5,63,17,48.3,102.32,Clear
9/17/2012,3:00,10.1,8.4,89,7,25.0,101.16,Mostly Cloudy
7/15/2012,9:00,26.5,18.8,63,13,24.1,101.21,Mostly Cloudy
7/26/2012,9:00,20.6,15.3,72,9,24.1,99.97,Cloudy
2/18/2012,5:00,-0.6,-5.1,72,19,25.0,100.79,Cloudy
11/3/2012,5:00,4.0,0.7,79,19,25.0,100.22,Cloudy
7/4/2012,8:00,22.3,18.1,77,17,16.1,100.23,Cloudy
11/20/2012,22:00,1.9,-2.3,74,7,25.0,101.81,Mostly Cloudy
8/4/2012,12:00,30.1,19.2,52,9,25.0,101.62,Clear
2/7/2012,17:00,-5.9,-17.6,39,19,48.3,101.94,Clear
7/5/2012,22:00,21.9,17.6,77,9,25.0,100.76,Clear
4/26/2012,22:00,7.6,5.8,88,6,9.7,99.61,"Drizzle,Fog"
9/30/2012,14:00,11.5,11.1,97,19,8.0,100.46,"Rain,Fog"
2/3/2012,9:00,-8.8,-11.9,78,6,24.1,102.62,Mostly Cloudy
6/22/2012,1:00,24.8,18.1,66,9,25.0,100.11,Mainly Clear
11/23/2012,21:00,9.3,4.1,70,39,25.0,99.72,Cloudy
8/16/2012,0:00,18.9,16.2,84,9,25.0,100.76,Clear
2/16/2012,16:00,3.7,-2.5,64,15,24.1,101.22,Cloudy
7/13/2012,5:00,20.7,14.7,68,15,24.1,101.56,Mainly Clear
8/16/2012,2:00,17.8,15.7,88,6,25.0,100.75,Mainly Clear
11/24/2012,3:00,4.6,-0.6,69,28,25.0,99.59,Cloudy
2/22/2012,17:00,2.6,0.1,84,19,24.1,99.29,Mostly Cloudy
1/19/2012,5:00,-16.6,-19.9,76,6,25.0,101.85,Clear
11/10/2012,14:00,5.6,-7.6,38,4,48.3,102.37,Mostly Cloudy
3/27/2012,17:00,2.7,-12.3,32,19,48.3,101.88,Mostly Cloudy
9/28/2012,19:00,13.0,10.0,82,15,25.0,101.35,Mostly Cloudy
3/31/2012,16:00,8.4,-7.7,31,4,48.3,100.89,Mainly Clear
8/25/2012,6:00,20.2,15.1,72,6,24.1,101.93,Mainly Clear
11/13/2012,11:00,4.8,-2.0,61,30,48.3,102.09,Mostly Cloudy
8/23/2012,10:00,23.9,15.1,58,22,48.3,101.39,Mainly Clear
2/2/2012,3:00,-5.6,-9.1,76,6,25.0,101.52,Snow Showers
11/13/2012,1:00,9.1,7.4,89,37,12.9,101.25,Rain
1/23/2012,16:00,3.1,-0.3,78,28,24.1,100.71,Cloudy
2/23/2012,1:00,1.7,-1.1,82,11,25.0,99.18,Cloudy
6/8/2012,13:00,20.5,14.4,68,20,24.1,100.33,Mostly Cloudy
5/7/2012,11:00,17.8,-3.1,24,7,48.3,101.59,Mainly Clear
12/7/2012,9:00,-2.1,-4.7,82,7,24.1,101.32,Mostly Cloudy
7/23/2012,10:00,27.6,20.9,67,20,48.3,100.7,Mainly Clear
1/15/2012,23:00,-16.9,-21.4,68,15,25.0,103.09,Clear
10/25/2012,15:00,13.5,3.5,51,19,24.1,101.59,Mainly Clear
8/17/2012,20:00,22.4,15.8,66,13,25.0,100.34,Mainly Clear
7/2/2012,3:00,16.6,12.5,77,6,25.0,100.72,Mainly Clear
9/1/2012,8:00,18.6,9.5,55,20,48.3,101.54,Mainly Clear
1/4/2012,1:00,-17.9,-24.1,58,11,25.0,101.86,Mainly Clear
10/22/2012,16:00,14.3,4.9,53,15,48.3,101.06,Mainly Clear
8/1/2012,12:00,25.2,18.6,67,13,24.1,100.56,Mainly Clear
6/14/2012,2:00,13.0,5.4,60,9,25.0,101.93,Clear
3/2/2012,20:00,-2.3,-4.7,84,15,16.1,100.74,Cloudy
5/20/2012,17:00,30.8,10.6,29,13,48.3,101.58,Mostly Cloudy
8/31/2012,14:00,24.1,18.2,70,22,24.1,100.38,Cloudy
7/3/2012,5:00,17.6,10.8,64,6,48.3,100.84,Clear
10/25/2012,4:00,6.9,-0.5,59,15,25.0,101.85,Mainly Clear
2/14/2012,12:00,-3.2,-8.3,68,4,24.1,101.09,Cloudy
7/20/2012,1:00,16.0,9.5,65,15,25.0,101.48,Clear
4/13/2012,18:00,14.3,-5.1,26,22,48.3,101.24,Cloudy
4/9/2012,9:00,7.4,1.6,67,19,24.1,99.05,Rain
5/17/2012,8:00,10.7,2.2,56,15,48.3,101.5,Mostly Cloudy
2/19/2012,11:00,-4.0,-9.1,68,17,48.3,101.59,Mostly Cloudy
6/1/2012,11:00,18.4,1.0,31,17,48.3,101.4,Cloudy
11/17/2012,17:00,0.9,-7.7,53,4,25.0,103.46,Clear
8/27/2012,23:00,22.5,19.1,81,22,25.0,100.59,Mostly Cloudy
8/28/2012,7:00,21.4,19.5,89,15,19.3,100.53,Mostly Cloudy
3/4/2012,15:00,-5.6,-13.5,54,22,48.3,99.9,Mostly Cloudy
2/20/2012,1:00,-7.6,-12.6,67,0,25.0,101.63,Clear
11/15/2012,11:00,1.3,-4.8,64,11,24.1,102.79,Cloudy
4/3/2012,13:00,8.7,-9.1,27,11,48.3,100.76,Mostly Cloudy
10/10/2012,13:00,12.5,10.8,89,19,4.0,100.24,Rain
6/18/2012,9:00,22.0,14.4,62,17,48.3,101.15,Mostly Cloudy
1/13/2012,5:00,-5.1,-7.7,82,20,12.9,99.06,Cloudy
11/26/2012,12:00,-1.3,-10.6,49,24,48.3,101.33,Mainly Clear
12/23/2012,22:00,-9.0,-11.7,81,9,25.0,100.68,Mainly Clear
8/14/2012,16:00,24.5,17.2,64,7,24.1,100.69,Mostly Cloudy
4/25/2012,0:00,4.9,-0.6,68,19,25.0,99.67,Mostly Cloudy
1/19/2012,1:00,-15.2,-18.4,76,4,25.0,101.89,Clear
10/7/2012,15:00,10.5,0.3,49,11,48.3,101.24,Mainly Clear
3/29/2012,15:00,4.1,-3.5,58,19,24.1,100.81,Cloudy
7/27/2012,10:00,22.0,15.3,66,6,24.1,100.53,Mainly Clear
12/16/2012,20:00,-4.7,-6.0,91,28,12.9,101.18,Snow
12/18/2012,10:00,0.6,0.0,96,24,1.2,99.86,Snow
3/12/2012,9:00,6.5,-0.2,62,0,48.3,102.03,Mostly Cloudy
11/25/2012,18:00,-3.4,-11.5,53,20,25.0,100.35,Clear
1/6/2012,12:00,-11.7,-15.4,74,28,19.3,100.23,Snow
11/16/2012,18:00,4.2,-1.5,66,15,25.0,102.66,Cloudy
1/25/2012,12:00,-5.0,-11.8,59,20,24.1,102.06,Mostly Cloudy
9/9/2012,12:00,17.3,8.9,58,22,48.3,100.65,Mainly Clear
2/22/2012,6:00,1.5,-0.3,88,13,12.9,99.59,Rain
3/29/2012,14:00,4.0,-2.8,61,15,24.1,100.76,Cloudy
5/4/2012,6:00,13.3,11.3,88,11,3.6,100.69,"Drizzle,Fog"
5/9/2012,14:00,17.9,11.2,65,15,24.1,99.88,Mostly Cloudy
10/8/2012,12:00,10.7,-2.0,41,13,48.3,101.95,Mainly Clear
7/20/2012,22:00,18.1,12.3,69,0,25.0,101.37,Clear
5/6/2012,13:00,15.0,-1.2,33,7,48.3,101.66,Mainly Clear
11/10/2012,13:00,4.7,-8.0,39,6,48.3,102.39,Mostly Cloudy
3/19/2012,20:00,10.6,5.4,70,13,25.0,101.8,Mainly Clear
1/10/2012,1:00,2.3,-3.4,66,35,25.0,100.28,Snow
12/26/2012,22:00,-9.7,-12.8,78,37,25.0,101.7,Cloudy
11/3/2012,14:00,5.5,2.6,82,20,24.1,100.47,Drizzle
2/6/2012,4:00,0.8,-3.7,72,35,25.0,100.68,Snow
11/20/2012,4:00,-2.9,-4.5,89,6,6.4,102.02,Fog
4/8/2012,8:00,6.6,-3.9,47,13,48.3,100.81,Mostly Cloudy
9/14/2012,5:00,16.4,14.1,86,4,25.0,101.65,Mostly Cloudy
5/10/2012,23:00,9.0,3.1,66,17,25.0,100.0,Mostly Cloudy
11/29/2012,19:00,-4.9,-11.9,58,22,25.0,101.9,Cloudy
9/2/2012,11:00,21.8,10.3,48,4,48.3,101.52,Mostly Cloudy
11/20/2012,2:00,-1.8,-3.5,88,6,8.0,102.08,Fog
12/5/2012,8:00,4.2,-0.5,71,26,24.1,100.85,Cloudy
12/8/2012,0:00,1.8,-1.4,79,4,25.0,101.2,Snow
4/25/2012,6:00,5.2,0.1,70,20,24.1,99.93,Rain Showers
12/29/2012,4:00,-16.0,-17.2,90,6,9.7,101.25,Fog
1/10/2012,4:00,1.2,-1.7,81,26,25.0,100.07,Cloudy
7/25/2012,17:00,24.1,12.3,48,28,48.3,100.46,Cloudy
8/28/2012,14:00,24.2,10.0,41,30,48.3,100.61,Mainly Clear
7/14/2012,19:00,30.8,18.2,47,11,24.1,101.21,Mainly Clear
4/18/2012,2:00,0.9,-6.5,58,15,25.0,102.22,Clear
1/2/2012,13:00,1.1,-6.5,57,37,24.1,99.27,Mostly Cloudy
9/16/2012,2:00,6.5,5.6,94,6,25.0,101.46,Clear
8/15/2012,8:00,20.1,18.2,89,0,24.1,100.69,Mostly Cloudy
3/2/2012,12:00,-5.2,-7.1,86,13,2.4,101.18,"Freezing Drizzle,Snow"
9/7/2012,20:00,23.2,11.9,49,4,25.0,100.58,Mostly Cloudy
10/11/2012,7:00,4.9,2.3,83,26,24.1,101.05,Mainly Clear
8/12/2012,4:00,19.5,18.8,96,4,9.7,100.68,Fog
6/3/2012,2:00,13.1,11.0,87,6,19.3,100.26,Cloudy
10/19/2012,23:00,13.5,12.3,92,11,16.1,100.1,Cloudy
5/18/2012,1:00,9.9,2.4,60,7,25.0,101.73,Clear
6/6/2012,11:00,19.4,9.4,52,7,24.1,101.08,Mainly Clear
9/10/2012,9:00,13.3,7.3,67,15,24.1,101.33,Mainly Clear
12/27/2012,9:00,-5.7,-6.7,93,37,0.8,100.67,Moderate Snow
8/6/2012,6:00,18.0,13.8,76,13,48.3,101.01,Clear
8/27/2012,4:00,22.4,15.8,66,13,25.0,101.37,Mostly Cloudy
3/25/2012,4:00,5.3,-4.3,50,19,25.0,100.79,Cloudy
10/12/2012,1:00,8.1,5.4,83,24,25.0,100.75,Rain
1/11/2012,17:00,-11.9,-20.1,51,26,24.1,101.56,Mostly Cloudy
12/25/2012,14:00,-7.7,-14.1,60,6,48.3,101.95,Mainly Clear
7/22/2012,11:00,26.8,18.6,61,24,48.3,101.16,Mainly Clear
5/11/2012,7:00,9.5,2.3,61,19,48.3,100.54,Mostly Cloudy
2/14/2012,13:00,-2.1,-6.5,72,4,24.1,101.02,Cloudy
9/15/2012,0:00,16.3,14.8,91,20,19.3,101.17,Cloudy
2/15/2012,11:00,2.0,-0.2,85,0,8.0,101.65,Snow
8/29/2012,20:00,19.7,7.1,44,9,25.0,100.92,Clear
10/17/2012,5:00,2.6,0.2,84,0,25.0,100.95,Mostly Cloudy
8/25/2012,9:00,24.8,16.7,61,6,48.3,101.97,Mainly Clear
7/23/2012,12:00,28.8,20.3,60,13,48.3,100.57,Mainly Clear
5/12/2012,10:00,16.7,4.6,45,15,48.3,101.41,Clear
4/2/2012,19:00,4.9,-12.6,27,13,25.0,100.69,Clear
3/5/2012,19:00,-10.1,-19.1,48,20,25.0,102.01,Clear
5/24/2012,11:00,26.1,16.7,56,9,24.1,101.44,Clear
9/8/2012,22:00,14.2,10.8,80,30,25.0,99.87,Mostly Cloudy
10/4/2012,22:00,15.3,13.8,91,13,12.9,101.01,Mainly Clear
1/17/2012,1:00,-10.4,-14.6,71,9,25.0,100.88,Cloudy
11/23/2012,9:00,6.2,-1.2,59,20,48.3,100.34,Mostly Cloudy
6/7/2012,23:00,16.3,12.2,77,17,25.0,100.78,Rain
8/9/2012,4:00,21.4,17.4,78,11,25.0,100.9,Mostly Cloudy
2/24/2012,3:00,-3.8,-6.1,84,0,25.0,100.29,Mainly Clear
6/15/2012,19:00,23.2,8.8,40,15,48.3,102.07,Cloudy
12/2/2012,8:00,4.7,2.4,85,28,25.0,101.46,Cloudy
8/30/2012,2:00,15.4,12.1,81,11,25.0,100.97,Mostly Cloudy
3/18/2012,4:00,3.2,2.3,94,6,25.0,101.69,Clear
7/3/2012,23:00,20.8,14.8,69,0,25.0,100.32,Rain Showers
8/24/2012,18:00,25.8,14.2,49,6,24.1,101.71,Mainly Clear
2/4/2012,8:00,-11.6,-15.6,72,9,48.3,102.31,Clear
3/7/2012,14:00,9.3,-4.1,39,13,24.1,101.41,Mainly Clear
7/1/2012,18:00,24.5,13.9,52,17,48.3,100.52,Mainly Clear
11/22/2012,16:00,9.2,0.4,54,15,24.1,101.37,Mainly Clear
3/5/2012,11:00,-13.4,-20.7,54,26,48.3,101.31,Mostly Cloudy
9/18/2012,3:00,16.1,13.0,82,19,25.0,100.67,Mostly Cloudy
3/16/2012,15:00,3.7,3.2,97,7,6.4,101.48,Fog
11/28/2012,5:00,-3.2,-5.0,87,7,25.0,101.92,Cloudy
3/28/2012,18:00,1.3,-0.2,90,13,16.1,99.63,Drizzle
6/12/2012,5:00,19.3,13.1,67,17,24.1,101.01,Mostly Cloudy
11/3/2012,4:00,4.1,0.9,80,20,25.0,100.17,Mostly Cloudy
4/19/2012,1:00,5.5,-2.7,55,6,25.0,101.42,Clear
12/26/2012,17:00,-10.2,-13.9,74,22,25.0,102.16,Cloudy
11/3/2012,22:00,4.7,0.5,74,17,25.0,100.79,Cloudy
1/5/2012,15:00,-4.3,-12.0,55,26,48.3,100.52,Mainly Clear
4/23/2012,6:00,2.1,-0.3,84,52,16.1,99.66,Rain
7/25/2012,18:00,23.7,13.1,51,20,24.1,100.44,Cloudy
6/28/2012,22:00,22.5,15.0,63,11,25.0,99.88,Mostly Cloudy
11/12/2012,19:00,17.1,7.8,54,32,25.0,100.98,Mainly Clear
12/12/2012,22:00,-3.8,-5.6,87,4,11.3,102.4,Snow Showers
2/26/2012,14:00,-7.6,-17.2,46,28,48.3,102.42,Mainly Clear
12/12/2012,10:00,-4.7,-7.6,80,9,24.1,102.2,Snow Showers
7/19/2012,20:00,20.0,8.5,47,7,48.3,101.28,Mainly Clear
5/2/2012,23:00,11.9,8.7,81,19,25.0,101.18,Rain Showers
9/13/2012,13:00,27.3,14.2,45,19,48.3,101.89,Mainly Clear
1/4/2012,8:00,-17.8,-24.2,57,17,24.1,101.73,Mostly Cloudy
10/28/2012,0:00,11.0,8.4,84,15,25.0,101.18,Mostly Cloudy
9/3/2012,17:00,26.6,12.8,42,13,48.3,101.25,Mostly Cloudy
5/18/2012,7:00,11.2,2.9,57,20,48.3,101.9,Mainly Clear
12/31/2012,13:00,-4.6,-6.6,86,4,12.9,100.63,Snow
7/17/2012,15:00,25.8,22.0,80,4,24.1,99.69,Cloudy
9/30/2012,21:00,11.6,11.5,99,11,9.7,99.9,"Rain,Fog"
11/9/2012,17:00,4.6,-1.2,66,22,25.0,101.36,Cloudy
3/9/2012,14:00,-1.0,-7.6,61,19,48.3,101.43,Mainly Clear
3/14/2012,0:00,0.7,-1.0,88,7,3.2,101.02,Fog
9/23/2012,7:00,10.6,7.8,83,20,24.1,100.82,Mainly Clear
11/28/2012,9:00,-1.1,-3.4,84,6,24.1,101.79,Mostly Cloudy
4/23/2012,15:00,5.7,2.4,79,43,24.1,98.9,Cloudy
8/12/2012,21:00,22.3,17.8,76,11,25.0,100.71,Mainly Clear
5/18/2012,12:00,18.3,4.2,39,20,48.3,101.82,Mainly Clear
8/31/2012,9:00,21.8,17.1,75,35,24.1,100.5,Rain Showers
11/20/2012,7:00,-3.4,-5.2,87,7,4.8,102.02,Fog
11/2/2012,1:00,5.1,2.6,84,20,25.0,99.42,Cloudy
12/5/2012,17:00,-0.7,-8.3,56,30,25.0,101.66,Cloudy
3/2/2012,2:00,-5.2,-7.8,82,19,6.4,101.11,Snow
11/20/2012,9:00,-0.7,-3.6,81,6,9.7,102.01,Haze
5/29/2012,10:00,20.4,15.8,75,4,19.3,100.08,Mostly Cloudy
3/19/2012,9:00,13.9,10.5,80,6,12.9,101.71,Mainly Clear
3/15/2012,4:00,-0.2,-1.3,92,17,12.9,102.26,Cloudy
9/13/2012,19:00,24.2,15.8,59,11,25.0,101.72,Mainly Clear
4/15/2012,23:00,14.9,11.1,78,13,25.0,100.74,Cloudy
1/19/2012,9:00,-12.7,-17.2,69,17,48.3,101.73,Clear
3/30/2012,21:00,1.7,-9.0,45,4,25.0,101.32,Cloudy
3/1/2012,4:00,-5.4,-7.8,83,35,1.6,100.62,Snow
3/27/2012,15:00,2.1,-16.5,24,15,48.3,101.98,Mainly Clear
4/16/2012,22:00,19.4,14.7,74,24,25.0,100.25,Rain Showers
6/14/2012,0:00,14.5,5.4,54,11,25.0,101.85,Clear
5/25/2012,19:00,26.4,16.1,53,22,25.0,100.59,Cloudy
6/9/2012,5:00,11.1,8.0,81,6,48.3,100.68,Mainly Clear
9/26/2012,16:00,18.8,15.2,80,7,24.1,100.74,Rain Showers
1/20/2012,6:00,-7.6,-14.3,59,28,25.0,101.13,Cloudy
3/1/2012,22:00,-4.3,-6.9,82,22,2.4,101.0,Snow
6/12/2012,12:00,24.4,15.8,59,17,16.1,100.71,Rain Showers
2/18/2012,13:00,1.8,-6.1,56,20,48.3,100.7,Mostly Cloudy
11/24/2012,18:00,-0.4,-5.5,68,28,25.0,99.85,Snow Showers
12/24/2012,5:00,-10.4,-13.3,79,19,25.0,101.07,Mostly Cloudy
10/4/2012,15:00,15.9,14.7,93,4,9.7,101.24,Fog
1/8/2012,17:00,-7.2,-13.8,59,17,25.0,102.17,Mainly Clear
3/13/2012,14:00,6.5,4.5,87,7,6.4,100.61,Fog
11/26/2012,20:00,-4.6,-10.0,66,13,25.0,101.85,Clear
6/29/2012,15:00,30.7,14.6,38,32,48.3,99.42,Mainly Clear
1/4/2012,21:00,-7.6,-11.6,73,7,11.3,100.54,Snow
2/22/2012,8:00,2.6,0.9,89,17,19.3,99.57,Rain
3/12/2012,11:00,10.6,0.3,49,6,24.1,101.99,Cloudy
1/8/2012,20:00,-8.3,-13.7,65,15,25.0,102.28,Mostly Cloudy
1/14/2012,3:00,-12.0,-16.2,71,24,8.0,100.16,"Snow,Blowing Snow"
11/13/2012,10:00,4.7,-1.3,65,37,24.1,102.07,Mostly Cloudy
12/9/2012,18:00,-1.4,-5.9,71,19,25.0,102.25,Cloudy
4/8/2012,18:00,11.9,-4.7,31,19,25.0,99.69,Mostly Cloudy
7/11/2012,5:00,13.1,8.7,75,4,48.3,101.66,Clear
2/4/2012,11:00,-7.6,-13.6,62,0,48.3,102.29,Clear
1/11/2012,19:00,-11.8,-19.2,54,30,25.0,101.43,Mostly Cloudy
3/4/2012,2:00,-1.8,-7.8,64,26,25.0,99.56,Mostly Cloudy
7/26/2012,21:00,20.3,17.5,84,4,25.0,99.97,Mostly Cloudy
10/24/2012,4:00,2.0,-1.5,78,9,25.0,101.91,Clear
10/29/2012,12:00,15.4,9.8,69,26,24.1,100.35,Cloudy
5/10/2012,18:00,9.8,6.0,77,19,24.1,99.68,Rain Showers
2/19/2012,0:00,-3.9,-8.8,69,13,25.0,101.37,Clear
1/28/2012,1:00,-0.2,-2.9,82,22,25.0,100.34,Snow Showers
11/4/2012,17:00,3.2,-4.1,59,13,24.1,101.17,Cloudy
6/24/2012,16:00,26.4,8.7,33,19,24.1,100.61,Cloudy
2/15/2012,7:00,-0.3,-1.6,91,4,6.4,101.51,Snow
5/27/2012,4:00,14.4,3.5,48,13,25.0,101.84,Mostly Cloudy
1/15/2012,15:00,-15.4,-22.8,53,24,48.3,102.71,Clear
12/21/2012,6:00,1.0,0.0,93,22,4.0,99.76,"Rain,Snow"
7/18/2012,22:00,17.5,10.3,63,11,25.0,101.06,Clear
5/3/2012,12:00,15.7,10.3,70,15,24.1,101.4,Cloudy
5/4/2012,23:00,10.2,4.6,68,17,25.0,101.17,Mostly Cloudy
5/28/2012,4:00,16.6,8.3,58,17,25.0,101.21,Cloudy
1/2/2012,17:00,-2.1,-9.5,57,22,25.0,99.66,Snow Showers
4/26/2012,23:00,6.9,5.3,90,13,9.7,99.59,"Rain,Fog"
12/24/2012,4:00,-10.0,-12.7,81,24,25.0,101.02,Mostly Cloudy
6/23/2012,12:00,25.1,9.8,38,13,48.3,100.85,Mostly Cloudy
10/26/2012,4:00,7.2,5.2,87,7,25.0,101.48,Clear
11/30/2012,23:00,-10.8,-16.1,65,17,25.0,103.25,Mainly Clear
1/21/2012,10:00,-16.3,-21.4,65,17,24.1,102.12,Snow
10/19/2012,19:00,13.5,12.4,93,7,9.7,100.29,Rain
1/31/2012,3:00,-6.8,-12.4,64,15,19.3,101.76,Snow
9/25/2012,7:00,13.0,6.9,66,28,48.3,100.89,Mainly Clear
5/30/2012,2:00,18.6,10.5,59,22,25.0,99.88,Mainly Clear
6/27/2012,11:00,17.8,13.5,76,24,24.1,99.93,Rain
4/4/2012,7:00,4.8,-4.1,52,17,48.3,99.85,Mostly Cloudy
5/17/2012,3:00,7.3,1.6,67,15,25.0,101.16,Clear
9/2/2012,3:00,13.0,9.5,79,0,25.0,101.43,Mainly Clear
9/7/2012,10:00,22.2,15.8,67,19,48.3,100.82,Mostly Cloudy
9/8/2012,14:00,26.0,18.4,63,33,24.1,98.94,Rain Showers
5/8/2012,6:00,12.6,10.4,86,22,9.7,100.51,Rain
1/30/2012,9:00,-9.5,-16.6,56,13,48.3,101.75,Mainly Clear
8/21/2012,10:00,21.8,10.9,50,13,48.3,101.18,Mainly Clear
8/26/2012,15:00,30.1,15.7,42,13,48.3,101.76,Mainly Clear
12/13/2012,2:00,-5.9,-6.6,95,6,11.3,102.57,Clear
1/14/2012,12:00,-17.5,-23.8,58,20,48.3,101.16,Mostly Cloudy
5/8/2012,0:00,16.1,0.2,34,11,25.0,100.77,Mostly Cloudy
10/13/2012,17:00,9.1,-2.7,43,13,25.0,102.08,Mostly Cloudy
7/16/2012,22:00,24.2,17.7,67,9,25.0,100.38,Mostly Cloudy
5/16/2012,22:00,13.3,5.7,60,20,25.0,100.66,Mostly Cloudy
1/20/2012,3:00,-4.8,-9.9,67,19,25.0,100.75,Mostly Cloudy
8/30/2012,14:00,27.8,16.5,50,26,48.3,100.65,Mainly Clear
6/8/2012,1:00,15.7,12.9,83,7,25.0,100.65,Clear
11/21/2012,7:00,-0.1,-2.8,82,11,9.7,102.0,Haze
2/20/2012,5:00,-10.2,-13.7,75,6,25.0,101.77,Clear
9/27/2012,21:00,9.4,5.5,77,7,25.0,102.01,Clear
12/12/2012,5:00,-10.3,-11.7,89,4,25.0,102.06,Clear
4/28/2012,0:00,0.2,-7.4,57,17,25.0,101.52,Cloudy
5/17/2012,21:00,12.4,1.4,47,6,25.0,101.64,Clear
12/26/2012,3:00,-14.2,-15.8,88,6,25.0,102.52,Clear
2/15/2012,16:00,2.2,0.2,87,6,12.9,101.75,Rain
11/19/2012,21:00,-2.5,-3.8,91,4,19.3,102.23,Mainly Clear
1/27/2012,4:00,-4.9,-7.6,81,26,2.4,100.13,Snow
3/28/2012,4:00,-1.5,-3.8,84,20,25.0,100.88,Snow
5/22/2012,3:00,18.2,15.8,86,0,16.1,100.95,Rain Showers
5/2/2012,16:00,14.9,9.0,68,19,19.3,101.37,Mostly Cloudy
6/7/2012,3:00,12.3,8.9,80,17,25.0,101.02,Clear
2/25/2012,9:00,-1.4,-2.9,89,33,1.2,98.33,"Snow,Blowing Snow"
11/21/2012,16:00,5.5,-1.5,61,7,24.1,101.86,Mainly Clear
9/18/2012,11:00,17.3,16.4,94,20,9.7,100.13,Rain
7/23/2012,17:00,19.4,18.2,93,4,24.1,100.24,"Thunderstorms,Rain"
5/20/2012,1:00,16.9,8.4,57,6,25.0,101.64,Clear
12/4/2012,15:00,11.0,7.9,81,24,24.1,100.66,Cloudy
10/2/2012,14:00,18.7,12.4,67,11,24.1,101.03,Mostly Cloudy
6/23/2012,5:00,19.3,12.4,64,15,48.3,100.82,Mostly Cloudy
8/31/2012,0:00,23.4,14.5,57,33,25.0,100.55,Clear
5/13/2012,14:00,19.6,6.8,43,20,48.3,101.56,Mostly Cloudy
1/17/2012,9:00,-7.0,-9.5,82,15,4.0,100.59,Snow
1/6/2012,1:00,-10.0,-17.3,55,17,25.0,100.81,Cloudy
8/5/2012,14:00,24.9,22.9,89,26,16.1,100.42,Rain Showers
6/14/2012,21:00,21.0,6.0,38,11,25.0,102.16,Clear
9/21/2012,2:00,13.5,10.5,82,19,25.0,101.18,Mostly Cloudy
8/7/2012,0:00,19.6,16.0,80,13,25.0,101.04,Clear
6/23/2012,20:00,23.5,5.4,31,6,48.3,100.88,Clear
4/29/2012,16:00,9.2,-11.8,21,28,48.3,101.66,Mainly Clear
9/14/2012,14:00,27.3,16.4,51,9,48.3,101.27,Mostly Cloudy
2/24/2012,11:00,0.9,-3.2,74,15,19.3,100.13,Cloudy
2/2/2012,2:00,-6.3,-9.6,77,4,16.1,101.45,Snow Showers
11/22/2012,3:00,1.1,-0.9,86,4,16.1,101.86,Clear
4/20/2012,22:00,6.5,3.4,81,17,25.0,100.32,Cloudy
12/31/2012,20:00,0.2,-2.4,83,24,9.7,100.03,Snow
4/17/2012,20:00,7.4,-5.1,41,19,25.0,102.04,Mostly Cloudy
12/26/2012,7:00,-13.0,-14.4,89,7,25.0,102.46,Mainly Clear
6/22/2012,11:00,24.7,17.3,63,22,24.1,100.41,Mostly Cloudy
2/24/2012,14:00,1.1,-3.3,72,20,16.1,99.64,Snow
5/31/2012,2:00,15.6,11.2,75,4,25.0,100.32,Mostly Cloudy
6/15/2012,22:00,21.3,8.6,44,13,25.0,102.06,Mainly Clear
8/12/2012,5:00,19.6,18.7,95,4,8.0,100.75,Fog
3/23/2012,22:00,10.6,-8.9,24,19,25.0,101.73,Cloudy
9/11/2012,17:00,21.4,9.4,46,20,48.3,101.67,Mainly Clear
3/11/2012,20:00,4.8,-1.5,64,9,48.3,101.7,Clear
3/18/2012,3:00,3.9,2.4,90,7,25.0,101.66,Clear
6/16/2012,17:00,26.5,11.3,39,4,48.3,101.73,Mostly Cloudy
5/5/2012,9:00,8.3,0.7,59,9,48.3,101.74,Mainly Clear
12/29/2012,9:00,-13.2,-14.8,88,11,12.9,101.13,Cloudy
9/15/2012,23:00,7.9,5.6,85,9,25.0,101.5,Clear
10/21/2012,6:00,10.1,7.6,84,30,25.0,100.21,Cloudy
8/10/2012,11:00,19.9,18.5,92,15,6.4,100.73,Fog
9/1/2012,23:00,17.0,9.1,60,7,25.0,101.45,Mainly Clear
11/26/2012,14:00,-0.8,-11.3,45,24,48.3,101.38,Clear
7/20/2012,15:00,24.2,9.9,40,4,48.3,101.37,Mainly Clear
11/19/2012,11:00,2.4,-3.4,65,6,24.1,102.83,Mainly Clear
12/26/2012,15:00,-10.0,-14.2,71,19,24.1,102.28,Cloudy
3/8/2012,21:00,3.7,1.0,82,41,12.9,100.04,Rain
6/25/2012,5:00,16.4,14.3,87,15,19.3,100.21,Cloudy
1/30/2012,12:00,-7.0,-14.2,56,22,48.3,101.83,Mainly Clear
1/20/2012,17:00,-15.4,-24.3,46,17,48.3,102.21,Mainly Clear
1/27/2012,9:00,0.7,-1.4,86,17,12.9,99.34,Rain
10/20/2012,11:00,16.4,12.2,76,19,24.1,99.93,Mostly Cloudy
5/9/2012,11:00,16.1,13.3,83,9,24.1,100.03,Cloudy
12/18/2012,2:00,0.4,-0.9,91,24,19.3,100.32,Cloudy
12/2/2012,18:00,5.8,5.6,99,15,4.8,100.65,"Rain,Fog"
12/17/2012,9:00,0.4,-0.7,92,20,4.0,100.79,"Drizzle,Ice Pellets,Fog"
1/13/2012,2:00,-4.8,-7.5,81,22,25.0,99.22,Snow
5/30/2012,5:00,15.9,10.0,68,11,24.1,100.02,Mostly Cloudy
6/21/2012,3:00,24.6,18.9,71,11,25.0,100.58,Mainly Clear
9/4/2012,0:00,20.6,15.9,74,9,25.0,101.21,Mainly Clear
1/18/2012,22:00,-14.2,-19.8,62,13,25.0,101.92,Clear
1/24/2012,0:00,3.5,2.3,92,17,12.9,100.04,Rain
9/3/2012,20:00,25.0,12.6,46,9,25.0,101.21,Mostly Cloudy
1/16/2012,12:00,-10.7,-16.9,60,19,48.3,102.17,Mostly Cloudy
10/27/2012,15:00,14.6,9.5,71,17,24.1,101.1,Cloudy
6/5/2012,21:00,16.3,9.9,66,6,25.0,100.9,Mostly Cloudy
9/2/2012,22:00,19.2,10.0,55,4,25.0,101.57,Mainly Clear
6/25/2012,8:00,18.7,13.9,74,17,24.1,100.16,Mainly Clear
8/17/2012,18:00,23.9,16.1,62,24,48.3,100.19,Mostly Cloudy
5/7/2012,8:00,14.0,1.0,41,7,48.3,101.67,Clear
1/3/2012,20:00,-17.3,-25.4,49,24,25.0,101.82,Mainly Clear
10/10/2012,17:00,11.5,7.7,77,33,24.1,100.13,Rain
12/2/2012,13:00,6.2,4.3,88,19,12.9,100.89,Rain
1/1/2012,8:00,-1.4,-3.6,85,9,8.0,101.23,Fog
7/7/2012,11:00,24.4,16.2,60,17,24.1,100.44,Mostly Cloudy
1/8/2012,1:00,-0.6,-4.6,74,32,25.0,100.8,Mostly Cloudy
8/31/2012,20:00,22.3,19.1,82,11,25.0,100.61,Mainly Clear
7/14/2012,23:00,26.0,19.2,66,9,25.0,101.31,Clear
11/19/2012,12:00,4.9,-2.7,58,4,24.1,102.72,Clear
1/28/2012,5:00,0.3,-2.7,80,19,25.0,100.72,Mostly Cloudy
11/20/2012,12:00,4.6,-1.9,63,2,11.3,101.88,Cloudy
5/9/2012,21:00,15.4,9.5,68,11,25.0,99.67,Mostly Cloudy
5/21/2012,5:00,18.8,12.2,65,13,24.1,101.63,Mostly Cloudy
1/17/2012,7:00,-7.5,-9.6,85,9,2.0,100.69,Snow
1/4/2012,15:00,-10.2,-16.3,61,11,9.7,100.89,Snow
9/9/2012,5:00,11.5,9.5,88,11,25.0,100.44,Clear
12/31/2012,7:00,-9.3,-11.3,85,0,19.3,101.19,Snow Showers
12/8/2012,19:00,0.9,0.2,95,9,6.4,100.61,"Rain,Fog"
1/5/2012,22:00,-9.9,-15.7,63,7,25.0,100.85,Cloudy
2/6/2012,16:00,3.3,-3.1,63,17,24.1,100.47,Cloudy
2/10/2012,12:00,1.4,-3.9,68,24,24.1,100.97,Cloudy
7/26/2012,2:00,20.3,13.8,66,11,25.0,100.12,Mostly Cloudy
9/24/2012,22:00,12.6,5.6,62,17,25.0,101.08,Mostly Cloudy
10/9/2012,1:00,5.8,3.3,84,4,25.0,102.08,Clear
1/3/2012,0:00,-9.0,-16.0,57,28,25.0,100.35,Snow Showers
12/8/2012,11:00,2.2,1.5,95,17,8.0,100.83,"Rain,Fog"
5/21/2012,6:00,20.4,12.7,61,6,48.3,101.68,Mostly Cloudy
5/10/2012,19:00,9.5,6.2,80,15,24.1,99.73,Rain Showers
11/22/2012,5:00,-1.4,-3.3,87,6,16.1,101.85,Clear
7/26/2012,18:00,21.6,16.5,73,11,24.1,99.89,Cloudy
1/10/2012,14:00,-0.2,-6.2,64,26,24.1,100.45,Mainly Clear
7/29/2012,11:00,24.7,16.7,61,11,48.3,101.26,Mainly Clear
4/13/2012,4:00,1.2,-4.5,66,6,25.0,101.56,Clear
10/9/2012,4:00,4.3,2.7,89,7,25.0,102.04,Clear
10/26/2012,21:00,13.1,10.9,86,9,25.0,101.38,Mainly Clear
9/22/2012,10:00,18.5,13.8,74,33,24.1,100.14,Mostly Cloudy
1/14/2012,22:00,-19.9,-26.0,58,13,25.0,101.74,Mostly Cloudy
11/23/2012,2:00,2.6,-1.3,75,11,25.0,100.96,Mainly Clear
2/18/2012,18:00,0.8,-6.9,56,15,25.0,100.88,Mostly Cloudy
5/5/2012,19:00,14.7,-3.0,29,0,48.3,101.54,Mainly Clear
7/31/2012,10:00,27.3,19.8,64,11,24.1,100.97,Mainly Clear
10/5/2012,22:00,17.4,12.1,71,19,25.0,100.54,Cloudy
11/6/2012,16:00,1.9,-8.1,47,13,48.3,101.87,Mostly Cloudy
4/25/2012,22:00,6.2,0.2,65,9,25.0,100.69,Mostly Cloudy
12/6/2012,13:00,-1.0,-8.3,58,7,48.3,102.27,Mainly Clear
7/13/2012,15:00,31.9,12.3,30,22,48.3,101.46,Clear
9/30/2012,9:00,11.7,9.9,89,20,19.3,100.84,Cloudy
1/23/2012,18:00,3.0,1.2,88,19,4.0,100.54,"Rain,Fog"
3/11/2012,12:00,6.8,-3.2,49,24,48.3,101.86,Clear
4/30/2012,16:00,12.9,-3.8,31,9,48.3,101.79,Mostly Cloudy
11/14/2012,15:00,4.6,-7.4,41,6,48.3,103.15,Clear
12/21/2012,22:00,0.7,0.0,95,28,3.6,97.75,Snow
4/30/2012,8:00,6.6,-6.3,39,11,48.3,102.41,Mostly Cloudy
8/28/2012,0:00,21.8,19.1,85,26,25.0,100.53,Cloudy
4/5/2012,8:00,2.7,-6.5,51,20,24.1,100.72,Mostly Cloudy
4/20/2012,18:00,7.4,2.9,73,28,24.1,100.54,Cloudy
2/26/2012,3:00,-9.9,-15.1,66,28,25.0,101.42,Mainly Clear
12/20/2012,14:00,-1.0,-4.3,78,15,24.1,101.62,Cloudy
6/30/2012,11:00,26.3,14.9,50,26,48.3,99.79,Mainly Clear
7/9/2012,20:00,19.5,7.9,47,7,48.3,101.02,Clear
2/12/2012,1:00,-15.3,-23.1,51,11,25.0,100.62,Mostly Cloudy
7/5/2012,14:00,24.5,16.1,59,11,48.3,100.66,Mostly Cloudy
10/17/2012,19:00,11.7,3.6,58,7,25.0,100.93,Cloudy
11/14/2012,23:00,0.4,-6.2,61,11,25.0,103.12,Clear
5/27/2012,16:00,20.4,5.5,38,13,48.3,101.55,Cloudy
4/18/2012,8:00,3.3,-5.9,51,11,48.3,102.43,Clear
8/22/2012,13:00,25.8,12.8,44,24,48.3,101.39,Mainly Clear
8/6/2012,5:00,16.6,13.3,81,9,48.3,100.95,Clear
7/15/2012,17:00,23.5,20.6,84,11,24.1,100.78,Cloudy
9/14/2012,15:00,26.3,16.4,54,9,24.1,101.2,Cloudy
1/29/2012,8:00,-2.2,-8.3,63,32,24.1,100.81,Mostly Cloudy
2/1/2012,15:00,-4.9,-7.5,82,6,2.8,100.41,"Freezing Rain,Haze"
9/26/2012,15:00,17.6,15.6,88,11,24.1,100.75,Mostly Cloudy
2/25/2012,14:00,-3.2,-6.3,79,35,3.2,99.05,Snow
12/30/2012,8:00,-11.3,-14.5,77,20,24.1,100.57,Cloudy
7/27/2012,15:00,26.1,17.0,57,11,24.1,100.6,Mostly Cloudy
6/10/2012,10:00,23.5,11.8,48,7,48.3,101.42,Mainly Clear
4/4/2012,16:00,8.3,-3.0,45,20,24.1,99.75,Cloudy
6/24/2012,22:00,18.3,13.1,72,9,25.0,100.6,Cloudy
12/3/2012,2:00,6.8,5.3,90,28,25.0,100.99,Mostly Cloudy
2/19/2012,4:00,-5.8,-10.5,69,7,25.0,101.44,Mainly Clear
6/16/2012,23:00,20.9,12.9,60,0,25.0,101.58,Mainly Clear
4/4/2012,0:00,6.0,-8.2,35,9,25.0,100.22,Mostly Cloudy
8/22/2012,5:00,18.0,12.4,70,7,48.3,101.41,Mainly Clear
4/12/2012,10:00,8.7,-1.4,49,9,48.3,101.51,Mostly Cloudy
5/17/2012,20:00,13.8,0.6,40,7,48.3,101.58,Mainly Clear
10/4/2012,20:00,14.1,14.1,100,4,9.7,101.1,Fog
1/8/2012,8:00,-5.9,-10.7,69,11,24.1,101.7,Snow
9/28/2012,5:00,5.1,4.6,97,7,25.0,101.87,Mainly Clear
7/24/2012,14:00,24.5,12.2,46,28,48.3,100.11,Mostly Cloudy
11/21/2012,2:00,0.4,-2.5,81,7,25.0,101.82,Mainly Clear
8/17/2012,7:00,19.5,16.0,80,15,24.1,100.24,Mostly Cloudy
9/29/2012,6:00,10.2,8.8,91,11,25.0,101.27,Cloudy
2/1/2012,16:00,-4.5,-7.2,81,0,4.8,100.47,Haze
9/12/2012,20:00,22.4,14.0,59,11,25.0,101.88,Mainly Clear
10/30/2012,7:00,15.0,11.1,77,30,19.3,99.45,Rain Showers
5/31/2012,8:00,14.9,8.6,66,13,24.1,100.64,Mainly Clear
10/3/2012,9:00,12.7,12.6,99,19,4.8,101.53,Fog
2/21/2012,10:00,-1.4,-7.0,66,11,48.3,101.72,Mostly Cloudy
8/5/2012,19:00,24.2,22.2,89,26,16.1,100.29,Rain Showers
6/10/2012,18:00,26.5,9.3,34,15,48.3,101.39,Cloudy
12/31/2012,0:00,-11.1,-14.4,77,26,25.0,101.51,Cloudy
5/20/2012,14:00,30.9,11.5,30,11,48.3,101.72,Mainly Clear
12/23/2012,12:00,-7.9,-12.6,69,24,24.1,100.44,Cloudy
7/16/2012,5:00,20.3,19.6,96,4,9.7,100.55,Fog
9/29/2012,4:00,11.3,9.6,89,15,25.0,101.19,Cloudy
2/27/2012,17:00,-5.2,-7.9,81,20,24.1,101.01,Cloudy
9/14/2012,19:00,21.0,18.9,88,17,25.0,100.94,Cloudy
10/12/2012,9:00,5.4,-1.7,60,19,24.1,101.68,Mostly Cloudy
8/20/2012,18:00,22.5,10.0,45,17,24.1,100.64,Mainly Clear
1/17/2012,6:00,-7.7,-9.9,84,6,2.4,100.72,"Freezing Drizzle,Snow"
3/30/2012,14:00,4.4,-8.8,38,17,48.3,101.3,Mainly Clear
12/19/2012,9:00,0.6,0.2,97,13,2.4,100.33,"Drizzle,Fog"
9/16/2012,16:00,16.6,3.0,40,15,48.3,101.2,Clear
11/30/2012,11:00,-9.9,-15.9,61,9,48.3,103.18,Mostly Cloudy
8/30/2012,3:00,16.2,11.7,75,17,25.0,100.93,Mainly Clear
5/14/2012,13:00,22.0,7.4,39,17,48.3,101.32,Mainly Clear
6/17/2012,11:00,25.7,16.3,56,9,48.3,101.39,Cloudy
6/21/2012,12:00,31.8,20.8,52,15,24.1,100.36,Mainly Clear
12/25/2012,0:00,-9.0,-12.5,76,11,25.0,101.44,Mostly Cloudy
6/19/2012,12:00,25.3,17.0,60,9,24.1,100.99,Cloudy
8/7/2012,10:00,24.1,17.1,65,24,48.3,100.96,Mainly Clear
1/26/2012,4:00,-8.5,-13.5,67,0,25.0,101.95,Clear
11/30/2012,22:00,-10.7,-16.8,61,19,25.0,103.29,Mainly Clear
12/11/2012,20:00,-7.9,-11.3,77,15,25.0,101.68,Clear
5/28/2012,8:00,16.7,7.1,53,28,48.3,101.24,Mostly Cloudy
1/5/2012,3:00,-5.0,-7.7,81,11,9.7,100.24,Snow
9/14/2012,17:00,25.4,17.2,60,7,24.1,101.04,Cloudy
8/8/2012,16:00,28.0,16.1,48,9,24.1,100.92,Mostly Cloudy
4/1/2012,11:00,4.8,-0.3,70,4,24.1,100.43,Rain Showers
2/12/2012,14:00,-13.2,-23.0,44,26,48.3,100.52,Mainly Clear
9/6/2012,18:00,24.8,16.5,60,9,24.1,100.38,Mainly Clear
11/1/2012,2:00,7.6,6.2,91,4,25.0,99.35,Rain Showers
12/11/2012,22:00,-9.1,-11.4,83,6,25.0,101.78,Clear
6/25/2012,23:00,16.7,11.6,72,22,25.0,100.14,Cloudy
7/27/2012,14:00,26.6,16.8,55,0,24.1,100.57,Mainly Clear
10/5/2012,21:00,17.8,13.8,77,22,25.0,100.56,Cloudy
12/22/2012,8:00,-2.5,-4.5,86,41,4.0,98.44,Snow
3/6/2012,10:00,-10.0,-16.8,57,9,48.3,103.12,Mainly Clear
7/1/2012,12:00,24.2,13.4,51,22,48.3,100.54,Mainly Clear
12/15/2012,3:00,-8.0,-13.2,66,17,25.0,102.41,Clear
4/30/2012,6:00,3.0,-4.3,59,0,48.3,102.33,Mainly Clear
2/14/2012,11:00,-5.0,-10.6,65,0,19.3,101.14,Mostly Cloudy
8/4/2012,1:00,22.3,15.2,64,9,25.0,101.55,Mostly Cloudy
10/14/2012,18:00,9.9,9.4,97,11,2.0,100.56,"Rain,Fog"
3/5/2012,15:00,-10.0,-18.6,49,30,48.3,101.64,Mostly Cloudy
9/18/2012,20:00,19.2,17.9,92,24,25.0,99.33,Rain
2/29/2012,22:00,-4.5,-12.3,54,30,25.0,101.14,Snow
6/28/2012,8:00,19.4,14.2,72,9,48.3,100.28,Mostly Cloudy
7/12/2012,10:00,26.0,14.8,50,20,48.3,101.57,Mainly Clear
2/23/2012,3:00,0.6,-1.0,89,6,6.4,99.14,Snow
2/17/2012,7:00,3.0,-0.3,79,24,24.1,100.58,Mostly Cloudy
2/28/2012,20:00,-6.8,-13.4,59,11,25.0,102.56,Clear
11/17/2012,9:00,-2.1,-8.9,60,15,24.1,103.51,Mainly Clear
2/1/2012,12:00,-5.5,-8.0,83,11,2.0,100.31,"Freezing Drizzle,Haze"
7/13/2012,20:00,28.5,15.8,46,11,25.0,101.35,Mainly Clear
3/5/2012,8:00,-15.7,-22.5,56,24,24.1,101.0,Mostly Cloudy
10/11/2012,1:00,6.7,3.8,82,20,25.0,100.42,Mostly Cloudy
2/29/2012,2:00,-9.7,-13.9,71,4,25.0,102.46,Mainly Clear
1/11/2012,8:00,-14.7,-21.4,57,15,24.1,101.8,Mostly Cloudy
2/29/2012,23:00,-5.1,-11.2,62,30,8.0,101.01,Snow
5/24/2012,10:00,24.6,15.2,56,0,48.3,101.46,Clear
5/30/2012,20:00,18.3,8.1,51,6,48.3,100.13,Mainly Clear
4/6/2012,9:00,2.1,-8.4,46,17,48.3,101.37,Clear
2/9/2012,3:00,-3.5,-7.9,72,24,25.0,101.12,Clear
12/29/2012,20:00,-9.7,-11.6,86,24,9.7,100.25,"Snow,Fog"
12/27/2012,5:00,-7.5,-9.1,88,43,1.2,100.95,Snow
4/22/2012,4:00,1.2,-0.3,90,11,25.0,101.05,Rain
6/27/2012,4:00,15.2,12.4,83,13,19.3,99.72,Rain
10/13/2012,6:00,-1.0,-3.3,84,0,48.3,102.54,Mostly Cloudy
8/10/2012,0:00,19.5,17.0,85,17,25.0,100.74,Cloudy
12/28/2012,15:00,-6.8,-10.3,76,24,48.3,101.22,Mainly Clear
12/11/2012,12:00,-6.1,-12.4,61,11,24.1,101.13,Mainly Clear
4/21/2012,18:00,3.8,1.6,86,24,16.1,100.96,Rain
12/1/2012,14:00,-8.3,-13.6,66,22,24.1,102.86,Cloudy
6/9/2012,14:00,23.2,7.2,36,7,48.3,100.68,Mostly Cloudy
9/25/2012,1:00,12.1,6.4,68,19,25.0,100.92,Mostly Cloudy
9/8/2012,8:00,20.9,17.7,82,9,19.3,99.66,Cloudy
8/26/2012,0:00,22.1,18.0,78,11,25.0,101.85,Clear
10/20/2012,19:00,11.6,5.9,68,20,25.0,100.04,Clear
5/11/2012,18:00,16.8,-2.7,26,22,48.3,100.87,Clear
1/14/2012,14:00,-16.7,-23.4,56,17,48.3,101.2,Mostly Cloudy
8/24/2012,14:00,27.7,13.5,42,11,48.3,101.71,Mainly Clear
2/12/2012,0:00,-15.0,-22.4,53,11,25.0,100.66,Clear
9/23/2012,19:00,9.8,5.3,74,4,25.0,101.23,Mainly Clear
3/19/2012,17:00,15.9,9.1,64,13,24.1,101.66,Mainly Clear
2/28/2012,13:00,-5.5,-12.3,59,17,48.3,102.62,Mainly Clear
5/25/2012,1:00,19.7,15.6,77,15,25.0,101.4,Clear
5/8/2012,20:00,12.1,10.5,90,9,8.0,100.33,"Drizzle,Fog"
5/21/2012,21:00,22.5,13.8,58,24,25.0,101.05,Mainly Clear
12/21/2012,1:00,1.1,-0.7,88,17,6.4,100.47,"Rain,Snow,Ice Pellets"
5/18/2012,16:00,20.5,0.9,27,19,48.3,101.64,Mostly Cloudy
3/17/2012,5:00,-0.1,-0.3,99,0,0.8,102.2,Freezing Fog
12/18/2012,1:00,0.1,-0.9,93,24,19.3,100.37,Cloudy
12/18/2012,19:00,1.4,0.7,95,15,8.0,99.53,Rain
7/31/2012,19:00,24.8,18.3,67,22,24.1,100.55,Rain Showers
4/9/2012,8:00,6.6,3.6,81,20,24.1,99.05,Rain
10/25/2012,6:00,4.1,0.6,78,17,24.1,101.9,Mainly Clear
12/5/2012,10:00,2.1,-1.8,75,28,19.3,101.09,"Rain Showers,Snow Showers"
7/28/2012,4:00,17.6,12.1,70,13,25.0,101.14,Mostly Cloudy
5/27/2012,8:00,15.6,3.1,43,11,48.3,101.94,Mostly Cloudy
2/3/2012,17:00,-3.4,-7.0,76,11,19.3,102.19,Cloudy
2/29/2012,17:00,-4.1,-12.0,54,28,24.1,101.6,Cloudy
4/28/2012,13:00,5.4,-11.1,29,32,48.3,101.62,Mainly Clear
2/26/2012,7:00,-12.1,-17.8,62,22,48.3,102.07,Clear
4/8/2012,17:00,12.3,-4.5,31,7,48.3,99.75,Mostly Cloudy
8/15/2012,23:00,20.6,16.5,77,0,25.0,100.81,Mainly Clear
10/31/2012,18:00,8.8,7.4,91,13,25.0,99.37,Cloudy
1/7/2012,5:00,-6.9,-9.7,80,4,19.3,100.12,Cloudy
8/10/2012,19:00,19.6,18.5,93,24,4.8,100.63,"Rain,Fog"
3/3/2012,7:00,2.0,-1.6,77,41,24.1,98.89,Mostly Cloudy
4/1/2012,9:00,3.7,-3.9,58,9,48.3,100.49,Cloudy
7/9/2012,14:00,24.3,6.5,32,22,48.3,101.01,Mainly Clear
4/26/2012,5:00,2.6,-1.3,75,9,24.1,100.69,Clear
7/14/2012,18:00,31.5,18.4,46,15,24.1,101.19,Mainly Clear
6/24/2012,8:00,22.2,10.6,48,7,48.3,101.03,Clear
11/28/2012,7:00,-3.1,-5.3,85,9,24.1,101.86,Cloudy
1/14/2012,0:00,-8.9,-13.1,72,39,9.7,99.67,"Snow,Blowing Snow"
7/23/2012,19:00,20.7,18.5,87,20,24.1,100.08,Rain
5/11/2012,21:00,10.2,-2.1,42,9,25.0,101.1,Clear
7/21/2012,12:00,24.9,12.3,45,6,48.3,101.36,Mainly Clear
4/18/2012,6:00,0.9,-6.3,59,9,48.3,102.41,Clear
2/13/2012,5:00,-8.0,-15.0,57,22,25.0,100.33,Cloudy
10/9/2012,5:00,5.1,3.2,88,4,25.0,102.08,Mainly Clear
1/27/2012,14:00,0.5,-1.3,88,20,2.4,98.69,"Drizzle,Fog"
6/10/2012,17:00,26.6,10.0,35,6,48.3,101.37,Cloudy
6/14/2012,1:00,13.4,5.2,58,9,25.0,101.88,Clear
12/21/2012,17:00,1.3,0.2,92,46,12.9,97.76,Rain
3/13/2012,23:00,1.1,-0.9,86,9,4.8,100.98,Haze
7/1/2012,15:00,24.7,14.0,51,15,48.3,100.56,Mostly Cloudy
7/15/2012,13:00,30.5,19.2,51,15,24.1,100.98,Cloudy
7/22/2012,3:00,22.4,14.8,62,15,25.0,101.12,Mostly Cloudy
8/18/2012,19:00,18.4,7.6,49,11,48.3,100.83,Mainly Clear
3/14/2012,7:00,0.8,-0.4,92,6,2.4,101.36,Fog
2/12/2012,21:00,-10.8,-18.8,52,24,25.0,100.55,Cloudy
1/14/2012,11:00,-17.8,-23.9,59,20,24.1,101.14,Mostly Cloudy
10/15/2012,8:00,14.4,11.3,82,20,24.1,99.53,Cloudy
3/23/2012,15:00,16.4,-6.8,20,15,48.3,101.63,Mostly Cloudy
6/26/2012,5:00,15.4,10.2,71,17,24.1,100.16,Cloudy
11/12/2012,0:00,0.9,-0.3,92,19,19.3,101.99,Mainly Clear
8/24/2012,12:00,26.5,13.9,46,6,48.3,101.8,Mainly Clear
8/29/2012,9:00,19.6,7.9,47,22,48.3,101.11,Clear
6/27/2012,13:00,19.3,14.4,73,13,19.3,99.96,Rain
9/24/2012,4:00,7.2,5.0,86,4,25.0,101.42,Mainly Clear
10/31/2012,7:00,11.6,10.4,92,11,24.1,99.26,Mostly Cloudy
9/14/2012,0:00,19.5,15.5,78,9,25.0,101.72,Clear
10/19/2012,7:00,11.3,9.9,91,17,9.7,101.0,"Rain,Fog"
7/1/2012,6:00,21.0,12.9,60,7,24.1,100.41,Mostly Cloudy
12/26/2012,18:00,-10.0,-13.8,74,24,25.0,102.14,Cloudy
8/19/2012,18:00,22.1,12.3,54,9,48.3,100.74,Mostly Cloudy
5/6/2012,0:00,12.1,-4.7,31,9,25.0,101.67,Mostly Cloudy
2/1/2012,23:00,-4.9,-8.1,78,0,12.9,101.22,Snow
1/25/2012,22:00,-5.5,-11.3,64,0,25.0,101.99,Mostly Cloudy
10/5/2012,19:00,18.7,14.2,75,32,25.0,100.53,Cloudy
5/7/2012,22:00,18.1,-3.5,23,17,25.0,100.84,Mainly Clear
2/3/2012,18:00,-3.7,-7.1,77,7,19.3,102.17,Snow
2/15/2012,3:00,-1.6,-5.4,75,4,25.0,101.36,Cloudy
2/7/2012,4:00,-1.0,-8.3,58,19,25.0,101.03,Mostly Cloudy
3/29/2012,10:00,3.2,-2.4,67,13,24.1,100.7,Cloudy
8/17/2012,19:00,23.4,16.3,64,17,48.3,100.24,Mainly Clear
4/12/2012,0:00,5.5,-1.5,61,13,25.0,101.14,Mainly Clear
1/24/2012,3:00,5.0,3.6,91,19,9.7,100.19,Rain
8/23/2012,21:00,22.9,16.6,68,7,25.0,101.47,Mainly Clear
5/6/2012,20:00,13.1,-1.4,37,9,25.0,101.58,Mainly Clear
7/16/2012,7:00,23.0,19.8,82,6,24.1,100.57,Mostly Cloudy
3/13/2012,5:00,5.8,1.1,72,6,25.0,100.71,Cloudy
11/6/2012,18:00,-0.9,-7.8,59,4,25.0,101.89,Clear
5/30/2012,4:00,16.6,10.3,66,13,24.1,99.98,Mostly Cloudy
12/30/2012,15:00,-11.3,-15.6,70,32,48.3,101.05,Mainly Clear
11/11/2012,10:00,1.7,-0.6,85,17,24.1,102.31,Rain Showers
12/5/2012,1:00,9.0,7.3,89,30,16.1,100.45,Rain
1/29/2012,5:00,-1.5,-7.8,62,43,25.0,100.59,Mainly Clear
1/7/2012,12:00,-5.5,-7.8,84,13,9.7,100.05,Freezing Drizzle
10/12/2012,7:00,3.7,-0.4,75,17,24.1,101.45,Mainly Clear
1/10/2012,17:00,-4.0,-12.0,54,17,24.1,100.91,Mostly Cloudy
10/14/2012,9:00,6.8,5.4,91,7,16.1,101.13,Cloudy
9/25/2012,16:00,19.2,9.5,53,19,48.3,100.98,Mostly Cloudy
9/25/2012,21:00,14.3,10.5,78,13,25.0,101.06,Mostly Cloudy
9/25/2012,22:00,13.1,9.5,79,7,25.0,101.05,Mainly Clear
6/22/2012,21:00,22.8,11.8,50,9,25.0,100.47,Mostly Cloudy
6/19/2012,19:00,27.0,19.0,62,20,24.1,100.94,Mostly Cloudy
6/12/2012,15:00,19.1,17.3,89,15,6.4,100.67,"Rain,Fog"
4/19/2012,5:00,3.4,-2.9,63,4,24.1,101.25,Mainly Clear
12/1/2012,9:00,-10.6,-15.9,65,24,24.1,103.18,Cloudy
12/28/2012,18:00,-9.0,-12.2,78,24,25.0,101.37,Mainly Clear
11/13/2012,16:00,4.9,-5.1,48,24,24.1,102.33,Mainly Clear
9/13/2012,5:00,14.9,11.8,82,4,25.0,102.0,Clear
1/9/2012,16:00,-1.3,-5.7,72,11,24.1,101.05,Mostly Cloudy
5/14/2012,2:00,12.0,6.9,71,4,25.0,101.5,Clear
3/10/2012,6:00,-6.8,-14.1,56,26,24.1,102.6,Mostly Cloudy
3/18/2012,8:00,8.8,5.8,81,11,48.3,101.79,Mainly Clear
6/9/2012,19:00,21.8,7.6,40,9,48.3,100.75,Mostly Cloudy
8/11/2012,11:00,23.9,19.8,78,13,24.1,100.61,Mostly Cloudy
10/9/2012,0:00,5.8,2.6,80,6,25.0,102.06,Clear
11/27/2012,22:00,-3.4,-6.0,82,7,25.0,102.1,Mostly Cloudy
2/4/2012,1:00,-4.5,-6.7,85,11,25.0,101.98,Mostly Cloudy
9/2/2012,21:00,19.7,9.4,51,7,25.0,101.53,Mainly Clear
5/19/2012,10:00,21.0,7.8,43,4,48.3,101.74,Mainly Clear
5/25/2012,2:00,19.4,15.6,79,15,25.0,101.41,Clear
4/27/2012,11:00,3.0,-3.7,61,30,24.1,100.58,Cloudy
7/6/2012,10:00,25.7,18.3,64,15,48.3,100.65,Cloudy
10/26/2012,17:00,15.7,11.6,77,9,24.1,101.33,Mainly Clear
12/10/2012,23:00,1.2,-2.1,79,20,25.0,99.78,Mostly Cloudy
3/6/2012,2:00,-13.7,-20.7,55,4,25.0,102.55,Clear
3/10/2012,12:00,-4.1,-12.1,54,7,48.3,102.99,Clear
1/20/2012,1:00,-4.1,-8.3,73,20,25.0,100.54,Snow
1/20/2012,13:00,-15.8,-23.7,51,30,24.1,101.96,Clear
2/21/2012,3:00,-5.3,-8.9,76,4,25.0,102.19,Clear
3/21/2012,8:00,13.8,11.5,86,9,12.9,102.15,Clear
5/5/2012,18:00,15.7,-2.8,28,11,48.3,101.52,Mainly Clear
2/19/2012,17:00,-2.1,-9.8,56,15,48.3,101.36,Clear
7/14/2012,10:00,30.2,17.7,47,17,48.3,101.46,Mainly Clear
9/21/2012,4:00,14.3,11.4,83,19,25.0,101.14,Cloudy
7/29/2012,5:00,16.6,10.8,69,13,48.3,101.23,Mainly Clear
6/18/2012,16:00,25.6,13.6,47,24,24.1,100.98,Mainly Clear
6/2/2012,2:00,14.6,8.7,68,19,16.1,100.58,Rain
4/3/2012,7:00,0.3,-11.3,41,11,48.3,101.09,Clear
11/23/2012,6:00,3.7,-2.1,66,13,25.0,100.61,Mostly Cloudy
2/1/2012,5:00,-5.8,-8.5,81,19,8.0,100.42,Freezing Drizzle
10/5/2012,2:00,15.7,12.7,82,17,16.1,100.92,Clear
1/15/2012,13:00,-16.8,-24.2,53,20,48.3,102.65,Mainly Clear
4/15/2012,8:00,13.5,8.0,69,11,24.1,100.84,Cloudy
11/16/2012,20:00,3.3,-1.7,70,9,25.0,102.75,Mostly Cloudy
5/6/2012,23:00,11.1,-2.1,40,0,25.0,101.57,Clear
2/19/2012,16:00,-1.6,-9.7,54,20,48.3,101.37,Clear
6/28/2012,7:00,18.6,14.2,76,11,48.3,100.29,Mostly Cloudy
4/19/2012,19:00,18.0,4.1,40,15,48.3,100.69,Mainly Clear
6/13/2012,10:00,17.9,11.0,64,19,24.1,101.18,Mostly Cloudy
9/6/2012,14:00,28.1,17.8,54,13,24.1,100.34,Mostly Cloudy
12/29/2012,22:00,-10.1,-11.6,89,15,2.4,100.2,"Snow,Fog"
11/22/2012,20:00,5.9,0.4,68,7,25.0,101.28,Mainly Clear
2/13/2012,2:00,-8.8,-15.7,57,24,25.0,100.33,Cloudy
7/7/2012,10:00,24.1,16.0,61,19,24.1,100.43,Mostly Cloudy
8/9/2012,0:00,22.8,17.7,73,9,25.0,100.93,Mainly Clear
6/6/2012,12:00,19.8,9.7,52,9,24.1,101.05,Mainly Clear
8/10/2012,9:00,20.2,18.6,91,13,11.3,100.7,Cloudy
6/13/2012,7:00,18.1,14.1,77,20,24.1,100.86,Mostly Cloudy
10/5/2012,4:00,14.4,12.6,89,13,19.3,100.96,Clear
6/27/2012,9:00,18.0,12.0,68,20,24.1,99.86,Cloudy
5/2/2012,2:00,8.8,7.7,93,4,0.4,101.44,Fog
5/13/2012,1:00,16.0,10.0,68,7,25.0,101.31,Cloudy
4/17/2012,13:00,12.2,-0.2,42,32,48.3,101.61,Mainly Clear
1/3/2012,3:00,-11.3,-18.7,54,33,25.0,100.61,Snow Showers
7/18/2012,0:00,20.7,17.6,82,9,25.0,100.28,Mostly Cloudy
10/5/2012,13:00,19.2,14.9,76,20,24.1,100.69,Cloudy
5/22/2012,22:00,14.9,10.8,76,17,25.0,100.81,Mostly Cloudy
9/13/2012,11:00,24.6,14.8,54,15,48.3,102.02,Mainly Clear
8/19/2012,8:00,17.5,13.3,76,15,48.3,101.06,Clear
9/20/2012,15:00,19.1,7.5,47,20,48.3,101.39,Clear
6/28/2012,15:00,27.0,14.8,47,22,48.3,100.03,Mainly Clear
12/7/2012,14:00,3.9,-4.3,55,11,48.3,101.09,Cloudy
4/15/2012,15:00,18.1,10.6,62,24,48.3,100.65,Mostly Cloudy
1/5/2012,4:00,-4.1,-6.5,83,9,4.8,100.21,Snow
12/24/2012,0:00,-8.5,-10.7,84,15,25.0,100.8,Mostly Cloudy
12/20/2012,4:00,-0.7,-3.4,82,15,25.0,101.72,Cloudy
11/24/2012,8:00,2.2,-2.0,74,30,25.0,99.57,Mostly Cloudy
7/2/2012,21:00,20.0,10.4,54,6,25.0,100.81,Mainly Clear
5/9/2012,3:00,12.9,11.4,91,6,4.8,100.13,"Drizzle,Fog"
4/3/2012,5:00,-2.6,-12.4,47,6,25.0,100.99,Clear
7/12/2012,3:00,20.6,12.5,60,11,25.0,101.5,Clear
2/29/2012,16:00,-3.6,-11.2,56,26,24.1,101.72,Cloudy
10/6/2012,17:00,12.0,7.9,76,9,48.3,100.32,Mostly Cloudy
7/10/2012,19:00,23.9,10.1,42,13,48.3,101.18,Mainly Clear
3/29/2012,18:00,3.4,-5.6,52,20,24.1,100.97,Mostly Cloudy
10/29/2012,19:00,14.0,9.6,75,50,25.0,99.65,Mostly Cloudy
8/17/2012,17:00,24.8,15.7,57,30,24.1,100.15,Mostly Cloudy
8/22/2012,2:00,18.8,13.8,73,11,25.0,101.35,Mostly Cloudy
11/26/2012,18:00,-3.4,-9.5,63,20,25.0,101.75,Clear
8/22/2012,19:00,23.9,12.7,49,9,48.3,101.25,Mainly Clear
5/31/2012,12:00,16.8,8.6,58,0,48.3,100.72,Mostly Cloudy
11/2/2012,9:00,3.7,2.1,89,22,24.1,99.61,Rain
1/3/2012,13:00,-15.1,-22.4,54,22,24.1,101.34,Mainly Clear
11/23/2012,5:00,2.5,-2.4,70,11,25.0,100.69,Mostly Cloudy
2/5/2012,3:00,-12.9,-15.7,79,6,25.0,101.86,Clear
12/28/2012,9:00,-5.5,-8.0,83,17,24.1,101.23,Mostly Cloudy
1/11/2012,14:00,-11.4,-19.4,52,20,24.1,101.56,Mostly Cloudy
9/12/2012,6:00,13.5,11.2,86,0,48.3,102.02,Clear
10/2/2012,4:00,12.0,11.9,99,6,19.3,100.85,Clear
9/12/2012,7:00,15.8,11.8,77,9,48.3,102.02,Clear
8/19/2012,0:00,16.0,11.5,75,9,25.0,100.96,Clear
3/28/2012,11:00,2.8,-2.1,70,13,48.3,99.74,Cloudy
2/8/2012,8:00,-10.8,-17.0,60,13,48.3,102.09,Mainly Clear
11/18/2012,20:00,-1.8,-6.8,69,6,25.0,103.3,Mostly Cloudy
9/6/2012,1:00,21.0,18.4,85,7,25.0,100.55,Mostly Cloudy
8/31/2012,1:00,23.5,14.1,56,35,25.0,100.51,Mainly Clear
2/14/2012,17:00,1.1,-3.7,70,9,24.1,101.01,Mostly Cloudy
8/17/2012,5:00,17.6,15.3,86,7,25.0,100.3,Clear
6/30/2012,0:00,23.1,11.9,49,20,25.0,99.63,Clear
1/26/2012,6:00,-11.2,-15.0,73,6,25.0,102.06,Clear
10/20/2012,20:00,10.7,5.5,70,17,25.0,100.06,Mainly Clear
3/11/2012,23:00,6.1,-2.0,56,7,25.0,101.75,Clear
12/4/2012,9:00,5.9,4.8,93,11,19.3,101.23,Rain Showers
8/1/2012,19:00,26.3,19.2,65,13,24.1,100.46,Mostly Cloudy
7/24/2012,5:00,19.5,18.6,95,6,24.1,99.78,Mostly Cloudy
9/25/2012,8:00,14.1,7.2,63,24,48.3,100.92,Mainly Clear
7/28/2012,18:00,26.2,10.3,37,15,48.3,101.15,Mostly Cloudy
2/12/2012,6:00,-16.7,-23.3,57,15,25.0,100.6,Snow
6/16/2012,16:00,26.5,11.0,38,7,48.3,101.77,Mostly Cloudy
9/30/2012,22:00,11.6,11.2,97,13,16.1,99.79,Rain
3/6/2012,21:00,-5.4,-14.4,49,9,25.0,102.69,Mostly Cloudy
6/22/2012,9:00,24.6,17.6,65,17,24.1,100.4,Mostly Cloudy
6/7/2012,7:00,13.9,8.4,69,4,24.1,101.13,Mainly Clear
10/24/2012,5:00,2.6,-1.5,74,9,25.0,101.93,Clear
5/1/2012,8:00,8.0,5.9,87,17,9.7,101.13,"Rain,Fog"
9/8/2012,15:00,24.4,20.2,77,30,16.1,98.89,Rain Showers
7/1/2012,10:00,23.4,13.5,54,13,48.3,100.5,Mainly Clear
10/9/2012,13:00,15.0,4.4,49,7,48.3,101.71,Mostly Cloudy
5/23/2012,18:00,22.2,11.8,52,4,24.1,101.12,Mainly Clear
10/4/2012,1:00,16.1,14.7,91,11,16.1,101.55,Cloudy
10/28/2012,5:00,9.6,6.7,82,7,25.0,101.28,Cloudy
10/7/2012,2:00,7.0,4.2,82,15,25.0,100.93,Mainly Clear
11/11/2012,19:00,1.9,0.2,88,17,25.0,102.14,Clear
7/26/2012,7:00,19.4,16.0,81,7,24.1,100.0,Cloudy
3/4/2012,13:00,-5.5,-12.8,56,19,48.3,99.88,Mainly Clear
6/20/2012,16:00,32.2,20.0,49,26,24.1,100.74,Mainly Clear
5/5/2012,7:00,6.5,-0.7,60,19,48.3,101.62,Mainly Clear
4/13/2012,5:00,1.3,-4.1,67,6,48.3,101.6,Clear
10/3/2012,11:00,15.8,13.7,87,19,12.9,101.48,Cloudy
10/21/2012,8:00,10.2,6.4,77,35,24.1,100.29,Mostly Cloudy
3/28/2012,22:00,1.0,-0.7,88,13,9.7,99.95,Fog
3/21/2012,20:00,18.4,8.9,54,7,25.0,101.7,Clear
8/19/2012,6:00,15.2,12.2,82,15,48.3,101.02,Mainly Clear
5/17/2012,19:00,14.1,0.4,39,13,48.3,101.54,Clear
8/18/2012,12:00,21.0,11.2,53,22,48.3,100.83,Mainly Clear
7/21/2012,0:00,17.2,12.6,74,4,25.0,101.4,Clear
12/17/2012,2:00,-2.2,-3.3,92,24,11.3,101.0,Freezing Rain
9/29/2012,13:00,12.4,9.8,84,19,24.1,101.15,Drizzle
1/11/2012,11:00,-13.4,-20.8,54,15,24.1,101.78,Mostly Cloudy
12/21/2012,9:00,0.8,-0.2,93,33,2.4,99.38,"Rain,Snow"
6/3/2012,8:00,14.9,10.3,74,13,24.1,100.24,Mostly Cloudy
10/15/2012,6:00,13.6,11.5,87,19,24.1,99.56,Cloudy
7/16/2012,14:00,28.1,20.7,64,13,24.1,100.43,Cloudy
10/9/2012,15:00,15.0,4.6,50,13,48.3,101.59,Mostly Cloudy
12/16/2012,15:00,-7.6,-9.4,87,32,3.2,101.38,"Snow,Fog"
1/16/2012,1:00,-17.8,-22.7,65,6,25.0,103.05,Clear
7/16/2012,1:00,21.6,19.4,87,0,25.0,100.62,Thunderstorms
4/24/2012,4:00,7.5,4.2,80,19,25.0,98.51,Rain Showers
6/9/2012,18:00,23.6,7.1,35,11,48.3,100.73,Mainly Clear
12/8/2012,9:00,2.7,1.8,94,11,4.8,100.98,"Rain,Fog"
6/5/2012,10:00,18.8,6.7,45,19,48.3,100.99,Mainly Clear
7/12/2012,2:00,20.6,12.9,61,6,25.0,101.49,Clear
6/5/2012,7:00,14.3,6.5,59,20,48.3,100.99,Mainly Clear
3/5/2012,21:00,-11.0,-19.6,49,17,25.0,102.23,Clear
7/21/2012,9:00,22.3,14.5,61,7,48.3,101.44,Mainly Clear
8/30/2012,21:00,24.5,15.6,58,44,25.0,100.53,Mainly Clear
3/25/2012,2:00,5.9,-5.0,45,9,25.0,100.91,Rain Showers
11/25/2012,23:00,-4.2,-10.5,61,15,25.0,100.5,Mostly Cloudy
12/19/2012,14:00,1.1,-0.1,92,13,24.1,100.72,Cloudy
12/20/2012,7:00,-1.8,-4.9,79,20,25.0,101.88,Cloudy
10/6/2012,0:00,16.8,11.2,70,13,25.0,100.51,Cloudy
8/2/2012,16:00,30.0,17.8,48,22,24.1,100.4,Mostly Cloudy
4/28/2012,5:00,-1.5,-9.6,54,26,24.1,101.67,Cloudy
4/15/2012,7:00,11.7,6.2,69,9,24.1,100.81,Cloudy
5/20/2012,4:00,14.8,8.9,68,6,48.3,101.72,Mainly Clear
7/29/2012,21:00,25.3,18.3,65,11,25.0,101.15,Mainly Clear
4/9/2012,11:00,7.4,2.8,73,24,24.1,99.1,Rain
2/3/2012,21:00,-4.7,-8.0,78,7,25.0,102.17,Mostly Cloudy
1/28/2012,11:00,-0.6,-3.6,80,6,48.3,100.9,Cloudy
6/25/2012,19:00,15.0,10.9,76,22,24.1,100.14,Cloudy
11/16/2012,13:00,4.9,-2.6,58,15,24.1,102.49,Mainly Clear
2/20/2012,9:00,-8.7,-14.1,65,6,48.3,102.04,Mostly Cloudy
4/9/2012,10:00,7.0,2.3,72,28,24.1,99.07,Rain
6/18/2012,3:00,19.3,13.4,69,17,25.0,101.06,Mainly Clear
2/16/2012,5:00,0.7,-0.9,89,4,12.9,101.92,Cloudy
11/11/2012,4:00,0.9,-4.3,68,20,25.0,102.34,Cloudy
7/8/2012,11:00,22.0,7.1,38,19,48.3,100.81,Clear
6/18/2012,12:00,25.3,14.8,52,19,24.1,101.13,Mostly Cloudy
12/25/2012,21:00,-9.7,-12.5,80,4,25.0,102.28,Clear
1/5/2012,11:00,-5.6,-10.2,70,22,48.3,100.41,Mainly Clear
2/8/2012,21:00,-3.1,-10.3,57,26,25.0,101.25,Mainly Clear
8/26/2012,14:00,30.2,15.5,41,17,48.3,101.81,Mainly Clear
5/11/2012,1:00,8.4,3.1,69,22,25.0,100.14,Rain Showers
11/30/2012,1:00,-12.0,-16.5,69,9,25.0,102.6,Clear
3/27/2012,5:00,-7.4,-16.4,49,11,25.0,102.24,Clear
3/10/2012,14:00,-2.6,-11.1,52,15,48.3,102.84,Mostly Cloudy
3/5/2012,9:00,-15.1,-22.1,55,24,24.1,101.11,Mostly Cloudy
1/1/2012,19:00,3.1,1.3,88,15,12.9,99.68,Rain
1/3/2012,2:00,-10.5,-15.8,65,22,12.9,100.53,Snow Showers
4/24/2012,2:00,6.1,4.5,89,6,9.7,98.5,Fog
5/14/2012,5:00,8.3,5.7,84,0,24.1,101.54,Mainly Clear
6/26/2012,1:00,16.2,10.9,71,24,25.0,100.13,Cloudy
6/22/2012,8:00,23.0,17.3,70,17,24.1,100.37,Mostly Cloudy
9/13/2012,10:00,22.6,14.2,59,17,48.3,102.05,Mainly Clear
12/7/2012,18:00,2.2,-3.5,66,7,25.0,101.13,Mostly Cloudy
2/16/2012,11:00,3.3,-2.1,68,11,24.1,101.76,Mostly Cloudy
2/5/2012,10:00,-11.1,-13.4,83,9,0.8,101.97,Freezing Fog
12/30/2012,14:00,-11.8,-16.1,70,37,48.3,100.96,Mainly Clear
1/14/2012,10:00,-18.0,-23.9,60,22,24.1,101.08,Mostly Cloudy
10/18/2012,3:00,8.9,5.3,78,9,25.0,100.91,Mostly Cloudy
1/28/2012,6:00,-1.7,-5.4,76,9,25.0,100.79,Mostly Cloudy
12/31/2012,2:00,-10.1,-13.4,77,9,25.0,101.45,Cloudy
1/20/2012,19:00,-16.3,-24.2,51,13,25.0,102.33,Mainly Clear
7/5/2012,12:00,23.3,16.3,65,6,48.3,100.68,Cloudy
5/15/2012,10:00,20.7,15.0,70,7,24.1,101.17,Mostly Cloudy
4/7/2012,17:00,8.4,-6.3,35,9,24.1,101.35,Mostly Cloudy
2/26/2012,2:00,-9.2,-14.6,65,22,25.0,101.26,Clear
11/15/2012,0:00,-1.4,-6.1,70,13,25.0,103.1,Clear
6/8/2012,23:00,12.0,7.6,74,9,25.0,100.5,Clear
9/15/2012,6:00,13.4,11.1,86,22,24.1,101.25,Mostly Cloudy
8/31/2012,10:00,19.7,17.8,89,20,24.1,100.54,"Thunderstorms,Rain Showers"
3/14/2012,1:00,0.7,-0.9,89,7,1.0,101.06,Fog
6/19/2012,16:00,27.7,19.0,59,17,24.1,100.87,Mostly Cloudy
